station,valid,tmpf,dwpf,relh,drct,sknt,p01i,alti,mslp,vsby,gust,skyc1,skyc2,skyc3,skyc4,skyl1,skyl2,skyl3,skyl4,wxcodes,ice_accretion_1hr,ice_accretion_3hr,ice_accretion_6hr,peak_wind_gust,peak_wind_drct,peak_wind_time,feel,metar
IND,2020-04-01 00:00,M,M,M,340.00,9.00,M,29.95,M,10.00,M,BKN,OVC,M,M,2200.00,4400.00,M,M,M,M,M,M,M,M,M,M,KIND 010000Z AUTO 34009KT 10SM BKN022 OVC044 04/03 A2995 RMK T00400030 MADISHF
IND,2020-04-01 00:05,M,M,M,330.00,10.00,M,29.95,M,10.00,M,BKN,OVC,M,M,2200.00,4400.00,M,M,M,M,M,M,M,M,M,M,KIND 010005Z AUTO 33010KT 10SM BKN022 OVC044 04/03 A2995 RMK T00400030 MADISHF
IND,2020-04-01 00:10,M,M,M,340.00,11.00,M,29.95,M,10.00,M,BKN,OVC,M,M,2200.00,4400.00,M,M,M,M,M,M,M,M,M,M,KIND 010010Z AUTO 34011KT 10SM BKN022 OVC044 04/03 A2995 RMK T00400030 MADISHF
IND,2020-04-01 00:15,M,M,M,340.00,10.00,M,29.94,M,10.00,M,BKN,OVC,M,M,2200.00,4400.00,M,M,M,M,M,M,M,M,M,M,KIND 010015Z AUTO 34010KT 10SM BKN022 OVC044 04/03 A2994 RMK T00400030 MADISHF
IND,2020-04-01 00:20,M,M,M,340.00,9.00,M,29.94,M,10.00,M,BKN,OVC,M,M,2200.00,4400.00,M,M,M,M,M,M,M,M,M,M,KIND 010020Z AUTO 34009KT 10SM BKN022 OVC044 05/03 A2994 RMK T00500030 MADISHF
IND,2020-04-01 00:25,M,M,M,340.00,9.00,M,29.95,M,10.00,M,BKN,OVC,M,M,2200.00,4400.00,M,M,M,M,M,M,M,M,M,M,KIND 010025Z AUTO 34009KT 10SM BKN022 OVC044 05/03 A2995 RMK T00500030 MADISHF
IND,2020-04-01 00:30,M,M,M,330.00,9.00,M,29.94,M,10.00,M,BKN,OVC,M,M,2200.00,4400.00,M,M,M,M,M,M,M,M,M,M,KIND 010030Z AUTO 33009KT 10SM BKN022 OVC044 05/03 A2994 RMK T00500030 MADISHF
IND,2020-04-01 00:34,41.00,37.90,88.62,330.00,9.00,0.00,29.94,M,10.00,M,FEW,BKN,OVC,M,2200.00,4400.00,7000.00,M,M,M,M,M,M,M,M,34.70,KIND 010034Z 33009KT 10SM FEW022 BKN044 OVC070 05/03 A2994 RMK AO2 T00500033
IND,2020-04-01 00:35,M,M,M,330.00,9.00,M,29.94,M,10.00,M,FEW,BKN,OVC,M,2200.00,4400.00,7000.00,M,M,M,M,M,M,M,M,M,KIND 010035Z AUTO 33009KT 10SM FEW022 BKN044 OVC070 05/03 A2994 RMK T00500030 MADISHF
IND,2020-04-01 00:40,M,M,M,340.00,7.00,M,29.95,M,10.00,M,FEW,BKN,OVC,M,2200.00,4400.00,7000.00,M,M,M,M,M,M,M,M,M,KIND 010040Z AUTO 34007KT 10SM FEW022 BKN044 OVC070 05/03 A2995 RMK T00500030 MADISHF
IND,2020-04-01 00:45,M,M,M,340.00,8.00,M,29.95,M,10.00,M,FEW,BKN,OVC,M,2200.00,4400.00,7000.00,M,M,M,M,M,M,M,M,M,KIND 010045Z AUTO 34008KT 10SM FEW022 BKN044 OVC070 05/03 A2995 RMK T00500030 MADISHF
IND,2020-04-01 00:50,M,M,M,330.00,7.00,M,29.95,M,10.00,M,FEW,BKN,OVC,M,2200.00,4400.00,7000.00,M,M,M,M,M,M,M,M,M,KIND 010050Z AUTO 33007KT 10SM FEW022 BKN044 OVC070 05/03 A2995 RMK T00500030 MADISHF
IND,2020-04-01 00:54,41.00,37.90,88.62,340.00,8.00,0.00,29.95,1014.60,10.00,M,FEW,BKN,OVC,M,2200.00,4400.00,7000.00,M,M,M,M,M,M,M,M,35.20,KIND 010054Z 34008KT 10SM FEW022 BKN044 OVC070 05/03 A2995 RMK AO2 SLP146 T00500033
IND,2020-04-01 00:55,M,M,M,330.00,8.00,M,29.95,M,10.00,M,FEW,BKN,OVC,M,2200.00,4400.00,7000.00,M,M,M,M,M,M,M,M,M,KIND 010055Z AUTO 33008KT 10SM FEW022 BKN044 OVC070 05/03 A2995 RMK T00500030 MADISHF
IND,2020-04-01 01:00,M,M,M,330.00,9.00,M,29.95,M,10.00,M,FEW,BKN,OVC,M,2200.00,4400.00,7000.00,M,M,M,M,M,M,M,M,M,KIND 010100Z AUTO 33009KT 10SM FEW022 BKN044 OVC070 05/03 A2995 RMK T00500030 MADISHF
IND,2020-04-01 01:05,M,M,M,340.00,10.00,M,29.95,M,10.00,M,FEW,BKN,OVC,M,2200.00,4400.00,7000.00,M,M,M,M,M,M,M,M,M,KIND 010105Z AUTO 34010KT 10SM FEW022 BKN044 OVC070 05/03 A2995 RMK T00500030 MADISHF
IND,2020-04-01 01:10,M,M,M,340.00,9.00,M,29.95,M,10.00,M,FEW,BKN,OVC,M,2200.00,4400.00,7000.00,M,M,M,M,M,M,M,M,M,KIND 010110Z AUTO 34009KT 10SM FEW022 BKN044 OVC070 05/03 A2995 RMK T00500030 MADISHF
IND,2020-04-01 01:15,M,M,M,340.00,10.00,M,29.96,M,10.00,M,SCT,BKN,OVC,M,2200.00,4400.00,7000.00,M,M,M,M,M,M,M,M,M,KIND 010115Z AUTO 34010KT 10SM SCT022 BKN044 OVC070 05/03 A2995 RMK T00500030 MADISHF
IND,2020-04-01 01:20,M,M,M,340.00,9.00,M,29.95,M,10.00,M,SCT,BKN,OVC,M,2200.00,4400.00,7000.00,M,M,M,M,M,M,M,M,M,KIND 010120Z AUTO 34009KT 10SM SCT022 BKN044 OVC070 05/03 A2995 RMK T00500030 MADISHF
IND,2020-04-01 01:25,M,M,M,340.00,10.00,M,29.96,M,10.00,M,SCT,BKN,OVC,M,2200.00,4400.00,7000.00,M,-RA,M,M,M,M,M,M,M,KIND 010125Z AUTO 34010KT 10SM -RA SCT022 BKN044 OVC070 05/03 A2995 RMK T00500030 MADISHF
IND,2020-04-01 01:30,M,M,M,340.00,10.00,M,29.96,M,10.00,M,BKN,OVC,M,M,1500.00,3999.00,M,M,-RA,M,M,M,M,M,M,M,KIND 010130Z AUTO 34010KT 10SM -RA BKN015 OVC039 05/03 A2995 RMK T00500030 MADISHF
IND,2020-04-01 01:31,41.00,37.90,88.62,340.00,10.00,T,29.96,M,10.00,M,BKN,OVC,M,M,1500.00,4000.00,M,M,-RA,M,M,M,M,M,M,34.25,KIND 010131Z 34010KT 10SM -RA BKN015 OVC040 05/03 A2996 RMK AO2 RAB25 P0000 T00500033
IND,2020-04-01 01:35,M,M,M,340.00,8.00,M,29.96,M,10.00,M,BKN,OVC,M,M,1500.00,3999.00,M,M,-RA,M,M,M,M,M,M,M,KIND 010135Z AUTO 34008KT 10SM -RA BKN015 OVC039 05/03 A2995 RMK T00500030 MADISHF
IND,2020-04-01 01:40,M,M,M,340.00,8.00,M,29.96,M,10.00,M,BKN,OVC,M,M,1500.00,3999.00,M,M,M,M,M,M,M,M,M,M,KIND 010140Z AUTO 34008KT 10SM BKN015 OVC039 05/03 A2995 RMK T00500030 MADISHF
IND,2020-04-01 01:45,M,M,M,350.00,8.00,M,29.96,M,10.00,M,BKN,OVC,M,M,1500.00,3999.00,M,M,M,M,M,M,M,M,M,M,KIND 010145Z AUTO 35008KT 10SM BKN015 OVC039 05/03 A2995 RMK T00500030 MADISHF
IND,2020-04-01 01:50,M,M,M,340.00,8.00,M,29.96,M,10.00,M,BKN,OVC,M,M,1500.00,3999.00,M,M,M,M,M,M,M,M,M,M,KIND 010150Z AUTO 34008KT 10SM BKN015 OVC039 05/03 A2995 RMK T00500030 MADISHF
IND,2020-04-01 01:54,41.00,37.90,88.62,340.00,9.00,T,29.96,1015.00,10.00,M,BKN,OVC,M,M,1500.00,4000.00,M,M,M,M,M,M,M,M,M,34.70,KIND 010154Z 34009KT 10SM BKN015 OVC040 05/03 A2996 RMK AO2 RAB25E40 SLP150 P0000 T00500033
IND,2020-04-01 01:55,M,M,M,340.00,8.00,M,29.96,M,10.00,M,BKN,OVC,M,M,1500.00,3999.00,M,M,M,M,M,M,M,M,M,M,KIND 010155Z AUTO 34008KT 10SM BKN015 OVC039 05/03 A2995 RMK T00500030 MADISHF
IND,2020-04-01 02:00,M,M,M,330.00,7.00,M,29.96,M,10.00,M,BKN,OVC,M,M,1500.00,3999.00,M,M,M,M,M,M,M,M,M,M,KIND 010200Z AUTO 33007KT 10SM BKN015 OVC039 05/03 A2995 RMK T00500030 MADISHF
IND,2020-04-01 02:05,M,M,M,340.00,7.00,M,29.96,M,10.00,M,BKN,OVC,M,M,1500.00,3999.00,M,M,M,M,M,M,M,M,M,M,KIND 010205Z AUTO 34007KT 10SM BKN015 OVC039 05/03 A2995 RMK T00500030 MADISHF
IND,2020-04-01 02:10,M,M,M,340.00,9.00,M,29.96,M,10.00,M,BKN,OVC,M,M,1500.00,3999.00,M,M,M,M,M,M,M,M,M,M,KIND 010210Z AUTO 34009KT 10SM BKN015 OVC039 05/03 A2995 RMK T00500030 MADISHF
IND,2020-04-01 02:15,M,M,M,330.00,10.00,M,29.96,M,10.00,M,BKN,OVC,M,M,1500.00,3999.00,M,M,M,M,M,M,M,M,M,M,KIND 010215Z AUTO 33010KT 10SM BKN015 OVC039 05/03 A2995 RMK T00500030 MADISHF
IND,2020-04-01 02:20,M,M,M,340.00,7.00,M,29.96,M,10.00,M,BKN,OVC,M,M,1500.00,3999.00,M,M,M,M,M,M,M,M,M,M,KIND 010220Z AUTO 34007KT 10SM BKN015 OVC039 05/03 A2995 RMK T00500030 MADISHF
IND,2020-04-01 02:25,M,M,M,330.00,8.00,M,29.96,M,10.00,M,BKN,OVC,M,M,1500.00,3999.00,M,M,M,M,M,M,M,M,M,M,KIND 010225Z AUTO 33008KT 10SM BKN015 OVC039 05/03 A2995 RMK T00500030 MADISHF
IND,2020-04-01 02:30,M,M,M,330.00,9.00,M,29.96,M,10.00,M,BKN,OVC,M,M,1500.00,3999.00,M,M,M,M,M,M,M,M,M,M,KIND 010230Z AUTO 33009KT 10SM BKN015 OVC039 05/03 A2995 RMK T00500030 MADISHF
IND,2020-04-01 02:35,M,M,M,340.00,8.00,M,29.96,M,10.00,M,BKN,OVC,M,M,1500.00,3999.00,M,M,M,M,M,M,M,M,M,M,KIND 010235Z AUTO 34008KT 10SM BKN015 OVC039 05/03 A2995 RMK T00500030 MADISHF
IND,2020-04-01 02:40,M,M,M,330.00,9.00,M,29.96,M,10.00,M,BKN,OVC,M,M,1500.00,3999.00,M,M,M,M,M,M,M,M,M,M,KIND 010240Z AUTO 33009KT 10SM BKN015 OVC039 05/03 A2995 RMK T00500030 MADISHF
IND,2020-04-01 02:45,M,M,M,340.00,8.00,M,29.96,M,10.00,M,BKN,OVC,M,M,1500.00,3999.00,M,M,M,M,M,M,M,M,M,M,KIND 010245Z AUTO 34008KT 10SM BKN015 OVC039 05/03 A2995 RMK T00500030 MADISHF
IND,2020-04-01 02:50,M,M,M,330.00,8.00,M,29.96,M,10.00,M,BKN,OVC,M,M,1500.00,3200.00,M,M,M,M,M,M,M,M,M,M,KIND 010250Z AUTO 33008KT 10SM BKN015 OVC032 05/03 A2995 RMK T00500030 MADISHF
IND,2020-04-01 02:54,41.00,37.90,88.62,340.00,8.00,0.00,29.96,1014.90,10.00,M,BKN,OVC,M,M,1500.00,3200.00,M,M,M,M,M,M,M,M,M,35.20,KIND 010254Z 34008KT 10SM BKN015 OVC032 05/03 A2996 RMK AO2 SLP149 60000 T00500033 50004
IND,2020-04-01 02:55,M,M,M,340.00,8.00,M,29.96,M,10.00,M,BKN,BKN,OVC,M,1500.00,2600.00,3200.00,M,M,M,M,M,M,M,M,M,KIND 010255Z AUTO 34008KT 10SM BKN015 BKN026 OVC032 05/03 A2995 RMK T00500030 MADISHF
IND,2020-04-01 03:00,M,M,M,340.00,8.00,M,29.96,M,10.00,M,BKN,BKN,OVC,M,1500.00,2600.00,3200.00,M,M,M,M,M,M,M,M,M,KIND 010300Z AUTO 34008KT 10SM BKN015 BKN026 OVC032 05/03 A2995 RMK T00500030 MADISHF
IND,2020-04-01 03:05,M,M,M,340.00,8.00,M,29.96,M,10.00,M,SCT,BKN,OVC,M,1500.00,2600.00,3200.00,M,M,M,M,M,M,M,M,M,KIND 010305Z AUTO 34008KT 10SM SCT015 BKN026 OVC032 05/03 A2995 RMK T00500030 MADISHF
IND,2020-04-01 03:10,M,M,M,340.00,9.00,M,29.96,M,10.00,M,SCT,BKN,OVC,M,1500.00,2600.00,3200.00,M,M,M,M,M,M,M,M,M,KIND 010310Z AUTO 34009KT 10SM SCT015 BKN026 OVC032 05/03 A2995 RMK T00500030 MADISHF
IND,2020-04-01 03:15,M,M,M,360.00,11.00,M,29.96,M,9.00,M,SCT,BKN,OVC,M,1500.00,2600.00,3200.00,M,-RA,M,M,M,M,M,M,M,KIND 010315Z AUTO 36011KT 9SM -RA SCT015 BKN026 OVC032 05/03 A2995 RMK T00500030 MADISHF
IND,2020-04-01 03:20,M,M,M,360.00,11.00,M,29.96,M,10.00,M,SCT,BKN,OVC,M,1500.00,2600.00,3200.00,M,-RA,M,M,M,M,M,M,M,KIND 010320Z AUTO 36011KT 10SM -RA SCT015 BKN026 OVC032 05/03 A2995 RMK T00500030 MADISHF
IND,2020-04-01 03:25,M,M,M,360.00,10.00,M,29.97,M,7.00,M,BKN,OVC,M,M,1500.00,2200.00,M,M,-RA,M,M,M,M,M,M,M,KIND 010325Z AUTO 36010KT 7SM -RA BKN015 OVC022 05/03 A2996 RMK T00500030 MADISHF
IND,2020-04-01 03:30,M,M,M,360.00,9.00,M,29.97,M,7.00,M,BKN,OVC,M,M,1800.00,2200.00,M,M,-RA,M,M,M,M,M,M,M,KIND 010330Z AUTO 36009KT 7SM -RA BKN018 OVC022 04/03 A2996 RMK T00400030 MADISHF
IND,2020-04-01 03:35,M,M,M,360.00,8.00,M,29.97,M,9.00,M,BKN,OVC,M,M,1800.00,2200.00,M,M,-RA,M,M,M,M,M,M,M,KIND 010335Z AUTO 36008KT 9SM -RA BKN018 OVC022 04/03 A2996 RMK T00400030 MADISHF
IND,2020-04-01 03:40,M,M,M,350.00,7.00,M,29.97,M,9.00,M,BKN,OVC,M,M,1800.00,2300.00,M,M,-RA,M,M,M,M,M,M,M,KIND 010340Z AUTO 35007KT 9SM -RA BKN018 OVC023 04/03 A2996 RMK T00400030 MADISHF
IND,2020-04-01 03:45,M,M,M,350.00,5.00,M,29.97,M,10.00,M,OVC,M,M,M,1800.00,M,M,M,M,M,M,M,M,M,M,M,KIND 010345Z AUTO 35005KT 10SM OVC018 04/03 A2996 RMK T00400030 MADISHF
IND,2020-04-01 03:50,M,M,M,350.00,5.00,M,29.97,M,10.00,M,OVC,M,M,M,1800.00,M,M,M,M,M,M,M,M,M,M,M,KIND 010350Z AUTO 35005KT 10SM OVC018 04/03 A2996 RMK T00400030 MADISHF
IND,2020-04-01 03:54,41.00,37.90,88.62,330.00,5.00,T,29.97,1015.30,10.00,M,OVC,M,M,M,1800.00,M,M,M,M,M,M,M,M,M,M,37.08,KIND 010354Z 33005KT 10SM OVC018 05/03 A2997 RMK AO2 RAB15E45 SLP153 P0000 T00500033
IND,2020-04-01 03:55,M,M,M,330.00,5.00,M,29.97,M,10.00,M,OVC,M,M,M,1800.00,M,M,M,M,M,M,M,M,M,M,M,KIND 010355Z AUTO 33005KT 10SM OVC018 05/03 A2996 RMK T00500030 MADISHF
IND,2020-04-01 04:00,M,M,M,340.00,5.00,M,29.97,M,7.00,M,SCT,BKN,OVC,M,1400.00,1800.00,3300.00,M,-RA,M,M,M,M,M,M,M,KIND 010400Z AUTO 34005KT 7SM -RA SCT014 BKN018 OVC033 04/03 A2996 RMK T00400030 MADISHF
IND,2020-04-01 04:05,M,M,M,340.00,5.00,M,29.97,M,8.00,M,SCT,BKN,OVC,M,1500.00,2100.00,3300.00,M,-RA,M,M,M,M,M,M,M,KIND 010405Z AUTO 34005KT 8SM -RA SCT015 BKN021 OVC033 04/04 A2996 RMK T00400040 MADISHF
IND,2020-04-01 04:10,M,M,M,340.00,7.00,M,29.97,M,10.00,M,FEW,BKN,OVC,M,1500.00,2100.00,3300.00,M,M,M,M,M,M,M,M,M,KIND 010410Z AUTO 34007KT 10SM FEW015 BKN021 OVC033 04/03 A2996 RMK T00400030 MADISHF
IND,2020-04-01 04:15,M,M,M,340.00,7.00,M,29.97,M,10.00,M,FEW,BKN,OVC,M,1500.00,2100.00,3300.00,M,M,M,M,M,M,M,M,M,KIND 010415Z AUTO 34007KT 10SM FEW015 BKN021 OVC033 05/03 A2996 RMK T00500030 MADISHF
IND,2020-04-01 04:20,M,M,M,340.00,7.00,M,29.97,M,10.00,M,BKN,OVC,M,M,1699.00,3300.00,M,M,M,M,M,M,M,M,M,M,KIND 010420Z AUTO 34007KT 10SM BKN016 OVC033 05/03 A2996 RMK T00500030 MADISHF
IND,2020-04-01 04:25,M,M,M,340.00,7.00,M,29.97,M,9.00,M,FEW,BKN,OVC,M,900.00,1500.00,2100.00,M,-RA,M,M,M,M,M,M,M,KIND 010425Z AUTO 34007KT 9SM -RA FEW009 BKN015 OVC021 05/04 A2996 RMK T00500040 MADISHF
IND,2020-04-01 04:30,M,M,M,340.00,5.00,M,29.97,M,9.00,M,BKN,OVC,M,M,999.00,1800.00,M,M,-RA,M,M,M,M,M,M,M,KIND 010430Z AUTO 34005KT 9SM -RA BKN009 OVC018 05/04 A2996 RMK T00500040 MADISHF
IND,2020-04-01 04:35,41.00,39.00,92.52,340.00,5.00,T,29.97,M,10.00,M,BKN,OVC,M,M,1200.00,1800.00,M,M,-RA,M,M,M,M,M,M,37.08,KIND 010435Z 34005KT 10SM -RA BKN012 OVC018 05/04 A2997 RMK AO2 RAB0357 P0000 T00500039
IND,2020-04-01 04:40,M,M,M,330.00,7.00,M,29.97,M,10.00,M,BKN,OVC,M,M,999.00,1800.00,M,M,M,M,M,M,M,M,M,M,KIND 010440Z AUTO 33007KT 10SM BKN009 OVC018 05/04 A2996 RMK T00500040 MADISHF
IND,2020-04-01 04:45,M,M,M,340.00,7.00,M,29.97,M,9.00,M,BKN,OVC,M,M,999.00,1400.00,M,M,-RA,M,M,M,M,M,M,M,KIND 010445Z AUTO 34007KT 9SM -RA BKN009 OVC014 05/04 A2996 RMK T00500040 MADISHF
IND,2020-04-01 04:50,M,M,M,340.00,8.00,M,29.97,M,7.00,M,OVC,M,M,M,999.00,M,M,M,-RA,M,M,M,M,M,M,M,KIND 010450Z AUTO 34008KT 7SM -RA OVC009 05/04 A2996 RMK T00500040 MADISHF
IND,2020-04-01 04:54,41.00,39.00,92.52,340.00,7.00,T,29.97,1015.30,6.00,M,BKN,OVC,M,M,800.00,1200.00,M,M,-RA BR,M,M,M,M,M,M,35.75,KIND 010454Z 34007KT 6SM -RA BR BKN008 OVC012 05/04 A2997 RMK AO2 RAB0357 SLP153 P0000 T00500039 400610033
IND,2020-04-01 04:55,M,M,M,340.00,7.00,M,29.97,M,6.00,M,BKN,OVC,M,M,800.00,1200.00,M,M,-RA BR,M,M,M,M,M,M,M,KIND 010455Z AUTO 34007KT 6SM -RA BR BKN008 OVC012 05/04 A2996 RMK T00500040 MADISHF
IND,2020-04-01 05:00,M,M,M,360.00,7.00,0.01,29.97,M,5.00,M,BKN,OVC,M,M,600.00,1200.00,M,M,-RA BR,M,M,M,M,M,M,M,KIND 010500Z AUTO 36007KT 5SM -RA BR BKN006 OVC012 05/04 A2996 RMK P0000 T00500040 MADISHF
IND,2020-04-01 05:05,M,M,M,360.00,5.00,0.01,29.97,M,5.00,M,BKN,OVC,M,M,800.00,1100.00,M,M,-RA BR,M,M,M,M,M,M,M,KIND 010505Z AUTO 36005KT 5SM -RA BR BKN008 OVC011 05/04 A2996 RMK P0000 T00500040 MADISHF
IND,2020-04-01 05:10,M,M,M,360.00,5.00,0.01,29.97,M,6.00,M,OVC,M,M,M,600.00,M,M,M,-RA BR,M,M,M,M,M,M,M,KIND 010510Z AUTO 36005KT 6SM -RA BR OVC006 05/04 A2996 RMK P0000 T00500040 MADISHF
IND,2020-04-01 05:15,M,M,M,360.00,5.00,0.01,29.97,M,7.00,M,OVC,M,M,M,600.00,M,M,M,-RA,M,M,M,M,M,M,M,KIND 010515Z AUTO 36005KT 7SM -RA OVC006 05/04 A2996 RMK P0000 T00500040 MADISHF
IND,2020-04-01 05:20,M,M,M,340.00,7.00,0.01,29.97,M,7.00,M,BKN,OVC,M,M,600.00,1500.00,M,M,-RA,M,M,M,M,M,M,M,KIND 010520Z AUTO 34007KT 7SM -RA BKN006 OVC015 05/04 A2996 RMK P0000 T00500040 MADISHF
IND,2020-04-01 05:25,M,M,M,340.00,8.00,0.01,29.97,M,7.00,M,SCT,BKN,OVC,M,600.00,1100.00,2500.00,M,-RA,M,M,M,M,M,M,M,KIND 010525Z AUTO 34008KT 7SM -RA SCT006 BKN011 OVC025 05/04 A2996 RMK P0000 T00500040 MADISHF
IND,2020-04-01 05:30,M,M,M,340.00,8.00,0.01,29.97,M,8.00,M,SCT,BKN,OVC,M,600.00,1300.00,3900.00,M,-RA,M,M,M,M,M,M,M,KIND 010530Z AUTO 34008KT 8SM -RA SCT006 BKN013 OVC039 05/04 A2996 RMK P0000 T00500040 MADISHF
IND,2020-04-01 05:31,41.00,39.00,92.52,340.00,8.00,0.01,29.97,M,9.00,M,SCT,BKN,OVC,M,600.00,1300.00,3900.00,M,-RA,M,M,M,M,M,M,35.20,KIND 010531Z 34008KT 9SM -RA SCT006 BKN013 OVC039 05/04 A2997 RMK AO2 P0001 T00500039
IND,2020-04-01 05:35,M,M,M,340.00,9.00,0.01,29.97,M,10.00,M,SCT,BKN,OVC,M,800.00,1400.00,3900.00,M,M,M,M,M,M,M,M,M,KIND 010535Z AUTO 34009KT 10SM SCT008 BKN014 OVC039 05/04 A2996 RMK P0000 T00500040 MADISHF
IND,2020-04-01 05:40,M,M,M,340.00,7.00,0.01,29.96,M,10.00,M,SCT,BKN,OVC,M,800.00,1400.00,3900.00,M,M,M,M,M,M,M,M,M,KIND 010540Z AUTO 34007KT 10SM SCT008 BKN014 OVC039 05/04 A2995 RMK P0000 T00500040 MADISHF
IND,2020-04-01 05:45,M,M,M,330.00,7.00,0.01,29.97,M,10.00,M,SCT,BKN,OVC,M,800.00,1400.00,3900.00,M,M,M,M,M,M,M,M,M,KIND 010545Z AUTO 33007KT 10SM SCT008 BKN014 OVC039 05/04 A2996 RMK P0000 T00500040 MADISHF
IND,2020-04-01 05:50,M,M,M,330.00,8.00,0.01,29.97,M,10.00,M,SCT,BKN,OVC,M,800.00,1400.00,3900.00,M,M,M,M,M,M,M,M,M,KIND 010550Z AUTO 33008KT 10SM SCT008 BKN014 OVC039 05/04 A2996 RMK P0000 T00500040 MADISHF
IND,2020-04-01 05:54,41.00,39.00,92.52,330.00,9.00,0.01,29.97,1015.10,10.00,M,SCT,BKN,OVC,M,800.00,1400.00,3900.00,M,M,M,M,M,M,M,M,34.70,KIND 010554Z 33009KT 10SM SCT008 BKN014 OVC039 05/04 A2997 RMK AO2 RAE35 SLP151 P0001 60001 T00500039 10050 20044 50002
IND,2020-04-01 05:55,M,M,M,330.00,9.00,M,29.97,M,10.00,M,SCT,BKN,OVC,M,999.00,1400.00,3900.00,M,M,M,M,M,M,M,M,M,KIND 010555Z AUTO 33009KT 10SM SCT009 BKN014 OVC039 05/04 A2996 RMK T00500040 MADISHF
IND,2020-04-01 06:00,M,M,M,340.00,9.00,M,29.96,M,10.00,M,SCT,BKN,OVC,M,999.00,1400.00,3900.00,M,M,M,M,M,M,M,M,M,KIND 010600Z AUTO 34009KT 10SM SCT009 BKN014 OVC039 05/04 A2995 RMK T00500040 MADISHF
IND,2020-04-01 06:05,M,M,M,330.00,9.00,M,29.96,M,10.00,M,SCT,BKN,OVC,M,999.00,1400.00,3900.00,M,M,M,M,M,M,M,M,M,KIND 010605Z AUTO 33009KT 10SM SCT009 BKN014 OVC039 05/04 A2995 RMK T00500040 MADISHF
IND,2020-04-01 06:10,M,M,M,330.00,10.00,M,29.97,M,10.00,M,SCT,BKN,OVC,M,999.00,1400.00,3900.00,M,M,M,M,M,M,M,M,M,KIND 010610Z AUTO 33010KT 10SM SCT009 BKN014 OVC039 05/03 A2996 RMK T00500030 MADISHF
IND,2020-04-01 06:15,M,M,M,340.00,9.00,M,29.97,M,10.00,M,OVC,M,M,M,999.00,M,M,M,M,M,M,M,M,M,M,M,KIND 010615Z AUTO 34009KT 10SM OVC009 05/03 A2996 RMK T00500030 MADISHF
IND,2020-04-01 06:20,M,M,M,340.00,8.00,M,29.96,M,10.00,M,OVC,M,M,M,999.00,M,M,M,M,M,M,M,M,M,M,M,KIND 010620Z AUTO 34008KT 10SM OVC009 05/04 A2995 RMK T00500040 MADISHF
IND,2020-04-01 06:25,M,M,M,340.00,9.00,M,29.96,M,10.00,M,BKN,OVC,M,M,999.00,1500.00,M,M,M,M,M,M,M,M,M,M,KIND 010625Z AUTO 34009KT 10SM BKN009 OVC015 05/04 A2995 RMK T00500040 MADISHF
IND,2020-04-01 06:30,M,M,M,340.00,9.00,M,29.96,M,10.00,M,BKN,OVC,M,M,999.00,1400.00,M,M,M,M,M,M,M,M,M,M,KIND 010630Z AUTO 34009KT 10SM BKN009 OVC014 05/03 A2995 RMK T00500030 MADISHF
IND,2020-04-01 06:35,M,M,M,340.00,9.00,M,29.96,M,10.00,M,OVC,M,M,M,999.00,M,M,M,M,M,M,M,M,M,M,M,KIND 010635Z AUTO 34009KT 10SM OVC009 05/03 A2995 RMK T00500030 MADISHF
IND,2020-04-01 06:40,M,M,M,340.00,11.00,M,29.96,M,10.00,M,BKN,OVC,M,M,999.00,1699.00,M,M,M,M,M,M,M,M,M,M,KIND 010640Z AUTO 34011KT 10SM BKN009 OVC016 04/03 A2995 RMK T00400030 MADISHF
IND,2020-04-01 06:45,M,M,M,350.00,9.00,M,29.96,M,10.00,M,BKN,OVC,M,M,999.00,1900.00,M,M,M,M,M,M,M,M,M,M,KIND 010645Z AUTO 35009KT 10SM BKN009 OVC019 04/03 A2995 RMK T00400030 MADISHF
IND,2020-04-01 06:50,M,M,M,340.00,8.00,M,29.96,M,10.00,M,BKN,OVC,M,M,999.00,1900.00,M,M,M,M,M,M,M,M,M,M,KIND 010650Z AUTO 34008KT 10SM BKN009 OVC019 04/03 A2995 RMK T00400030 MADISHF
IND,2020-04-01 06:54,39.90,37.90,92.48,340.00,8.00,0.00,29.96,1014.80,10.00,M,BKN,OVC,M,M,1000.00,1900.00,M,M,M,M,M,M,M,M,M,33.84,KIND 010654Z 34008KT 10SM BKN010 OVC019 04/03 A2996 RMK AO2 SLP148 T00440033
IND,2020-04-01 06:55,M,M,M,340.00,8.00,M,29.96,M,10.00,M,BKN,OVC,M,M,999.00,1900.00,M,M,M,M,M,M,M,M,M,M,KIND 010655Z AUTO 34008KT 10SM BKN009 OVC019 04/03 A2995 RMK T00400030 MADISHF
IND,2020-04-01 07:00,M,M,M,340.00,9.00,M,29.96,M,10.00,M,BKN,OVC,M,M,999.00,2100.00,M,M,M,M,M,M,M,M,M,M,KIND 010700Z AUTO 34009KT 10SM BKN009 OVC021 04/03 A2995 RMK T00400030 MADISHF
IND,2020-04-01 07:05,M,M,M,340.00,9.00,M,29.96,M,10.00,M,BKN,OVC,M,M,1100.00,2100.00,M,M,M,M,M,M,M,M,M,M,KIND 010705Z AUTO 34009KT 10SM BKN011 OVC021 04/03 A2995 RMK T00400030 MADISHF
IND,2020-04-01 07:10,M,M,M,340.00,9.00,M,29.96,M,10.00,M,BKN,OVC,M,M,1100.00,2100.00,M,M,M,M,M,M,M,M,M,M,KIND 010710Z AUTO 34009KT 10SM BKN011 OVC021 04/03 A2995 RMK T00400030 MADISHF
IND,2020-04-01 07:15,M,M,M,340.00,7.00,M,29.96,M,10.00,M,BKN,OVC,M,M,1100.00,2200.00,M,M,M,M,M,M,M,M,M,M,KIND 010715Z AUTO 34007KT 10SM BKN011 OVC022 04/03 A2995 RMK T00400030 MADISHF
IND,2020-04-01 07:20,M,M,M,340.00,9.00,M,29.96,M,10.00,M,BKN,OVC,M,M,999.00,2200.00,M,M,M,M,M,M,M,M,M,M,KIND 010720Z AUTO 34009KT 10SM BKN009 OVC022 04/03 A2995 RMK T00400030 MADISHF
IND,2020-04-01 07:25,M,M,M,330.00,9.00,M,29.96,M,10.00,M,BKN,OVC,M,M,999.00,2100.00,M,M,M,M,M,M,M,M,M,M,KIND 010725Z AUTO 33009KT 10SM BKN009 OVC021 04/03 A2995 RMK T00400030 MADISHF
IND,2020-04-01 07:30,M,M,M,340.00,8.00,M,29.96,M,10.00,M,BKN,OVC,M,M,999.00,2100.00,M,M,M,M,M,M,M,M,M,M,KIND 010730Z AUTO 34008KT 10SM BKN009 OVC021 04/03 A2995 RMK T00400030 MADISHF
IND,2020-04-01 07:35,M,M,M,340.00,9.00,M,29.96,M,10.00,M,BKN,OVC,M,M,999.00,2100.00,M,M,M,M,M,M,M,M,M,M,KIND 010735Z AUTO 34009KT 10SM BKN009 OVC021 04/03 A2995 RMK T00400030 MADISHF
IND,2020-04-01 07:40,M,M,M,330.00,8.00,M,29.96,M,10.00,M,BKN,OVC,M,M,999.00,2100.00,M,M,M,M,M,M,M,M,M,M,KIND 010740Z AUTO 33008KT 10SM BKN009 OVC021 04/03 A2995 RMK T00400030 MADISHF
IND,2020-04-01 07:45,M,M,M,340.00,8.00,M,29.96,M,10.00,M,BKN,OVC,M,M,999.00,2100.00,M,M,M,M,M,M,M,M,M,M,KIND 010745Z AUTO 34008KT 10SM BKN009 OVC021 04/03 A2995 RMK T00400030 MADISHF
IND,2020-04-01 07:50,M,M,M,330.00,8.00,M,29.96,M,10.00,M,BKN,OVC,M,M,999.00,2100.00,M,M,M,M,M,M,M,M,M,M,KIND 010750Z AUTO 33008KT 10SM BKN009 OVC021 04/03 A2995 RMK T00400030 MADISHF
IND,2020-04-01 07:54,39.90,37.90,92.48,340.00,8.00,0.00,29.96,1014.70,10.00,M,SCT,OVC,M,M,1000.00,2100.00,M,M,M,M,M,M,M,M,M,33.84,KIND 010754Z 34008KT 10SM SCT010 OVC021 04/03 A2996 RMK AO2 SLP147 T00440033
IND,2020-04-01 07:55,M,M,M,330.00,8.00,M,29.96,M,10.00,M,SCT,OVC,M,M,999.00,2100.00,M,M,M,M,M,M,M,M,M,M,KIND 010755Z AUTO 33008KT 10SM SCT009 OVC021 04/03 A2995 RMK T00400030 MADISHF
IND,2020-04-01 08:00,M,M,M,340.00,7.00,M,29.95,M,10.00,M,SCT,OVC,M,M,1100.00,2100.00,M,M,M,M,M,M,M,M,M,M,KIND 010800Z AUTO 34007KT 10SM SCT011 OVC021 04/03 A2995 RMK T00400030 MADISHF
IND,2020-04-01 08:05,M,M,M,340.00,7.00,M,29.96,M,10.00,M,FEW,OVC,M,M,1100.00,2100.00,M,M,M,M,M,M,M,M,M,M,KIND 010805Z AUTO 34007KT 10SM FEW011 OVC021 04/03 A2995 RMK T00400030 MADISHF
IND,2020-04-01 08:10,M,M,M,330.00,7.00,M,29.96,M,10.00,M,FEW,OVC,M,M,1100.00,2100.00,M,M,M,M,M,M,M,M,M,M,KIND 010810Z AUTO 33007KT 10SM FEW011 OVC021 04/03 A2995 RMK T00400030 MADISHF
IND,2020-04-01 08:15,M,M,M,330.00,8.00,M,29.96,M,10.00,M,SCT,OVC,M,M,1100.00,2100.00,M,M,M,M,M,M,M,M,M,M,KIND 010815Z AUTO 33008KT 10SM SCT011 OVC021 04/03 A2995 RMK T00400030 MADISHF
IND,2020-04-01 08:20,M,M,M,330.00,7.00,M,29.95,M,10.00,M,SCT,OVC,M,M,1100.00,2100.00,M,M,M,M,M,M,M,M,M,M,KIND 010820Z AUTO 33007KT 10SM SCT011 OVC021 04/03 A2995 RMK T00400030 MADISHF
IND,2020-04-01 08:25,M,M,M,340.00,8.00,M,29.96,M,10.00,M,SCT,OVC,M,M,1100.00,1900.00,M,M,M,M,M,M,M,M,M,M,KIND 010825Z AUTO 34008KT 10SM SCT011 OVC019 04/03 A2995 RMK T00400030 MADISHF
IND,2020-04-01 08:30,M,M,M,340.00,7.00,M,29.96,M,10.00,M,SCT,OVC,M,M,1100.00,1900.00,M,M,M,M,M,M,M,M,M,M,KIND 010830Z AUTO 34007KT 10SM SCT011 OVC019 04/03 A2995 RMK T00400030 MADISHF
IND,2020-04-01 08:35,M,M,M,340.00,8.00,M,29.96,M,10.00,M,SCT,OVC,M,M,999.00,1900.00,M,M,M,M,M,M,M,M,M,M,KIND 010835Z AUTO 34008KT 10SM SCT009 OVC019 04/03 A2995 RMK T00400030 MADISHF
IND,2020-04-01 08:40,M,M,M,340.00,5.00,M,29.96,M,10.00,M,FEW,OVC,M,M,999.00,1699.00,M,M,M,M,M,M,M,M,M,M,KIND 010840Z AUTO 34005KT 10SM FEW009 OVC016 04/03 A2995 RMK T00400030 MADISHF
IND,2020-04-01 08:45,M,M,M,350.00,8.00,M,29.96,M,10.00,M,FEW,OVC,M,M,999.00,1699.00,M,M,M,M,M,M,M,M,M,M,KIND 010845Z AUTO 35008KT 10SM FEW009 OVC016 04/03 A2995 RMK T00400030 MADISHF
IND,2020-04-01 08:50,M,M,M,330.00,9.00,M,29.96,M,10.00,M,SCT,OVC,M,M,999.00,1699.00,M,M,M,M,M,M,M,M,M,M,KIND 010850Z AUTO 33009KT 10SM SCT009 OVC016 04/03 A2995 RMK T00400030 MADISHF
IND,2020-04-01 08:54,39.90,37.90,92.48,340.00,8.00,0.00,29.96,1014.80,10.00,M,SCT,OVC,M,M,1000.00,1800.00,M,M,M,M,M,M,M,M,M,33.84,KIND 010854Z 34008KT 10SM SCT010 OVC018 04/03 A2996 RMK AO2 SLP148 T00440033 55002
IND,2020-04-01 08:55,M,M,M,340.00,8.00,M,29.96,M,10.00,M,SCT,OVC,M,M,999.00,1800.00,M,M,M,M,M,M,M,M,M,M,KIND 010855Z AUTO 34008KT 10SM SCT009 OVC018 04/03 A2995 RMK T00400030 MADISHF
IND,2020-04-01 09:00,M,M,M,340.00,8.00,M,29.96,M,10.00,M,SCT,OVC,M,M,999.00,1800.00,M,M,M,M,M,M,M,M,M,M,KIND 010900Z AUTO 34008KT 10SM SCT009 OVC018 04/03 A2995 RMK T00400030 MADISHF
IND,2020-04-01 09:05,M,M,M,330.00,8.00,M,29.96,M,10.00,M,SCT,OVC,M,M,999.00,1900.00,M,M,M,M,M,M,M,M,M,M,KIND 010905Z AUTO 33008KT 10SM SCT009 OVC019 04/03 A2995 RMK T00400030 MADISHF
IND,2020-04-01 09:10,M,M,M,330.00,8.00,M,29.96,M,10.00,M,SCT,OVC,M,M,999.00,1900.00,M,M,M,M,M,M,M,M,M,M,KIND 010910Z AUTO 33008KT 10SM SCT009 OVC019 04/03 A2995 RMK T00400030 MADISHF
IND,2020-04-01 09:15,M,M,M,340.00,7.00,M,29.96,M,10.00,M,BKN,OVC,M,M,999.00,1900.00,M,M,M,M,M,M,M,M,M,M,KIND 010915Z AUTO 34007KT 10SM BKN009 OVC019 04/03 A2995 RMK T00400030 MADISHF
IND,2020-04-01 09:20,M,M,M,340.00,8.00,M,29.96,M,10.00,M,BKN,OVC,M,M,999.00,1900.00,M,M,M,M,M,M,M,M,M,M,KIND 010920Z AUTO 34008KT 10SM BKN009 OVC019 04/03 A2995 RMK T00400030 MADISHF
IND,2020-04-01 09:25,M,M,M,340.00,8.00,M,29.96,M,10.00,M,BKN,OVC,M,M,999.00,1900.00,M,M,M,M,M,M,M,M,M,M,KIND 010925Z AUTO 34008KT 10SM BKN009 OVC019 04/03 A2995 RMK T00400030 MADISHF
IND,2020-04-01 09:30,M,M,M,330.00,8.00,M,29.97,M,10.00,M,BKN,OVC,M,M,999.00,1900.00,M,M,M,M,M,M,M,M,M,M,KIND 010930Z AUTO 33008KT 10SM BKN009 OVC019 04/03 A2996 RMK T00400030 MADISHF
IND,2020-04-01 09:35,M,M,M,330.00,8.00,M,29.97,M,10.00,M,OVC,M,M,M,999.00,M,M,M,M,M,M,M,M,M,M,M,KIND 010935Z AUTO 33008KT 10SM OVC009 04/03 A2996 RMK T00400030 MADISHF
IND,2020-04-01 09:40,M,M,M,340.00,8.00,M,29.97,M,10.00,M,OVC,M,M,M,999.00,M,M,M,M,M,M,M,M,M,M,M,KIND 010940Z AUTO 34008KT 10SM OVC009 04/03 A2996 RMK T00400030 MADISHF
IND,2020-04-01 09:45,M,M,M,330.00,9.00,M,29.97,M,10.00,M,OVC,M,M,M,999.00,M,M,M,M,M,M,M,M,M,M,M,KIND 010945Z AUTO 33009KT 10SM OVC009 04/03 A2996 RMK T00400030 MADISHF
IND,2020-04-01 09:50,M,M,M,340.00,9.00,M,29.97,M,10.00,M,OVC,M,M,M,999.00,M,M,M,M,M,M,M,M,M,M,M,KIND 010950Z AUTO 34009KT 10SM OVC009 04/03 A2996 RMK T00400030 MADISHF
IND,2020-04-01 09:54,39.90,37.00,89.27,340.00,9.00,0.00,29.98,1015.50,10.00,M,OVC,M,M,M,1000.00,M,M,M,M,M,M,M,M,M,M,33.34,KIND 010954Z 34009KT 10SM OVC010 04/03 A2998 RMK AO2 SLP155 T00440028
IND,2020-04-01 09:55,M,M,M,340.00,9.00,M,29.97,M,10.00,M,OVC,M,M,M,999.00,M,M,M,M,M,M,M,M,M,M,M,KIND 010955Z AUTO 34009KT 10SM OVC009 04/03 A2996 RMK T00400030 MADISHF
IND,2020-04-01 10:00,M,M,M,340.00,9.00,M,29.98,M,10.00,M,OVC,M,M,M,999.00,M,M,M,M,M,M,M,M,M,M,M,KIND 011000Z AUTO 34009KT 10SM OVC009 04/03 A2997 RMK T00400030 MADISHF
IND,2020-04-01 10:05,M,M,M,330.00,8.00,M,29.98,M,10.00,M,OVC,M,M,M,999.00,M,M,M,M,M,M,M,M,M,M,M,KIND 011005Z AUTO 33008KT 10SM OVC009 04/03 A2997 RMK T00400030 MADISHF
IND,2020-04-01 10:10,M,M,M,340.00,7.00,M,29.98,M,10.00,M,OVC,M,M,M,999.00,M,M,M,M,M,M,M,M,M,M,M,KIND 011010Z AUTO 34007KT 10SM OVC009 04/03 A2997 RMK T00400030 MADISHF
IND,2020-04-01 10:15,M,M,M,340.00,9.00,M,29.98,M,10.00,M,OVC,M,M,M,999.00,M,M,M,M,M,M,M,M,M,M,M,KIND 011015Z AUTO 34009KT 10SM OVC009 04/03 A2997 RMK T00400030 MADISHF
IND,2020-04-01 10:20,M,M,M,340.00,9.00,M,29.98,M,10.00,M,OVC,M,M,M,999.00,M,M,M,M,M,M,M,M,M,M,M,KIND 011020Z AUTO 34009KT 10SM OVC009 04/03 A2997 RMK T00400030 MADISHF
IND,2020-04-01 10:25,M,M,M,340.00,9.00,M,29.98,M,10.00,M,OVC,M,M,M,1200.00,M,M,M,M,M,M,M,M,M,M,M,KIND 011025Z AUTO 34009KT 10SM OVC012 04/03 A2997 RMK T00400030 MADISHF
IND,2020-04-01 10:30,M,M,M,330.00,8.00,M,29.99,M,10.00,M,OVC,M,M,M,999.00,M,M,M,M,M,M,M,M,M,M,M,KIND 011030Z AUTO 33008KT 10SM OVC009 04/03 A2998 RMK T00400030 MADISHF
IND,2020-04-01 10:35,M,M,M,340.00,7.00,M,29.99,M,10.00,M,OVC,M,M,M,999.00,M,M,M,M,M,M,M,M,M,M,M,KIND 011035Z AUTO 34007KT 10SM OVC009 04/03 A2998 RMK T00400030 MADISHF
IND,2020-04-01 10:40,M,M,M,340.00,11.00,M,29.99,M,10.00,M,OVC,M,M,M,999.00,M,M,M,M,M,M,M,M,M,M,M,KIND 011040Z AUTO 34011KT 10SM OVC009 04/03 A2998 RMK T00400030 MADISHF
IND,2020-04-01 10:45,M,M,M,330.00,9.00,M,29.99,M,10.00,M,OVC,M,M,M,999.00,M,M,M,M,M,M,M,M,M,M,M,KIND 011045Z AUTO 33009KT 10SM OVC009 04/03 A2998 RMK T00400030 MADISHF
IND,2020-04-01 10:50,M,M,M,330.00,9.00,M,29.99,M,10.00,M,BKN,OVC,M,M,999.00,1999.00,M,M,M,M,M,M,M,M,M,M,KIND 011050Z AUTO 33009KT 10SM BKN009 OVC019 04/03 A2998 RMK T00400030 MADISHF
IND,2020-04-01 10:54,39.90,37.00,89.27,330.00,10.00,0.00,29.99,1016.10,10.00,M,BKN,OVC,M,M,1000.00,2000.00,M,M,M,M,M,M,M,M,M,32.87,KIND 011054Z 33010KT 10SM BKN010 OVC020 04/03 A2999 RMK AO2 SLP161 T00440028
IND,2020-04-01 10:55,M,M,M,330.00,9.00,M,29.99,M,10.00,M,BKN,OVC,M,M,999.00,1999.00,M,M,M,M,M,M,M,M,M,M,KIND 011055Z AUTO 33009KT 10SM BKN009 OVC019 04/03 A2998 RMK T00400030 MADISHF
IND,2020-04-01 11:00,M,M,M,340.00,8.00,M,30.00,M,10.00,M,BKN,OVC,M,M,999.00,1999.00,M,M,M,M,M,M,M,M,M,M,KIND 011100Z AUTO 34008KT 10SM BKN009 OVC019 04/03 A3000 RMK T00400030 MADISHF
IND,2020-04-01 11:05,M,M,M,340.00,9.00,M,30.00,M,10.00,M,BKN,OVC,M,M,999.00,1999.00,M,M,M,M,M,M,M,M,M,M,KIND 011105Z AUTO 34009KT 10SM BKN009 OVC019 04/03 A3000 RMK T00400030 MADISHF
IND,2020-04-01 11:10,M,M,M,330.00,9.00,M,30.00,M,10.00,M,BKN,OVC,M,M,999.00,1999.00,M,M,M,M,M,M,M,M,M,M,KIND 011110Z AUTO 33009KT 10SM BKN009 OVC019 04/03 A3000 RMK T00400030 MADISHF
IND,2020-04-01 11:15,M,M,M,340.00,8.00,M,30.00,M,10.00,M,BKN,OVC,M,M,999.00,1999.00,M,M,M,M,M,M,M,M,M,M,KIND 011115Z AUTO 34008KT 10SM BKN009 OVC019 04/03 A3000 RMK T00400030 MADISHF
IND,2020-04-01 11:20,M,M,M,330.00,7.00,M,30.00,M,10.00,M,OVC,M,M,M,999.00,M,M,M,M,M,M,M,M,M,M,M,KIND 011120Z AUTO 33007KT 10SM OVC009 04/03 A3000 RMK T00400030 MADISHF
IND,2020-04-01 11:25,M,M,M,340.00,5.00,M,30.00,M,10.00,M,OVC,M,M,M,999.00,M,M,M,M,M,M,M,M,M,M,M,KIND 011125Z AUTO 34005KT 10SM OVC009 04/03 A3000 RMK T00400030 MADISHF
IND,2020-04-01 11:30,M,M,M,340.00,8.00,M,30.00,M,10.00,M,OVC,M,M,M,999.00,M,M,M,M,M,M,M,M,M,M,M,KIND 011130Z AUTO 34008KT 10SM OVC009 04/03 A3000 RMK T00400030 MADISHF
IND,2020-04-01 11:35,M,M,M,340.00,8.00,M,30.00,M,10.00,M,OVC,M,M,M,999.00,M,M,M,M,M,M,M,M,M,M,M,KIND 011135Z AUTO 34008KT 10SM OVC009 04/03 A3000 RMK T00400030 MADISHF
IND,2020-04-01 11:40,M,M,M,330.00,10.00,M,30.00,M,10.00,M,OVC,M,M,M,999.00,M,M,M,M,M,M,M,M,M,M,M,KIND 011140Z AUTO 33010KT 10SM OVC009 04/03 A3000 RMK T00400030 MADISHF
IND,2020-04-01 11:45,M,M,M,340.00,9.00,M,30.00,M,10.00,M,OVC,M,M,M,999.00,M,M,M,M,M,M,M,M,M,M,M,KIND 011145Z AUTO 34009KT 10SM OVC009 04/03 A3000 RMK T00400030 MADISHF
IND,2020-04-01 11:50,M,M,M,340.00,8.00,M,30.00,M,10.00,M,OVC,M,M,M,1100.00,M,M,M,M,M,M,M,M,M,M,M,KIND 011150Z AUTO 34008KT 10SM OVC011 04/03 A3000 RMK T00400030 MADISHF
IND,2020-04-01 11:54,39.90,37.90,92.48,350.00,8.00,0.00,30.01,1016.50,10.00,M,BKN,OVC,M,M,1100.00,1600.00,M,M,M,M,M,M,M,M,M,33.84,KIND 011154Z 35008KT 10SM BKN011 OVC016 04/03 A3001 RMK AO2 SLP165 70002 T00440033 10050 20044 51015
IND,2020-04-01 11:55,M,M,M,340.00,8.00,M,30.01,M,10.00,M,BKN,OVC,M,M,1100.00,1600.00,M,M,M,M,M,M,M,M,M,M,KIND 011155Z AUTO 34008KT 10SM BKN011 OVC016 04/03 A3001 RMK T00400030 MADISHF
IND,2020-04-01 12:00,M,M,M,340.00,8.00,M,30.01,M,10.00,M,BKN,OVC,M,M,1100.00,1600.00,M,M,M,M,M,M,M,M,M,M,KIND 011200Z AUTO 34008KT 10SM BKN011 OVC016 04/03 A3001 RMK T00400030 MADISHF
IND,2020-04-01 12:05,M,M,M,340.00,7.00,M,30.01,M,10.00,M,BKN,OVC,M,M,1100.00,1600.00,M,M,M,M,M,M,M,M,M,M,KIND 011205Z AUTO 34007KT 10SM BKN011 OVC016 04/03 A3001 RMK T00400030 MADISHF
IND,2020-04-01 12:10,M,M,M,330.00,7.00,M,30.01,M,10.00,M,BKN,OVC,M,M,1100.00,1600.00,M,M,M,M,M,M,M,M,M,M,KIND 011210Z AUTO 33007KT 10SM BKN011 OVC016 04/03 A3001 RMK T00400030 MADISHF
IND,2020-04-01 12:15,M,M,M,330.00,9.00,M,30.02,M,10.00,M,BKN,OVC,M,M,1100.00,1400.00,M,M,M,M,M,M,M,M,M,M,KIND 011215Z AUTO 33009KT 10SM BKN011 OVC014 04/03 A3002 RMK T00400030 MADISHF
IND,2020-04-01 12:20,M,M,M,330.00,7.00,M,30.02,M,10.00,M,OVC,M,M,M,1100.00,M,M,M,M,M,M,M,M,M,M,M,KIND 011220Z AUTO 33007KT 10SM OVC011 04/03 A3002 RMK T00400030 MADISHF
IND,2020-04-01 12:25,M,M,M,340.00,8.00,M,30.02,M,10.00,M,OVC,M,M,M,1100.00,M,M,M,M,M,M,M,M,M,M,M,KIND 011225Z AUTO 34008KT 10SM OVC011 04/03 A3002 RMK T00400030 MADISHF
IND,2020-04-01 12:30,M,M,M,330.00,9.00,M,30.02,M,10.00,M,OVC,M,M,M,1100.00,M,M,M,M,M,M,M,M,M,M,M,KIND 011230Z AUTO 33009KT 10SM OVC011 04/03 A3002 RMK T00400030 MADISHF
IND,2020-04-01 12:35,M,M,M,340.00,8.00,M,30.02,M,10.00,M,OVC,M,M,M,1100.00,M,M,M,M,M,M,M,M,M,M,M,KIND 011235Z AUTO 34008KT 10SM OVC011 04/03 A3002 RMK T00400030 MADISHF
IND,2020-04-01 12:40,M,M,M,340.00,8.00,M,30.02,M,10.00,M,OVC,M,M,M,999.00,M,M,M,M,M,M,M,M,M,M,M,KIND 011240Z AUTO 34008KT 10SM OVC009 05/03 A3002 RMK T00500030 MADISHF
IND,2020-04-01 12:45,M,M,M,340.00,7.00,M,30.02,M,10.00,M,OVC,M,M,M,999.00,M,M,M,M,M,M,M,M,M,M,M,KIND 011245Z AUTO 34007KT 10SM OVC009 05/03 A3002 RMK T00500030 MADISHF
IND,2020-04-01 12:50,M,M,M,340.00,8.00,M,30.03,M,10.00,M,BKN,OVC,M,M,999.00,1600.00,M,M,M,M,M,M,M,M,M,M,KIND 011250Z AUTO 34008KT 10SM BKN009 OVC016 05/03 A3003 RMK T00500030 MADISHF
IND,2020-04-01 12:54,41.00,37.90,88.62,340.00,8.00,0.00,30.03,1017.20,10.00,M,BKN,OVC,M,M,1000.00,1600.00,M,M,M,M,M,M,M,M,M,35.20,KIND 011254Z 34008KT 10SM BKN010 OVC016 05/03 A3003 RMK AO2 SLP172 T00500033
IND,2020-04-01 12:55,M,M,M,340.00,9.00,M,30.03,M,10.00,M,BKN,OVC,M,M,999.00,1800.00,M,M,M,M,M,M,M,M,M,M,KIND 011255Z AUTO 34009KT 10SM BKN009 OVC018 05/03 A3003 RMK T00500030 MADISHF
IND,2020-04-01 13:00,M,M,M,340.00,9.00,M,30.03,M,10.00,M,BKN,OVC,M,M,999.00,1800.00,M,M,M,M,M,M,M,M,M,M,KIND 011300Z AUTO 34009KT 10SM BKN009 OVC018 05/03 A3003 RMK T00500030 MADISHF
IND,2020-04-01 13:05,M,M,M,340.00,7.00,M,30.03,M,10.00,M,BKN,OVC,M,M,999.00,1800.00,M,M,M,M,M,M,M,M,M,M,KIND 011305Z AUTO 34007KT 10SM BKN009 OVC018 05/03 A3003 RMK T00500030 MADISHF
IND,2020-04-01 13:10,M,M,M,330.00,8.00,M,30.03,M,10.00,M,BKN,OVC,M,M,999.00,1800.00,M,M,M,M,M,M,M,M,M,M,KIND 011310Z AUTO 33008KT 10SM BKN009 OVC018 05/03 A3003 RMK T00500030 MADISHF
IND,2020-04-01 13:15,M,M,M,340.00,7.00,M,30.03,M,10.00,M,BKN,OVC,M,M,999.00,1800.00,M,M,M,M,M,M,M,M,M,M,KIND 011315Z AUTO 34007KT 10SM BKN009 OVC018 05/03 A3003 RMK T00500030 MADISHF
IND,2020-04-01 13:20,M,M,M,340.00,9.00,M,30.03,M,10.00,M,OVC,M,M,M,999.00,M,M,M,M,M,M,M,M,M,M,M,KIND 011320Z AUTO 34009KT 10SM OVC009 05/03 A3003 RMK T00500030 MADISHF
IND,2020-04-01 13:25,M,M,M,330.00,7.00,M,30.03,M,10.00,M,OVC,M,M,M,999.00,M,M,M,M,M,M,M,M,M,M,M,KIND 011325Z AUTO 33007KT 10SM OVC009 05/03 A3003 RMK T00500030 MADISHF
IND,2020-04-01 13:30,M,M,M,330.00,8.00,M,30.03,M,10.00,M,OVC,M,M,M,999.00,M,M,M,M,M,M,M,M,M,M,M,KIND 011330Z AUTO 33008KT 10SM OVC009 05/03 A3003 RMK T00500030 MADISHF
IND,2020-04-01 13:35,M,M,M,340.00,5.00,M,30.04,M,10.00,M,OVC,M,M,M,999.00,M,M,M,M,M,M,M,M,M,M,M,KIND 011335Z AUTO 34005KT 10SM OVC009 05/03 A3004 RMK T00500030 MADISHF
IND,2020-04-01 13:40,M,M,M,340.00,8.00,M,30.04,M,10.00,M,OVC,M,M,M,999.00,M,M,M,M,M,M,M,M,M,M,M,KIND 011340Z AUTO 34008KT 10SM OVC009 05/03 A3004 RMK T00500030 MADISHF
IND,2020-04-01 13:45,M,M,M,360.00,7.00,M,30.04,M,10.00,M,OVC,M,M,M,999.00,M,M,M,M,M,M,M,M,M,M,M,KIND 011345Z AUTO 36007KT 10SM OVC009 05/03 A3004 RMK T00500030 MADISHF
IND,2020-04-01 13:50,M,M,M,360.00,8.00,M,30.04,M,10.00,M,OVC,M,M,M,999.00,M,M,M,M,M,M,M,M,M,M,M,KIND 011350Z AUTO 36008KT 10SM OVC009 06/03 A3004 RMK T00600030 MADISHF
IND,2020-04-01 13:54,42.10,37.90,84.93,350.00,6.00,0.00,30.04,1017.60,9.00,M,OVC,M,M,M,1000.00,M,M,M,M,M,M,M,M,M,M,37.69,KIND 011354Z 35006KT 9SM OVC010 06/03 A3004 RMK AO2 SLP176 T00560033
IND,2020-04-01 13:55,M,M,M,350.00,7.00,M,30.04,M,10.00,M,OVC,M,M,M,1100.00,M,M,M,M,M,M,M,M,M,M,M,KIND 011355Z AUTO 35007KT 10SM OVC011 06/03 A3004 RMK T00600030 MADISHF
IND,2020-04-01 14:00,M,M,M,360.00,5.00,M,30.04,M,10.00,M,OVC,M,M,M,1100.00,M,M,M,M,M,M,M,M,M,M,M,KIND 011400Z AUTO 36005KT 10SM OVC011 06/03 A3004 RMK T00600030 MADISHF
IND,2020-04-01 14:05,M,M,M,350.00,8.00,M,30.04,M,10.00,M,OVC,M,M,M,1100.00,M,M,M,M,M,M,M,M,M,M,M,KIND 011405Z AUTO 35008KT 10SM OVC011 06/03 A3004 RMK T00600030 MADISHF
IND,2020-04-01 14:10,M,M,M,340.00,7.00,M,30.05,M,10.00,M,OVC,M,M,M,1100.00,M,M,M,M,M,M,M,M,M,M,M,KIND 011410Z AUTO 34007KT 10SM OVC011 06/03 A3004 RMK T00600030 MADISHF
IND,2020-04-01 14:15,M,M,M,340.00,8.00,M,30.05,M,10.00,M,OVC,M,M,M,1100.00,M,M,M,M,M,M,M,M,M,M,M,KIND 011415Z AUTO 34008KT 10SM OVC011 06/03 A3004 RMK T00600030 MADISHF
IND,2020-04-01 14:20,M,M,M,360.00,8.00,M,30.05,M,10.00,M,OVC,M,M,M,1200.00,M,M,M,M,M,M,M,M,M,M,M,KIND 011420Z AUTO 36008KT 10SM OVC012 06/03 A3004 RMK T00600030 MADISHF
IND,2020-04-01 14:25,M,M,M,340.00,8.00,M,30.05,M,10.00,M,OVC,M,M,M,1200.00,M,M,M,M,M,M,M,M,M,M,M,KIND 011425Z AUTO 34008KT 10SM OVC012 06/03 A3004 RMK T00600030 MADISHF
IND,2020-04-01 14:30,M,M,M,350.00,7.00,M,30.05,M,10.00,M,OVC,M,M,M,1200.00,M,M,M,M,M,M,M,M,M,M,M,KIND 011430Z AUTO 35007KT 10SM OVC012 06/03 A3004 RMK T00600030 MADISHF
IND,2020-04-01 14:35,M,M,M,340.00,8.00,M,30.05,M,10.00,M,OVC,M,M,M,1200.00,M,M,M,M,M,M,M,M,M,M,M,KIND 011435Z AUTO 34008KT 10SM OVC012 06/03 A3004 RMK T00600030 MADISHF
IND,2020-04-01 14:40,M,M,M,340.00,7.00,M,30.05,M,10.00,M,OVC,M,M,M,1200.00,M,M,M,M,M,M,M,M,M,M,M,KIND 011440Z AUTO 34007KT 10SM OVC012 06/03 A3004 RMK T00600030 MADISHF
IND,2020-04-01 14:45,M,M,M,340.00,8.00,M,30.05,M,10.00,M,OVC,M,M,M,1200.00,M,M,M,M,M,M,M,M,M,M,M,KIND 011445Z AUTO 34008KT 10SM OVC012 06/03 A3004 RMK T00600030 MADISHF
IND,2020-04-01 14:50,M,M,M,350.00,8.00,M,30.06,M,10.00,M,OVC,M,M,M,1300.00,M,M,M,M,M,M,M,M,M,M,M,KIND 011450Z AUTO 35008KT 10SM OVC013 06/03 A3005 RMK T00600030 MADISHF
IND,2020-04-01 14:54,43.00,37.90,82.04,10.00,6.00,0.00,30.06,1018.10,10.00,M,OVC,M,M,M,1300.00,M,M,M,M,M,M,M,M,M,M,38.78,KIND 011454Z 01006KT 10SM OVC013 06/03 A3006 RMK AO2 SLP181 T00610033 51017
IND,2020-04-01 14:55,M,M,M,10.00,5.00,M,30.06,M,10.00,M,OVC,M,M,M,1300.00,M,M,M,M,M,M,M,M,M,M,M,KIND 011455Z AUTO 01005KT 10SM OVC013 06/03 A3005 RMK T00600030 MADISHF
IND,2020-04-01 15:00,M,M,M,350.00,4.00,M,30.06,M,10.00,M,OVC,M,M,M,1300.00,M,M,M,M,M,M,M,M,M,M,M,KIND 011500Z AUTO 35004KT 10SM OVC013 06/03 A3005 RMK T00600030 MADISHF
IND,2020-04-01 15:05,M,M,M,330.00,7.00,M,30.06,M,10.00,M,OVC,M,M,M,1300.00,M,M,M,M,M,M,M,M,M,M,M,KIND 011505Z AUTO 33007KT 10SM OVC013 07/03 A3005 RMK T00700030 MADISHF
IND,2020-04-01 15:10,M,M,M,360.00,5.00,M,30.06,M,10.00,M,OVC,M,M,M,1300.00,M,M,M,M,M,M,M,M,M,M,M,KIND 011510Z AUTO 36005KT 10SM OVC013 07/03 A3005 RMK T00700030 MADISHF
IND,2020-04-01 15:15,M,M,M,330.00,5.00,M,30.06,M,10.00,M,OVC,M,M,M,1300.00,M,M,M,M,M,M,M,M,M,M,M,KIND 011515Z AUTO 33005KT 10SM OVC013 07/03 A3005 RMK T00700030 MADISHF
IND,2020-04-01 15:20,M,M,M,330.00,5.00,M,30.06,M,10.00,M,OVC,M,M,M,1300.00,M,M,M,M,M,M,M,M,M,M,M,KIND 011520Z AUTO 33005KT 10SM OVC013 07/03 A3005 RMK T00700030 MADISHF
IND,2020-04-01 15:25,M,M,M,350.00,5.00,M,30.06,M,10.00,M,OVC,M,M,M,1400.00,M,M,M,M,M,M,M,M,M,M,M,KIND 011525Z AUTO 35005KT 10SM OVC014 07/03 A3005 RMK T00700030 MADISHF
IND,2020-04-01 15:30,M,M,M,350.00,7.00,M,30.06,M,10.00,M,OVC,M,M,M,1400.00,M,M,M,M,M,M,M,M,M,M,M,KIND 011530Z AUTO 35007KT 10SM OVC014 07/04 A3005 RMK T00700040 MADISHF
IND,2020-04-01 15:35,M,M,M,350.00,5.00,M,30.06,M,10.00,M,OVC,M,M,M,1400.00,M,M,M,M,M,M,M,M,M,M,M,KIND 011535Z AUTO 35005KT 10SM OVC014 07/04 A3005 RMK T00700040 MADISHF
IND,2020-04-01 15:40,M,M,M,340.00,5.00,M,30.07,M,10.00,M,OVC,M,M,M,1600.00,M,M,M,M,M,M,M,M,M,M,M,KIND 011540Z AUTO 34005KT 10SM OVC016 07/04 A3006 RMK T00700040 MADISHF
IND,2020-04-01 15:45,M,M,M,320.00,5.00,M,30.06,M,10.00,M,OVC,M,M,M,1600.00,M,M,M,M,M,M,M,M,M,M,M,KIND 011545Z AUTO 32005KT 10SM OVC016 07/04 A3005 RMK T00700040 MADISHF
IND,2020-04-01 15:50,M,M,M,340.00,5.00,M,30.07,M,10.00,M,OVC,M,M,M,1600.00,M,M,M,M,M,M,M,M,M,M,M,KIND 011550Z AUTO 34005KT 10SM OVC016 07/04 A3006 RMK T00700040 MADISHF
IND,2020-04-01 15:54,45.00,39.00,79.36,340.00,7.00,0.00,30.07,1018.50,10.00,M,OVC,M,M,M,1500.00,M,M,M,M,M,M,M,M,M,M,40.63,KIND 011554Z 34007KT 10SM OVC015 07/04 A3007 RMK AO2 SLP185 T00720039
IND,2020-04-01 15:55,M,M,M,350.00,7.00,M,30.07,M,10.00,M,OVC,M,M,M,1500.00,M,M,M,M,M,M,M,M,M,M,M,KIND 011555Z AUTO 35007KT 10SM OVC015 07/04 A3006 RMK T00700040 MADISHF
IND,2020-04-01 16:00,M,M,M,350.00,4.00,M,30.07,M,10.00,M,OVC,M,M,M,1500.00,M,M,M,M,M,M,M,M,M,M,M,KIND 011600Z AUTO 35004KT 10SM OVC015 07/04 A3006 RMK T00700040 MADISHF
IND,2020-04-01 16:05,M,M,M,10.00,5.00,M,30.07,M,10.00,M,OVC,M,M,M,1699.00,M,M,M,M,M,M,M,M,M,M,M,KIND 011605Z AUTO 01005KT 10SM OVC016 08/04 A3006 RMK T00800040 MADISHF
IND,2020-04-01 16:10,M,M,M,360.00,5.00,M,30.07,M,10.00,M,OVC,M,M,M,1699.00,M,M,M,M,M,M,M,M,M,M,M,KIND 011610Z AUTO 36005KT 10SM OVC016 08/04 A3006 RMK T00800040 MADISHF
IND,2020-04-01 16:15,M,M,M,330.00,5.00,M,30.07,M,10.00,M,OVC,M,M,M,1699.00,M,M,M,M,M,M,M,M,M,M,M,KIND 011615Z AUTO 33005KT 10SM OVC016 08/04 A3006 RMK T00800040 MADISHF
IND,2020-04-01 16:20,M,M,M,350.00,5.00,M,30.07,M,10.00,M,OVC,M,M,M,1699.00,M,M,M,M,M,M,M,M,M,M,M,KIND 011620Z AUTO 35005KT 10SM OVC016 08/04 A3006 RMK T00800040 MADISHF
IND,2020-04-01 16:25,M,M,M,350.00,5.00,M,30.07,M,10.00,M,OVC,M,M,M,1699.00,M,M,M,M,M,M,M,M,M,M,M,KIND 011625Z AUTO 35005KT 10SM OVC016 08/04 A3006 RMK T00800040 MADISHF
IND,2020-04-01 16:30,M,M,M,360.00,5.00,M,30.06,M,10.00,M,OVC,M,M,M,1900.00,M,M,M,M,M,M,M,M,M,M,M,KIND 011630Z AUTO 36005KT 10SM OVC019 08/04 A3005 RMK T00800040 MADISHF
IND,2020-04-01 16:35,M,M,M,360.00,2.00,M,30.06,M,10.00,M,OVC,M,M,M,1900.00,M,M,M,M,M,M,M,M,M,M,M,KIND 011635Z AUTO 36002KT 10SM OVC019 08/04 A3005 RMK T00800040 MADISHF
IND,2020-04-01 16:40,M,M,M,300.00,5.00,M,30.07,M,10.00,M,OVC,M,M,M,1900.00,M,M,M,M,M,M,M,M,M,M,M,KIND 011640Z AUTO 30005KT 10SM OVC019 08/04 A3006 RMK T00800040 MADISHF
IND,2020-04-01 16:45,M,M,M,320.00,2.00,M,30.06,M,10.00,M,OVC,M,M,M,1900.00,M,M,M,M,M,M,M,M,M,M,M,KIND 011645Z AUTO 32002KT 10SM OVC019 08/04 A3005 RMK T00800040 MADISHF
IND,2020-04-01 16:50,M,M,M,0.00,0.00,M,30.06,M,10.00,M,OVC,M,M,M,1900.00,M,M,M,M,M,M,M,M,M,M,M,KIND 011650Z AUTO 00000KT 10SM OVC019 08/04 A3005 RMK T00800040 MADISHF
IND,2020-04-01 16:54,46.90,39.00,73.85,350.00,6.00,0.00,30.06,1018.30,10.00,M,OVC,M,M,M,1900.00,M,M,M,M,M,M,M,M,M,M,43.48,KIND 011654Z 35006KT 10SM OVC019 08/04 A3006 RMK AO2 SLP183 T00830039
IND,2020-04-01 16:55,M,M,M,360.00,5.00,M,30.06,M,10.00,M,OVC,M,M,M,1900.00,M,M,M,M,M,M,M,M,M,M,M,KIND 011655Z AUTO 36005KT 10SM OVC019 08/04 A3005 RMK T00800040 MADISHF
IND,2020-04-01 17:00,M,M,M,290.00,5.00,M,30.06,M,10.00,M,OVC,M,M,M,1900.00,M,M,M,M,M,M,M,M,M,M,M,KIND 011700Z AUTO 29005KT 10SM OVC019 08/04 A3005 RMK T00800040 MADISHF
IND,2020-04-01 17:05,M,M,M,300.00,7.00,M,30.06,M,10.00,M,OVC,M,M,M,1900.00,M,M,M,M,M,M,M,M,M,M,M,KIND 011705Z AUTO 30007KT 10SM OVC019 09/04 A3005 RMK T00900040 MADISHF
IND,2020-04-01 17:10,M,M,M,300.00,4.00,M,30.06,M,10.00,M,OVC,M,M,M,1900.00,M,M,M,M,M,M,M,M,M,M,M,KIND 011710Z AUTO 30004KT 10SM OVC019 08/04 A3005 RMK T00800040 MADISHF
IND,2020-04-01 17:15,M,M,M,M,M,M,30.06,M,10.00,M,OVC,M,M,M,1999.00,M,M,M,M,M,M,M,M,M,M,M,KIND 011715Z AUTO /////KT 10SM OVC019 09/04 A3005 RMK T00900040 MADISHF
IND,2020-04-01 17:20,M,M,M,300.00,5.00,M,30.06,M,10.00,30.00,OVC,M,M,M,1999.00,M,M,M,M,M,M,M,M,M,M,M,KIND 011720Z AUTO 30005G30KT 10SM OVC019 09/04 A3005 RMK T00900040 MADISHF
IND,2020-04-01 17:25,M,M,M,300.00,5.00,M,30.06,M,10.00,30.00,OVC,M,M,M,1999.00,M,M,M,M,M,M,M,M,M,M,M,KIND 011725Z AUTO 30005G30KT 10SM OVC019 09/04 A3005 RMK T00900040 MADISHF
IND,2020-04-01 17:30,M,M,M,300.00,5.00,M,30.06,M,10.00,30.00,BKN,OVC,M,M,1999.00,6500.00,M,M,M,M,M,M,M,M,M,M,KIND 011730Z AUTO 30005G30KT 10SM BKN019 OVC065 09/04 A3005 RMK T00900040 MADISHF
IND,2020-04-01 17:35,M,M,M,330.00,5.00,M,30.06,M,10.00,30.00,BKN,OVC,M,M,1999.00,6500.00,M,M,M,M,M,M,M,M,M,M,KIND 011735Z AUTO 33005G30KT 10SM BKN019 OVC065 09/04 A3005 RMK T00900040 MADISHF
IND,2020-04-01 17:40,M,M,M,340.00,5.00,M,30.06,M,10.00,30.00,BKN,OVC,M,M,1999.00,6500.00,M,M,M,M,M,M,M,M,M,M,KIND 011740Z AUTO 34005G30KT 10SM BKN019 OVC065 09/04 A3005 RMK T00900040 MADISHF
IND,2020-04-01 17:45,M,M,M,340.00,5.00,M,30.06,M,10.00,30.00,BKN,OVC,M,M,1999.00,6500.00,M,M,M,M,M,M,M,M,M,M,KIND 011745Z AUTO 34005G30KT 10SM BKN019 OVC065 09/04 A3005 RMK T00900040 MADISHF
IND,2020-04-01 17:50,M,M,M,300.00,5.00,M,30.06,M,10.00,M,BKN,OVC,M,M,2100.00,6500.00,M,M,M,M,M,M,M,M,M,M,KIND 011750Z AUTO 30005KT 10SM BKN021 OVC065 09/04 A3005 RMK T00900040 MADISHF
IND,2020-04-01 17:54,48.90,39.00,68.51,330.00,4.00,0.00,30.06,1018.00,10.00,M,BKN,OVC,M,M,2100.00,6500.00,M,M,M,M,M,M,M,M,M,47.16,KIND 011754Z 33004KT 10SM BKN021 OVC065 09/04 A3006 RMK AO2 SLP180 T00940039 10094 20044 50000
IND,2020-04-01 17:55,M,M,M,330.00,4.00,M,30.06,M,10.00,M,BKN,OVC,M,M,2100.00,6500.00,M,M,M,M,M,M,M,M,M,M,KIND 011755Z AUTO 33004KT 10SM BKN021 OVC065 09/04 A3005 RMK T00900040 MADISHF
IND,2020-04-01 18:00,M,M,M,350.00,5.00,M,30.06,M,10.00,M,BKN,OVC,M,M,2300.00,6500.00,M,M,M,M,M,M,M,M,M,M,KIND 011800Z AUTO 35005KT 10SM BKN023 OVC065 09/04 A3005 RMK T00900040 MADISHF
IND,2020-04-01 18:05,M,M,M,340.00,5.00,M,30.05,M,10.00,M,BKN,OVC,M,M,2300.00,6500.00,M,M,M,M,M,M,M,M,M,M,KIND 011805Z AUTO 34005KT 10SM BKN023 OVC065 09/04 A3004 RMK T00900040 MADISHF
IND,2020-04-01 18:10,M,M,M,320.00,5.00,M,30.05,M,10.00,M,BKN,OVC,M,M,2300.00,6500.00,M,M,M,M,M,M,M,M,M,M,KIND 011810Z AUTO 32005KT 10SM BKN023 OVC065 10/04 A3004 RMK T01000040 MADISHF
IND,2020-04-01 18:15,M,M,M,10.00,5.00,M,30.05,M,10.00,M,BKN,BKN,M,M,2300.00,6500.00,M,M,M,M,M,M,M,M,M,M,KIND 011815Z AUTO 01005KT 10SM BKN023 BKN065 10/04 A3004 RMK T01000040 VRB06KT  MADISHF
IND,2020-04-01 18:20,M,M,M,320.00,5.00,M,30.05,M,10.00,M,BKN,BKN,M,M,2300.00,6500.00,M,M,M,M,M,M,M,M,M,M,KIND 011820Z AUTO 32005KT 10SM BKN023 BKN065 11/04 A3004 RMK T01100040 MADISHF
IND,2020-04-01 18:25,M,M,M,330.00,5.00,M,30.05,M,10.00,M,BKN,BKN,M,M,2300.00,6500.00,M,M,M,M,M,M,M,M,M,M,KIND 011825Z AUTO 33005KT 10SM BKN023 BKN065 10/04 A3004 RMK T01000040 MADISHF
IND,2020-04-01 18:30,M,M,M,300.00,5.00,M,30.05,M,10.00,M,BKN,BKN,M,M,2500.00,6500.00,M,M,M,M,M,M,M,M,M,M,KIND 011830Z AUTO 30005KT 10SM BKN025 BKN065 11/04 A3004 RMK T01100040 MADISHF
IND,2020-04-01 18:35,M,M,M,330.00,5.00,M,30.05,M,10.00,M,BKN,BKN,M,M,2500.00,6500.00,M,M,M,M,M,M,M,M,M,M,KIND 011835Z AUTO 33005KT 10SM BKN025 BKN065 11/04 A3004 RMK T01100040 MADISHF
IND,2020-04-01 18:40,M,M,M,350.00,5.00,M,30.05,M,10.00,M,BKN,BKN,M,M,2500.00,6500.00,M,M,M,M,M,M,M,M,M,M,KIND 011840Z AUTO 35005KT 10SM BKN025 BKN065 10/04 A3004 RMK T01000040 MADISHF
IND,2020-04-01 18:45,M,M,M,330.00,9.00,M,30.05,M,10.00,M,BKN,BKN,M,M,2500.00,6500.00,M,M,M,M,M,M,M,M,M,M,KIND 011845Z AUTO 33009KT 10SM BKN025 BKN065 11/04 A3004 RMK T01100040 MADISHF
IND,2020-04-01 18:50,M,M,M,320.00,7.00,M,30.05,M,10.00,M,BKN,BKN,M,M,2500.00,6500.00,M,M,M,M,M,M,M,M,M,M,KIND 011850Z AUTO 32007KT 10SM BKN025 BKN065 11/04 A3004 RMK T01100040 MADISHF
IND,2020-04-01 18:54,52.00,39.00,61.06,350.00,7.00,0.00,30.05,1017.80,10.00,M,BKN,BKN,M,M,2500.00,6500.00,M,M,M,M,M,M,M,M,M,M,KIND 011854Z 35007KT 10SM BKN025 BKN065 11/04 A3005 RMK AO2 SLP178 T01110039
IND,2020-04-01 18:55,M,M,M,360.00,7.00,M,30.05,M,10.00,M,BKN,BKN,M,M,2500.00,6500.00,M,M,M,M,M,M,M,M,M,M,KIND 011855Z AUTO 36007KT 10SM BKN025 BKN065 11/04 A3004 RMK T01100040 MADISHF
IND,2020-04-01 19:00,M,M,M,350.00,4.00,M,30.05,M,10.00,M,BKN,BKN,M,M,2500.00,6500.00,M,M,M,M,M,M,M,M,M,M,KIND 011900Z AUTO 35004KT 10SM BKN025 BKN065 11/04 A3004 RMK T01100040 VRB04KT  MADISHF
IND,2020-04-01 19:05,M,M,M,330.00,7.00,M,30.05,M,10.00,M,BKN,BKN,M,M,2500.00,6500.00,M,M,M,M,M,M,M,M,M,M,KIND 011905Z AUTO 33007KT 10SM BKN025 BKN065 11/04 A3004 RMK T01100040 MADISHF
IND,2020-04-01 19:10,M,M,M,340.00,7.00,M,30.05,M,10.00,M,BKN,BKN,M,M,2500.00,6500.00,M,M,M,M,M,M,M,M,M,M,KIND 011910Z AUTO 34007KT 10SM BKN025 BKN065 11/04 A3004 RMK T01100040 WND 32V02  MADISHF
IND,2020-04-01 19:13,52.00,39.00,61.06,M,5.00,0.00,30.04,M,10.00,M,SCT,BKN,M,M,2700.00,7000.00,M,M,M,M,M,M,M,M,M,M,KIND 011913Z VRB05KT 10SM SCT027 BKN070 11/04 A3004 RMK AO2 T01110039
IND,2020-04-01 19:15,M,M,M,290.00,4.00,M,30.04,M,10.00,M,SCT,BKN,M,M,2700.00,7000.00,M,M,M,M,M,M,M,M,M,M,KIND 011915Z AUTO 29004KT 10SM SCT027 BKN070 11/04 A3004 RMK T01100040 VRB04KT  MADISHF
IND,2020-04-01 19:20,M,M,M,350.00,8.00,M,30.04,M,10.00,M,SCT,BKN,M,M,2700.00,7000.00,M,M,M,M,M,M,M,M,M,M,KIND 011920Z AUTO 35008KT 10SM SCT027 BKN070 12/04 A3004 RMK T01200040 MADISHF
IND,2020-04-01 19:25,M,M,M,M,M,M,30.04,M,10.00,M,SCT,BKN,M,M,2700.00,7000.00,M,M,M,M,M,M,M,M,M,M,KIND 011925Z AUTO /////KT 10SM SCT027 BKN070 11/03 A3004 RMK T01100030 MADISHF
IND,2020-04-01 19:30,M,M,M,310.00,7.00,M,30.04,M,10.00,30.00,SCT,BKN,M,M,2700.00,7000.00,M,M,M,M,M,M,M,M,M,M,KIND 011930Z AUTO 31007G30KT 10SM SCT027 BKN070 12/04 A3004 RMK T01200040 MADISHF
IND,2020-04-01 19:35,M,M,M,310.00,7.00,M,30.04,M,10.00,30.00,SCT,BKN,M,M,2700.00,7000.00,M,M,M,M,M,M,M,M,M,M,KIND 011935Z AUTO 31007G30KT 10SM SCT027 BKN070 12/04 A3004 RMK T01200040 VRB05KT  MADISHF
IND,2020-04-01 19:40,M,M,M,330.00,8.00,M,30.04,M,10.00,M,SCT,BKN,M,M,2700.00,7000.00,M,M,M,M,M,M,M,M,M,M,KIND 011940Z AUTO 33008KT 10SM SCT027 BKN070 12/04 A3004 RMK T01200040 MADISHF
IND,2020-04-01 19:45,M,M,M,340.00,8.00,M,30.04,M,10.00,M,SCT,BKN,M,M,2700.00,7000.00,M,M,M,M,M,M,M,M,M,M,KIND 011945Z AUTO 34008KT 10SM SCT027 BKN070 11/03 A3004 RMK T01100030 MADISHF
IND,2020-04-01 19:50,M,M,M,360.00,4.00,M,30.04,M,10.00,M,SCT,BKN,M,M,3000.00,7000.00,M,M,M,M,M,M,M,M,M,M,KIND 011950Z AUTO 36004KT 10SM SCT030 BKN070 11/03 A3004 RMK T01100030 VRB04KT  MADISHF
IND,2020-04-01 19:54,52.00,37.90,58.48,330.00,6.00,0.00,30.04,1017.40,10.00,M,SCT,BKN,M,M,3000.00,7000.00,M,M,M,M,M,M,M,M,M,M,KIND 011954Z 33006KT 10SM SCT030 BKN070 11/03 A3004 RMK AO2 SLP174 T01110033
IND,2020-04-01 19:55,M,M,M,330.00,5.00,M,30.04,M,10.00,M,SCT,BKN,M,M,3000.00,7000.00,M,M,M,M,M,M,M,M,M,M,KIND 011955Z AUTO 33005KT 10SM SCT030 BKN070 12/03 A3004 RMK T01200030 MADISHF
IND,2020-04-01 20:00,M,M,M,340.00,7.00,M,30.04,M,10.00,M,SCT,BKN,M,M,3000.00,7000.00,M,M,M,M,M,M,M,M,M,M,KIND 012000Z AUTO 34007KT 10SM SCT030 BKN070 12/04 A3004 RMK T01200040 MADISHF
IND,2020-04-01 20:05,M,M,M,320.00,7.00,M,30.03,M,10.00,M,SCT,BKN,M,M,3000.00,7000.00,M,M,M,M,M,M,M,M,M,M,KIND 012005Z AUTO 32007KT 10SM SCT030 BKN070 12/03 A3003 RMK T01200030 MADISHF
IND,2020-04-01 20:10,M,M,M,340.00,9.00,M,30.03,M,10.00,M,SCT,BKN,M,M,3000.00,7000.00,M,M,M,M,M,M,M,M,M,M,KIND 012010Z AUTO 34009KT 10SM SCT030 BKN070 13/03 A3003 RMK T01300030 MADISHF
IND,2020-04-01 20:15,M,M,M,340.00,5.00,M,30.03,M,10.00,M,SCT,BKN,M,M,3000.00,7000.00,M,M,M,M,M,M,M,M,M,M,KIND 012015Z AUTO 34005KT 10SM SCT030 BKN070 12/03 A3003 RMK T01200030 MADISHF
IND,2020-04-01 20:20,M,M,M,310.00,5.00,M,30.03,M,10.00,M,SCT,BKN,M,M,3000.00,7000.00,M,M,M,M,M,M,M,M,M,M,KIND 012020Z AUTO 31005KT 10SM SCT030 BKN070 12/03 A3003 RMK T01200030 MADISHF
IND,2020-04-01 20:25,M,M,M,330.00,5.00,M,30.04,M,10.00,M,SCT,BKN,M,M,3000.00,7000.00,M,M,M,M,M,M,M,M,M,M,KIND 012025Z AUTO 33005KT 10SM SCT030 BKN070 12/03 A3004 RMK T01200030 MADISHF
IND,2020-04-01 20:30,M,M,M,350.00,4.00,M,30.04,M,10.00,M,SCT,BKN,M,M,3000.00,7000.00,M,M,M,M,M,M,M,M,M,M,KIND 012030Z AUTO 35004KT 10SM SCT030 BKN070 11/03 A3004 RMK T01100030 MADISHF
IND,2020-04-01 20:35,M,M,M,320.00,5.00,M,30.03,M,10.00,M,SCT,BKN,M,M,3000.00,7000.00,M,M,M,M,M,M,M,M,M,M,KIND 012035Z AUTO 32005KT 10SM SCT030 BKN070 11/02 A3003 RMK T01100020 MADISHF
IND,2020-04-01 20:40,M,M,M,360.00,5.00,M,30.03,M,10.00,M,SCT,BKN,M,M,3000.00,7000.00,M,M,M,M,M,M,M,M,M,M,KIND 012040Z AUTO 36005KT 10SM SCT030 BKN070 11/03 A3003 RMK T01100030 MADISHF
IND,2020-04-01 20:45,M,M,M,330.00,2.00,M,30.03,M,10.00,M,SCT,BKN,M,M,3000.00,7000.00,M,M,M,M,M,M,M,M,M,M,KIND 012045Z AUTO 33002KT 10SM SCT030 BKN070 11/03 A3003 RMK T01100030 MADISHF
IND,2020-04-01 20:50,M,M,M,330.00,4.00,M,30.03,M,10.00,M,FEW,SCT,M,M,3600.00,5000.00,M,M,M,M,M,M,M,M,M,M,KIND 012050Z AUTO 33004KT 10SM FEW036 SCT050 11/03 A3003 RMK T01100030 MADISHF
IND,2020-04-01 20:54,52.00,37.00,56.45,350.00,4.00,0.00,30.03,1017.30,10.00,M,FEW,SCT,BKN,M,3600.00,5000.00,14000.00,M,M,M,M,M,M,M,M,M,KIND 012054Z 35004KT 10SM FEW036 SCT050 BKN140 11/03 A3003 RMK AO2 SLP173 T01110028 56007
IND,2020-04-01 20:55,M,M,M,350.00,4.00,M,30.04,M,10.00,30.00,FEW,SCT,M,M,3600.00,5000.00,M,M,M,M,M,M,M,M,M,M,KIND 012055Z AUTO 35004G30KT 10SM FEW036 SCT050 11/02 A3004 RMK T01100020 MADISHF
IND,2020-04-01 21:00,M,M,M,10.00,4.00,M,30.04,M,10.00,M,FEW,SCT,M,M,3600.00,5000.00,M,M,M,M,M,M,M,M,M,M,KIND 012100Z AUTO 01004KT 10SM FEW036 SCT050 11/02 A3004 RMK T01100020 MADISHF
IND,2020-04-01 21:05,M,M,M,350.00,2.00,M,30.04,M,10.00,M,FEW,SCT,M,M,3600.00,5000.00,M,M,M,M,M,M,M,M,M,M,KIND 012105Z AUTO 35002KT 10SM FEW036 SCT050 11/02 A3004 RMK T01100020 VRB03KT  MADISHF
IND,2020-04-01 21:10,M,M,M,360.00,4.00,M,30.04,M,10.00,M,FEW,SCT,M,M,3600.00,5000.00,M,M,M,M,M,M,M,M,M,M,KIND 012110Z AUTO 36004KT 10SM FEW036 SCT050 11/03 A3004 RMK T01100030 MADISHF
IND,2020-04-01 21:15,M,M,M,360.00,5.00,M,30.04,M,10.00,M,FEW,SCT,M,M,3600.00,5000.00,M,M,M,M,M,M,M,M,M,M,KIND 012115Z AUTO 36005KT 10SM FEW036 SCT050 11/02 A3004 RMK T01100020 MADISHF
IND,2020-04-01 21:20,M,M,M,360.00,4.00,M,30.04,M,10.00,M,FEW,SCT,M,M,3600.00,5000.00,M,M,M,M,M,M,M,M,M,M,KIND 012120Z AUTO 36004KT 10SM FEW036 SCT050 11/02 A3004 RMK T01100020 MADISHF
IND,2020-04-01 21:25,M,M,M,360.00,4.00,M,30.04,M,10.00,M,FEW,SCT,M,M,3600.00,5000.00,M,M,M,M,M,M,M,M,M,M,KIND 012125Z AUTO 36004KT 10SM FEW036 SCT050 11/02 A3004 RMK T01100020 MADISHF
IND,2020-04-01 21:30,M,M,M,20.00,2.00,M,30.04,M,10.00,M,FEW,SCT,M,M,3600.00,5000.00,M,M,M,M,M,M,M,M,M,M,KIND 012130Z AUTO 02002KT 10SM FEW036 SCT050 11/02 A3004 RMK T01100020 MADISHF
IND,2020-04-01 21:35,M,M,M,10.00,4.00,M,30.04,M,10.00,M,SCT,BKN,M,M,4100.00,5500.00,M,M,M,M,M,M,M,M,M,M,KIND 012135Z AUTO 01004KT 10SM SCT041 BKN055 11/02 A3004 RMK T01100020 MADISHF
IND,2020-04-01 21:40,M,M,M,40.00,4.00,M,30.04,M,10.00,M,SCT,BKN,M,M,4100.00,5500.00,M,M,M,M,M,M,M,M,M,M,KIND 012140Z AUTO 04004KT 10SM SCT041 BKN055 11/02 A3004 RMK T01100020 MADISHF
IND,2020-04-01 21:45,M,M,M,30.00,2.00,M,30.04,M,10.00,M,SCT,BKN,M,M,4100.00,5500.00,M,M,M,M,M,M,M,M,M,M,KIND 012145Z AUTO 03002KT 10SM SCT041 BKN055 11/02 A3004 RMK T01100020 MADISHF
IND,2020-04-01 21:50,M,M,M,0.00,0.00,M,30.04,M,10.00,M,SCT,BKN,M,M,4100.00,5500.00,M,M,M,M,M,M,M,M,M,M,KIND 012150Z AUTO 00000KT 10SM SCT041 BKN055 11/02 A3004 RMK T01100020 MADISHF
IND,2020-04-01 21:54,52.00,36.00,54.26,30.00,4.00,0.00,30.04,1017.60,10.00,M,SCT,BKN,BKN,M,4100.00,5500.00,14000.00,M,M,M,M,M,M,M,M,M,KIND 012154Z 03004KT 10SM SCT041 BKN055 BKN140 11/02 A3004 RMK AO2 SLP176 T01110022
IND,2020-04-01 21:55,M,M,M,40.00,2.00,M,30.04,M,10.00,M,SCT,BKN,M,M,4100.00,5500.00,M,M,M,M,M,M,M,M,M,M,KIND 012155Z AUTO 04002KT 10SM SCT041 BKN055 11/02 A3004 RMK T01100020 MADISHF
IND,2020-04-01 22:00,M,M,M,20.00,2.00,M,30.04,M,10.00,M,SCT,BKN,M,M,4100.00,5500.00,M,M,M,M,M,M,M,M,M,M,KIND 012200Z AUTO 02002KT 10SM SCT041 BKN055 11/02 A3004 RMK T01100020 MADISHF
IND,2020-04-01 22:05,M,M,M,330.00,2.00,M,30.04,M,10.00,M,SCT,BKN,M,M,4100.00,5500.00,M,M,M,M,M,M,M,M,M,M,KIND 012205Z AUTO 33002KT 10SM SCT041 BKN055 11/02 A3004 RMK T01100020 MADISHF
IND,2020-04-01 22:10,M,M,M,360.00,4.00,M,30.04,M,10.00,M,SCT,BKN,M,M,4100.00,5500.00,M,M,M,M,M,M,M,M,M,M,KIND 012210Z AUTO 36004KT 10SM SCT041 BKN055 11/02 A3004 RMK T01100020 MADISHF
IND,2020-04-01 22:15,M,M,M,350.00,7.00,M,30.05,M,10.00,M,SCT,BKN,M,M,4100.00,5500.00,M,M,M,M,M,M,M,M,M,M,KIND 012215Z AUTO 35007KT 10SM SCT041 BKN055 11/02 A3004 RMK T01100020 MADISHF
IND,2020-04-01 22:20,M,M,M,20.00,7.00,M,30.05,M,10.00,M,SCT,BKN,M,M,4100.00,5500.00,M,M,M,M,M,M,M,M,M,M,KIND 012220Z AUTO 02007KT 10SM SCT041 BKN055 11/02 A3004 RMK T01100020 MADISHF
IND,2020-04-01 22:25,M,M,M,20.00,5.00,M,30.05,M,10.00,M,SCT,BKN,M,M,4100.00,5500.00,M,M,M,M,M,M,M,M,M,M,KIND 012225Z AUTO 02005KT 10SM SCT041 BKN055 11/02 A3004 RMK T01100020 MADISHF
IND,2020-04-01 22:30,M,M,M,30.00,5.00,M,30.05,M,10.00,M,SCT,BKN,M,M,4100.00,5500.00,M,M,M,M,M,M,M,M,M,M,KIND 012230Z AUTO 03005KT 10SM SCT041 BKN055 11/03 A3004 RMK T01100030 MADISHF
IND,2020-04-01 22:35,M,M,M,10.00,4.00,M,30.05,M,10.00,M,SCT,BKN,M,M,4100.00,5500.00,M,M,M,M,M,M,M,M,M,M,KIND 012235Z AUTO 01004KT 10SM SCT041 BKN055 11/03 A3004 RMK T01100030 MADISHF
IND,2020-04-01 22:40,M,M,M,10.00,5.00,M,30.05,M,10.00,M,SCT,BKN,M,M,4100.00,5500.00,M,M,M,M,M,M,M,M,M,M,KIND 012240Z AUTO 01005KT 10SM SCT041 BKN055 11/03 A3004 RMK T01100030 MADISHF
IND,2020-04-01 22:45,M,M,M,10.00,7.00,M,30.05,M,10.00,M,SCT,BKN,M,M,4100.00,5500.00,M,M,M,M,M,M,M,M,M,M,KIND 012245Z AUTO 01007KT 10SM SCT041 BKN055 11/02 A3004 RMK T01100020 MADISHF
IND,2020-04-01 22:50,M,M,M,360.00,5.00,M,30.05,M,10.00,M,SCT,BKN,M,M,4100.00,5500.00,M,M,M,M,M,M,M,M,M,M,KIND 012250Z AUTO 36005KT 10SM SCT041 BKN055 11/02 A3004 RMK T01100020 MADISHF
IND,2020-04-01 22:54,51.10,36.00,56.10,10.00,5.00,0.00,30.05,1017.80,10.00,M,FEW,BKN,BKN,M,4100.00,6000.00,14000.00,M,M,M,M,M,M,M,M,M,KIND 012254Z 01005KT 10SM FEW041 BKN060 BKN140 11/02 A3005 RMK AO2 SLP178 T01060022
IND,2020-04-01 22:55,M,M,M,10.00,5.00,M,30.05,M,10.00,M,FEW,BKN,M,M,4100.00,6000.00,M,M,M,M,M,M,M,M,M,M,KIND 012255Z AUTO 01005KT 10SM FEW041 BKN060 11/02 A3004 RMK T01100020 MADISHF
IND,2020-04-01 23:00,M,M,M,20.00,5.00,M,30.05,M,10.00,M,FEW,BKN,M,M,4100.00,6000.00,M,M,M,M,M,M,M,M,M,M,KIND 012300Z AUTO 02005KT 10SM FEW041 BKN060 11/02 A3004 RMK T01100020 MADISHF
IND,2020-04-01 23:05,M,M,M,10.00,5.00,M,30.05,M,10.00,M,FEW,BKN,M,M,4100.00,6000.00,M,M,M,M,M,M,M,M,M,M,KIND 012305Z AUTO 01005KT 10SM FEW041 BKN060 11/03 A3004 RMK T01100030 MADISHF
IND,2020-04-01 23:10,M,M,M,10.00,5.00,M,30.05,M,10.00,M,FEW,BKN,M,M,4100.00,6000.00,M,M,M,M,M,M,M,M,M,M,KIND 012310Z AUTO 01005KT 10SM FEW041 BKN060 11/02 A3004 RMK T01100020 MADISHF
IND,2020-04-01 23:15,M,M,M,360.00,4.00,M,30.05,M,10.00,M,FEW,BKN,M,M,4100.00,6000.00,M,M,M,M,M,M,M,M,M,M,KIND 012315Z AUTO 36004KT 10SM FEW041 BKN060 11/02 A3004 RMK T01100020 MADISHF
IND,2020-04-01 23:20,M,M,M,360.00,5.00,M,30.05,M,10.00,M,FEW,BKN,M,M,4100.00,6000.00,M,M,M,M,M,M,M,M,M,M,KIND 012320Z AUTO 36005KT 10SM FEW041 BKN060 11/02 A3004 RMK T01100020 MADISHF
IND,2020-04-01 23:25,M,M,M,360.00,4.00,M,30.05,M,10.00,M,FEW,BKN,M,M,4100.00,6000.00,M,M,M,M,M,M,M,M,M,M,KIND 012325Z AUTO 36004KT 10SM FEW041 BKN060 11/01 A3004 RMK T01100010 MADISHF
IND,2020-04-01 23:30,M,M,M,10.00,2.00,M,30.05,M,10.00,M,FEW,BKN,M,M,4100.00,6000.00,M,M,M,M,M,M,M,M,M,M,KIND 012330Z AUTO 01002KT 10SM FEW041 BKN060 11/02 A3004 RMK T01100020 MADISHF
IND,2020-04-01 23:35,M,M,M,10.00,5.00,M,30.05,M,10.00,M,FEW,BKN,M,M,4100.00,6000.00,M,M,M,M,M,M,M,M,M,M,KIND 012335Z AUTO 01005KT 10SM FEW041 BKN060 11/02 A3004 RMK T01100020 MADISHF
IND,2020-04-01 23:40,M,M,M,10.00,4.00,M,30.05,M,10.00,M,FEW,BKN,M,M,4100.00,6000.00,M,M,M,M,M,M,M,M,M,M,KIND 012340Z AUTO 01004KT 10SM FEW041 BKN060 11/02 A3004 RMK T01100020 MADISHF
IND,2020-04-01 23:45,M,M,M,10.00,5.00,M,30.05,M,10.00,M,FEW,BKN,M,M,4100.00,6000.00,M,M,M,M,M,M,M,M,M,M,KIND 012345Z AUTO 01005KT 10SM FEW041 BKN060 11/02 A3004 RMK T01100020 MADISHF
IND,2020-04-01 23:50,M,M,M,10.00,5.00,M,30.05,M,10.00,M,FEW,BKN,M,M,4100.00,6000.00,M,M,M,M,M,M,M,M,M,M,KIND 012350Z AUTO 01005KT 10SM FEW041 BKN060 11/02 A3004 RMK T01100020 MADISHF
IND,2020-04-01 23:54,51.10,36.00,56.10,360.00,4.00,0.00,30.05,1017.90,10.00,M,FEW,BKN,BKN,M,4100.00,6000.00,25000.00,M,M,M,M,M,M,M,M,M,KIND 012354Z 36004KT 10SM FEW041 BKN060 BKN250 11/02 A3005 RMK AO2 SLP179 T01060022 10128 20094 51006
IND,2020-04-01 23:55,M,M,M,360.00,5.00,M,30.05,M,10.00,M,FEW,BKN,M,M,4100.00,6000.00,M,M,M,M,M,M,M,M,M,M,KIND 012355Z AUTO 36005KT 10SM FEW041 BKN060 11/02 A3004 RMK T01100020 MADISHF
IND,2020-04-02 00:00,M,M,M,350.00,4.00,M,30.05,M,10.00,M,FEW,BKN,M,M,4100.00,6000.00,M,M,M,M,M,M,M,M,M,M,KIND 020000Z AUTO 35004KT 10SM FEW041 BKN060 11/02 A3004 RMK T01100020 MADISHF
IND,2020-04-02 00:05,M,M,M,350.00,5.00,M,30.05,M,10.00,M,FEW,BKN,M,M,4100.00,6000.00,M,M,M,M,M,M,M,M,M,M,KIND 020005Z AUTO 35005KT 10SM FEW041 BKN060 10/02 A3004 RMK T01000020 MADISHF
IND,2020-04-02 00:10,M,M,M,360.00,5.00,M,30.06,M,10.00,M,FEW,BKN,M,M,4100.00,6000.00,M,M,M,M,M,M,M,M,M,M,KIND 020010Z AUTO 36005KT 10SM FEW041 BKN060 10/02 A3005 RMK T01000020 MADISHF
IND,2020-04-02 00:15,M,M,M,360.00,5.00,M,30.05,M,10.00,M,FEW,BKN,M,M,4100.00,6000.00,M,M,M,M,M,M,M,M,M,M,KIND 020015Z AUTO 36005KT 10SM FEW041 BKN060 10/02 A3004 RMK T01000020 MADISHF
IND,2020-04-02 00:20,M,M,M,360.00,5.00,M,30.05,M,10.00,M,FEW,BKN,M,M,4100.00,6000.00,M,M,M,M,M,M,M,M,M,M,KIND 020020Z AUTO 36005KT 10SM FEW041 BKN060 10/02 A3004 RMK T01000020 MADISHF
IND,2020-04-02 00:25,M,M,M,360.00,5.00,M,30.06,M,10.00,M,FEW,BKN,M,M,4100.00,6000.00,M,M,M,M,M,M,M,M,M,M,KIND 020025Z AUTO 36005KT 10SM FEW041 BKN060 10/02 A3005 RMK T01000020 MADISHF
IND,2020-04-02 00:30,M,M,M,360.00,4.00,M,30.06,M,10.00,M,FEW,BKN,M,M,4100.00,6000.00,M,M,M,M,M,M,M,M,M,M,KIND 020030Z AUTO 36004KT 10SM FEW041 BKN060 10/02 A3005 RMK T01000020 MADISHF
IND,2020-04-02 00:35,M,M,M,350.00,4.00,M,30.06,M,10.00,M,FEW,BKN,M,M,4100.00,6000.00,M,M,M,M,M,M,M,M,M,M,KIND 020035Z AUTO 35004KT 10SM FEW041 BKN060 10/02 A3005 RMK T01000020 MADISHF
IND,2020-04-02 00:40,M,M,M,350.00,4.00,M,30.07,M,10.00,M,FEW,BKN,M,M,4100.00,6000.00,M,M,M,M,M,M,M,M,M,M,KIND 020040Z AUTO 35004KT 10SM FEW041 BKN060 10/02 A3006 RMK T01000020 MADISHF
IND,2020-04-02 00:45,M,M,M,340.00,4.00,M,30.06,M,10.00,M,SCT,M,M,M,6000.00,M,M,M,M,M,M,M,M,M,M,M,KIND 020045Z AUTO 34004KT 10SM SCT060 10/02 A3005 RMK T01000020 MADISHF
IND,2020-04-02 00:50,M,M,M,340.00,4.00,M,30.07,M,10.00,M,SCT,M,M,M,6000.00,M,M,M,M,M,M,M,M,M,M,M,KIND 020050Z AUTO 34004KT 10SM SCT060 10/02 A3006 RMK T01000020 MADISHF
IND,2020-04-02 00:54,48.90,35.10,58.75,350.00,4.00,0.00,30.07,1018.40,10.00,M,SCT,SCT,M,M,6000.00,25000.00,M,M,M,M,M,M,M,M,M,47.16,KIND 020054Z 35004KT 10SM SCT060 SCT250 09/02 A3007 RMK AO2 SLP184 T00940017
IND,2020-04-02 00:55,M,M,M,350.00,4.00,M,30.07,M,10.00,M,SCT,M,M,M,6000.00,M,M,M,M,M,M,M,M,M,M,M,KIND 020055Z AUTO 35004KT 10SM SCT060 10/02 A3006 RMK T01000020 MADISHF
IND,2020-04-02 01:00,M,M,M,360.00,2.00,M,30.07,M,10.00,M,SCT,M,M,M,6000.00,M,M,M,M,M,M,M,M,M,M,M,KIND 020100Z AUTO 36002KT 10SM SCT060 09/02 A3006 RMK T00900020 MADISHF
IND,2020-04-02 01:05,M,M,M,350.00,2.00,M,30.07,M,10.00,M,SCT,M,M,M,6000.00,M,M,M,M,M,M,M,M,M,M,M,KIND 020105Z AUTO 35002KT 10SM SCT060 09/02 A3006 RMK T00900020 MADISHF
IND,2020-04-02 01:10,M,M,M,350.00,2.00,M,30.08,M,10.00,M,SCT,M,M,M,6000.00,M,M,M,M,M,M,M,M,M,M,M,KIND 020110Z AUTO 35002KT 10SM SCT060 10/02 A3007 RMK T01000020 MADISHF
IND,2020-04-02 01:15,M,M,M,350.00,2.00,M,30.08,M,10.00,M,SCT,M,M,M,6000.00,M,M,M,M,M,M,M,M,M,M,M,KIND 020115Z AUTO 35002KT 10SM SCT060 09/02 A3007 RMK T00900020 MADISHF
IND,2020-04-02 01:20,M,M,M,350.00,2.00,M,30.08,M,10.00,M,SCT,M,M,M,6000.00,M,M,M,M,M,M,M,M,M,M,M,KIND 020120Z AUTO 35002KT 10SM SCT060 09/02 A3007 RMK T00900020 MADISHF
IND,2020-04-02 01:25,M,M,M,0.00,0.00,M,30.08,M,10.00,M,SCT,M,M,M,6000.00,M,M,M,M,M,M,M,M,M,M,M,KIND 020125Z AUTO 00000KT 10SM SCT060 09/02 A3007 RMK T00900020 MADISHF
IND,2020-04-02 01:30,M,M,M,0.00,0.00,M,30.08,M,10.00,M,SCT,M,M,M,6000.00,M,M,M,M,M,M,M,M,M,M,M,KIND 020130Z AUTO 00000KT 10SM SCT060 08/02 A3007 RMK T00800020 MADISHF
IND,2020-04-02 01:35,M,M,M,0.00,0.00,M,30.08,M,10.00,M,SCT,M,M,M,6000.00,M,M,M,M,M,M,M,M,M,M,M,KIND 020135Z AUTO 00000KT 10SM SCT060 09/02 A3007 RMK T00900020 MADISHF
IND,2020-04-02 01:40,M,M,M,0.00,0.00,M,30.08,M,10.00,M,SCT,M,M,M,6000.00,M,M,M,M,M,M,M,M,M,M,M,KIND 020140Z AUTO 00000KT 10SM SCT060 09/02 A3007 RMK T00900020 MADISHF
IND,2020-04-02 01:45,M,M,M,0.00,0.00,M,30.08,M,10.00,M,SCT,M,M,M,6000.00,M,M,M,M,M,M,M,M,M,M,M,KIND 020145Z AUTO 00000KT 10SM SCT060 09/02 A3007 RMK T00900020 MADISHF
IND,2020-04-02 01:50,M,M,M,0.00,0.00,M,30.08,M,10.00,M,SCT,M,M,M,6000.00,M,M,M,M,M,M,M,M,M,M,M,KIND 020150Z AUTO 00000KT 10SM SCT060 09/02 A3007 RMK T00900020 MADISHF
IND,2020-04-02 01:54,46.90,35.10,63.33,0.00,0.00,0.00,30.08,1019.00,10.00,M,FEW,FEW,M,M,6000.00,25000.00,M,M,M,M,M,M,M,M,M,M,KIND 020154Z 00000KT 10SM FEW060 FEW250 08/02 A3008 RMK AO2 SLP190 T00830017
IND,2020-04-02 01:55,M,M,M,0.00,0.00,M,30.08,M,10.00,M,CLR,M,M,M,M,M,M,M,M,M,M,M,M,M,M,M,KIND 020155Z AUTO 00000KT 10SM CLR 08/02 A3007 RMK T00800020 MADISHF
IND,2020-04-02 02:00,M,M,M,0.00,0.00,M,30.08,M,10.00,M,FEW,M,M,M,6000.00,M,M,M,M,M,M,M,M,M,M,M,KIND 020200Z AUTO 00000KT 10SM FEW060 08/02 A3007 RMK T00800020 MADISHF
IND,2020-04-02 02:05,M,M,M,0.00,0.00,M,30.09,M,10.00,M,FEW,M,M,M,6000.00,M,M,M,M,M,M,M,M,M,M,M,KIND 020205Z AUTO 00000KT 10SM FEW060 08/02 A3009 RMK T00800020 MADISHF
IND,2020-04-02 02:10,M,M,M,0.00,0.00,M,30.09,M,10.00,M,FEW,M,M,M,6000.00,M,M,M,M,M,M,M,M,M,M,M,KIND 020210Z AUTO 00000KT 10SM FEW060 08/02 A3009 RMK T00800020 MADISHF
IND,2020-04-02 02:15,M,M,M,0.00,0.00,M,30.09,M,10.00,M,FEW,M,M,M,6000.00,M,M,M,M,M,M,M,M,M,M,M,KIND 020215Z AUTO 00000KT 10SM FEW060 08/02 A3009 RMK T00800020 MADISHF
IND,2020-04-02 02:20,M,M,M,0.00,0.00,M,30.09,M,10.00,M,FEW,M,M,M,6000.00,M,M,M,M,M,M,M,M,M,M,M,KIND 020220Z AUTO 00000KT 10SM FEW060 08/02 A3009 RMK T00800020 MADISHF
IND,2020-04-02 02:25,M,M,M,0.00,0.00,M,30.09,M,10.00,M,FEW,M,M,M,6000.00,M,M,M,M,M,M,M,M,M,M,M,KIND 020225Z AUTO 00000KT 10SM FEW060 08/02 A3009 RMK T00800020 MADISHF
IND,2020-04-02 02:30,M,M,M,0.00,0.00,M,30.09,M,10.00,M,FEW,M,M,M,6000.00,M,M,M,M,M,M,M,M,M,M,M,KIND 020230Z AUTO 00000KT 10SM FEW060 07/02 A3009 RMK T00700020 MADISHF
IND,2020-04-02 02:35,M,M,M,0.00,0.00,M,30.09,M,10.00,M,FEW,M,M,M,6000.00,M,M,M,M,M,M,M,M,M,M,M,KIND 020235Z AUTO 00000KT 10SM FEW060 07/02 A3009 RMK T00700020 MADISHF
IND,2020-04-02 02:40,M,M,M,0.00,0.00,M,30.09,M,10.00,M,FEW,M,M,M,6000.00,M,M,M,M,M,M,M,M,M,M,M,KIND 020240Z AUTO 00000KT 10SM FEW060 07/02 A3009 RMK T00700020 MADISHF
IND,2020-04-02 02:45,M,M,M,0.00,0.00,M,30.09,M,10.00,M,FEW,M,M,M,6000.00,M,M,M,M,M,M,M,M,M,M,M,KIND 020245Z AUTO 00000KT 10SM FEW060 07/02 A3009 RMK T00700020 MADISHF
IND,2020-04-02 02:50,M,M,M,320.00,2.00,M,30.10,M,10.00,M,M,M,M,M,M,M,M,M,M,M,M,M,M,M,M,M,KIND 020250Z AUTO 32002KT 10SM 07/02 A3010 RMK T00700020 MADISHF
IND,2020-04-02 02:54,45.00,36.00,70.53,320.00,3.00,0.00,30.10,1019.50,10.00,M,FEW,M,M,M,25000.00,M,M,M,M,M,M,M,M,M,M,43.55,KIND 020254Z 32003KT 10SM FEW250 07/02 A3010 RMK AO2 SLP195 T00720022 51015
IND,2020-04-02 02:55,M,M,M,320.00,2.00,M,30.10,M,10.00,M,CLR,M,M,M,M,M,M,M,M,M,M,M,M,M,M,M,KIND 020255Z AUTO 32002KT 10SM CLR 07/02 A3010 RMK T00700020 MADISHF
IND,2020-04-02 03:00,M,M,M,330.00,2.00,M,30.10,M,10.00,M,CLR,M,M,M,M,M,M,M,M,M,M,M,M,M,M,M,KIND 020300Z AUTO 33002KT 10SM CLR 07/02 A3010 RMK T00700020 MADISHF
IND,2020-04-02 03:05,M,M,M,0.00,0.00,M,30.10,M,10.00,M,CLR,M,M,M,M,M,M,M,M,M,M,M,M,M,M,M,KIND 020305Z AUTO 00000KT 10SM CLR 07/02 A3010 RMK T00700020 MADISHF
IND,2020-04-02 03:10,M,M,M,0.00,0.00,M,30.10,M,10.00,M,CLR,M,M,M,M,M,M,M,M,M,M,M,M,M,M,M,KIND 020310Z AUTO 00000KT 10SM CLR 07/02 A3010 RMK T00700020 MADISHF
IND,2020-04-02 03:15,M,M,M,0.00,0.00,M,30.10,M,10.00,M,CLR,M,M,M,M,M,M,M,M,M,M,M,M,M,M,M,KIND 020315Z AUTO 00000KT 10SM CLR 07/02 A3010 RMK T00700020 MADISHF
IND,2020-04-02 03:20,M,M,M,0.00,0.00,M,30.10,M,10.00,M,CLR,M,M,M,M,M,M,M,M,M,M,M,M,M,M,M,KIND 020320Z AUTO 00000KT 10SM CLR 07/02 A3010 RMK T00700020 MADISHF
IND,2020-04-02 03:25,M,M,M,0.00,0.00,M,30.10,M,10.00,M,CLR,M,M,M,M,M,M,M,M,M,M,M,M,M,M,M,KIND 020325Z AUTO 00000KT 10SM CLR 07/02 A3010 RMK T00700020 MADISHF
IND,2020-04-02 03:30,M,M,M,0.00,0.00,M,30.10,M,10.00,M,CLR,M,M,M,M,M,M,M,M,M,M,M,M,M,M,M,KIND 020330Z AUTO 00000KT 10SM CLR 07/02 A3010 RMK T00700020 MADISHF
IND,2020-04-02 03:35,M,M,M,0.00,0.00,M,30.10,M,10.00,M,CLR,M,M,M,M,M,M,M,M,M,M,M,M,M,M,M,KIND 020335Z AUTO 00000KT 10SM CLR 07/02 A3010 RMK T00700020 MADISHF
IND,2020-04-02 03:40,M,M,M,0.00,0.00,M,30.10,M,10.00,M,CLR,M,M,M,M,M,M,M,M,M,M,M,M,M,M,M,KIND 020340Z AUTO 00000KT 10SM CLR 07/02 A3010 RMK T00700020 MADISHF
IND,2020-04-02 03:45,M,M,M,0.00,0.00,M,30.11,M,10.00,M,CLR,M,M,M,M,M,M,M,M,M,M,M,M,M,M,M,KIND 020345Z AUTO 00000KT 10SM CLR 07/02 A3011 RMK T00700020 MADISHF
IND,2020-04-02 03:50,M,M,M,0.00,0.00,M,30.11,M,10.00,M,FEW,M,M,M,6000.00,M,M,M,M,M,M,M,M,M,M,M,KIND 020350Z AUTO 00000KT 10SM FEW060 07/02 A3011 RMK T00700020 MADISHF
IND,2020-04-02 03:54,44.10,35.10,70.43,0.00,0.00,0.00,30.11,1019.80,10.00,M,FEW,FEW,M,M,6000.00,25000.00,M,M,M,M,M,M,M,M,M,M,KIND 020354Z 00000KT 10SM FEW060 FEW250 07/02 A3011 RMK AO2 SLP198 T00670017
IND,2020-04-02 03:55,M,M,M,0.00,0.00,M,30.11,M,10.00,M,CLR,M,M,M,M,M,M,M,M,M,M,M,M,M,M,M,KIND 020355Z AUTO 00000KT 10SM CLR 07/02 A3011 RMK T00700020 MADISHF
IND,2020-04-02 04:00,M,M,M,0.00,0.00,M,30.11,M,10.00,M,CLR,M,M,M,M,M,M,M,M,M,M,M,M,M,M,M,KIND 020400Z AUTO 00000KT 10SM CLR 06/02 A3011 RMK T00600020 MADISHF
IND,2020-04-02 04:05,M,M,M,0.00,0.00,M,30.11,M,10.00,M,CLR,M,M,M,M,M,M,M,M,M,M,M,M,M,M,M,KIND 020405Z AUTO 00000KT 10SM CLR 06/02 A3011 RMK T00600020 MADISHF
IND,2020-04-02 04:10,M,M,M,0.00,0.00,M,30.11,M,10.00,M,CLR,M,M,M,M,M,M,M,M,M,M,M,M,M,M,M,KIND 020410Z AUTO 00000KT 10SM CLR 06/02 A3011 RMK T00600020 MADISHF
IND,2020-04-02 04:15,M,M,M,330.00,2.00,M,30.11,M,10.00,M,CLR,M,M,M,M,M,M,M,M,M,M,M,M,M,M,M,KIND 020415Z AUTO 33002KT 10SM CLR 06/02 A3011 RMK T00600020 MADISHF
IND,2020-04-02 04:20,M,M,M,340.00,2.00,M,30.11,M,10.00,M,CLR,M,M,M,M,M,M,M,M,M,M,M,M,M,M,M,KIND 020420Z AUTO 34002KT 10SM CLR 06/02 A3011 RMK T00600020 MADISHF
IND,2020-04-02 04:25,M,M,M,350.00,4.00,M,30.11,M,10.00,M,CLR,M,M,M,M,M,M,M,M,M,M,M,M,M,M,M,KIND 020425Z AUTO 35004KT 10SM CLR 06/02 A3011 RMK T00600020 MADISHF
IND,2020-04-02 04:30,M,M,M,350.00,4.00,M,30.11,M,10.00,M,CLR,M,M,M,M,M,M,M,M,M,M,M,M,M,M,M,KIND 020430Z AUTO 35004KT 10SM CLR 06/02 A3011 RMK T00600020 MADISHF
IND,2020-04-02 04:35,M,M,M,340.00,4.00,M,30.11,M,10.00,M,CLR,M,M,M,M,M,M,M,M,M,M,M,M,M,M,M,KIND 020435Z AUTO 34004KT 10SM CLR 06/02 A3011 RMK T00600020 MADISHF
IND,2020-04-02 04:40,M,M,M,330.00,4.00,M,30.11,M,10.00,M,CLR,M,M,M,M,M,M,M,M,M,M,M,M,M,M,M,KIND 020440Z AUTO 33004KT 10SM CLR 06/02 A3011 RMK T00600020 MADISHF
IND,2020-04-02 04:45,M,M,M,330.00,4.00,M,30.11,M,10.00,M,CLR,M,M,M,M,M,M,M,M,M,M,M,M,M,M,M,KIND 020445Z AUTO 33004KT 10SM CLR 06/02 A3011 RMK T00600020 MADISHF
IND,2020-04-02 04:50,M,M,M,330.00,4.00,M,30.11,M,10.00,M,CLR,M,M,M,M,M,M,M,M,M,M,M,M,M,M,M,KIND 020450Z AUTO 33004KT 10SM CLR 06/02 A3011 RMK T00600020 MADISHF
IND,2020-04-02 04:54,42.10,36.00,78.80,330.00,4.00,0.00,30.11,1020.00,10.00,M,CLR,M,M,M,M,M,M,M,M,M,M,M,M,M,M,39.21,KIND 020454Z 33004KT 10SM CLR 06/02 A3011 RMK AO2 SLP200 T00560022 401280044
IND,2020-04-02 04:55,M,M,M,320.00,4.00,M,30.11,M,10.00,M,CLR,M,M,M,M,M,M,M,M,M,M,M,M,M,M,M,KIND 020455Z AUTO 32004KT 10SM CLR 06/02 A3011 RMK T00600020 MADISHF
IND,2020-04-02 05:00,M,M,M,310.00,2.00,M,30.11,M,10.00,M,CLR,M,M,M,M,M,M,M,M,M,M,M,M,M,M,M,KIND 020500Z AUTO 31002KT 10SM CLR 05/02 A3011 RMK T00500020 MADISHF
IND,2020-04-02 05:05,M,M,M,320.00,2.00,M,30.11,M,10.00,M,CLR,M,M,M,M,M,M,M,M,M,M,M,M,M,M,M,KIND 020505Z AUTO 32002KT 10SM CLR 05/02 A3011 RMK T00500020 MADISHF
IND,2020-04-02 05:10,M,M,M,320.00,2.00,M,30.11,M,10.00,M,CLR,M,M,M,M,M,M,M,M,M,M,M,M,M,M,M,KIND 020510Z AUTO 32002KT 10SM CLR 05/02 A3011 RMK T00500020 MADISHF
IND,2020-04-02 05:15,M,M,M,320.00,2.00,M,30.11,M,10.00,M,CLR,M,M,M,M,M,M,M,M,M,M,M,M,M,M,M,KIND 020515Z AUTO 32002KT 10SM CLR 05/02 A3011 RMK T00500020 MADISHF
IND,2020-04-02 05:20,M,M,M,330.00,2.00,M,30.11,M,10.00,M,CLR,M,M,M,M,M,M,M,M,M,M,M,M,M,M,M,KIND 020520Z AUTO 33002KT 10SM CLR 05/02 A3011 RMK T00500020 MADISHF
IND,2020-04-02 05:25,M,M,M,330.00,2.00,M,30.11,M,10.00,M,CLR,M,M,M,M,M,M,M,M,M,M,M,M,M,M,M,KIND 020525Z AUTO 33002KT 10SM CLR 04/02 A3011 RMK T00400020 MADISHF
IND,2020-04-02 05:30,M,M,M,330.00,2.00,M,30.11,M,10.00,M,CLR,M,M,M,M,M,M,M,M,M,M,M,M,M,M,M,KIND 020530Z AUTO 33002KT 10SM CLR 04/02 A3011 RMK T00400020 MADISHF
IND,2020-04-02 05:35,M,M,M,340.00,2.00,M,30.11,M,10.00,M,CLR,M,M,M,M,M,M,M,M,M,M,M,M,M,M,M,KIND 020535Z AUTO 34002KT 10SM CLR 04/02 A3011 RMK T00400020 MADISHF
IND,2020-04-02 05:40,M,M,M,340.00,2.00,M,30.11,M,10.00,M,CLR,M,M,M,M,M,M,M,M,M,M,M,M,M,M,M,KIND 020540Z AUTO 34002KT 10SM CLR 04/02 A3011 RMK T00400020 MADISHF
IND,2020-04-02 05:45,M,M,M,350.00,4.00,M,30.11,M,10.00,M,CLR,M,M,M,M,M,M,M,M,M,M,M,M,M,M,M,KIND 020545Z AUTO 35004KT 10SM CLR 04/02 A3011 RMK T00400020 MADISHF
IND,2020-04-02 05:50,M,M,M,340.00,4.00,M,30.11,M,10.00,M,CLR,M,M,M,M,M,M,M,M,M,M,M,M,M,M,M,KIND 020550Z AUTO 34004KT 10SM CLR 04/02 A3011 RMK T00400020 MADISHF
IND,2020-04-02 05:54,39.90,35.10,82.80,340.00,4.00,0.00,30.11,1019.90,10.00,M,CLR,M,M,M,M,M,M,M,M,M,M,M,M,M,M,36.65,KIND 020554Z 34004KT 10SM CLR 04/02 A3011 RMK AO2 SLP199 T00440017 10106 20044 51005
IND,2020-04-02 05:55,M,M,M,340.00,4.00,M,30.11,M,10.00,M,CLR,M,M,M,M,M,M,M,M,M,M,M,M,M,M,M,KIND 020555Z AUTO 34004KT 10SM CLR 04/02 A3011 RMK T00400020 MADISHF
IND,2020-04-02 06:00,M,M,M,340.00,4.00,M,30.11,M,10.00,M,CLR,M,M,M,M,M,M,M,M,M,M,M,M,M,M,M,KIND 020600Z AUTO 34004KT 10SM CLR 05/02 A3011 RMK T00500020 MADISHF
IND,2020-04-02 06:05,M,M,M,330.00,4.00,M,30.11,M,10.00,M,CLR,M,M,M,M,M,M,M,M,M,M,M,M,M,M,M,KIND 020605Z AUTO 33004KT 10SM CLR 04/02 A3011 RMK T00400020 MADISHF
IND,2020-04-02 06:10,M,M,M,330.00,4.00,M,30.11,M,10.00,M,CLR,M,M,M,M,M,M,M,M,M,M,M,M,M,M,M,KIND 020610Z AUTO 33004KT 10SM CLR 04/02 A3011 RMK T00400020 MADISHF
IND,2020-04-02 06:15,M,M,M,330.00,5.00,M,30.11,M,10.00,M,CLR,M,M,M,M,M,M,M,M,M,M,M,M,M,M,M,KIND 020615Z AUTO 33005KT 10SM CLR 04/02 A3011 RMK T00400020 MADISHF
IND,2020-04-02 06:20,M,M,M,340.00,5.00,M,30.11,M,10.00,M,CLR,M,M,M,M,M,M,M,M,M,M,M,M,M,M,M,KIND 020620Z AUTO 34005KT 10SM CLR 04/02 A3011 RMK T00400020 MADISHF
IND,2020-04-02 06:25,M,M,M,340.00,4.00,M,30.11,M,10.00,M,CLR,M,M,M,M,M,M,M,M,M,M,M,M,M,M,M,KIND 020625Z AUTO 34004KT 10SM CLR 04/02 A3011 RMK T00400020 MADISHF
IND,2020-04-02 06:30,M,M,M,340.00,2.00,M,30.11,M,10.00,M,CLR,M,M,M,M,M,M,M,M,M,M,M,M,M,M,M,KIND 020630Z AUTO 34002KT 10SM CLR 03/01 A3011 RMK T00300010 MADISHF
IND,2020-04-02 06:35,M,M,M,350.00,2.00,M,30.11,M,10.00,M,CLR,M,M,M,M,M,M,M,M,M,M,M,M,M,M,M,KIND 020635Z AUTO 35002KT 10SM CLR 03/01 A3011 RMK T00300010 MADISHF
IND,2020-04-02 06:40,M,M,M,0.00,0.00,M,30.11,M,10.00,M,CLR,M,M,M,M,M,M,M,M,M,M,M,M,M,M,M,KIND 020640Z AUTO 00000KT 10SM CLR 04/02 A3011 RMK T00400020 MADISHF
IND,2020-04-02 06:45,M,M,M,0.00,0.00,M,30.11,M,10.00,M,CLR,M,M,M,M,M,M,M,M,M,M,M,M,M,M,M,KIND 020645Z AUTO 00000KT 10SM CLR 04/02 A3011 RMK T00400020 MADISHF
IND,2020-04-02 06:50,M,M,M,0.00,0.00,M,30.11,M,10.00,M,CLR,M,M,M,M,M,M,M,M,M,M,M,M,M,M,M,KIND 020650Z AUTO 00000KT 10SM CLR 04/02 A3011 RMK T00400020 MADISHF
IND,2020-04-02 06:54,39.00,35.10,85.76,0.00,0.00,0.00,30.11,1019.90,10.00,M,CLR,M,M,M,M,M,M,M,M,M,M,M,M,M,M,M,KIND 020654Z 00000KT 10SM CLR 04/02 A3011 RMK AO2 SLP199 T00390017
IND,2020-04-02 06:55,M,M,M,0.00,0.00,M,30.11,M,10.00,M,CLR,M,M,M,M,M,M,M,M,M,M,M,M,M,M,M,KIND 020655Z AUTO 00000KT 10SM CLR 04/02 A3011 RMK T00400020 MADISHF
IND,2020-04-02 07:00,M,M,M,0.00,0.00,M,30.11,M,10.00,M,CLR,M,M,M,M,M,M,M,M,M,M,M,M,M,M,M,KIND 020700Z AUTO 00000KT 10SM CLR 04/02 A3011 RMK T00400020 MADISHF
IND,2020-04-02 07:05,M,M,M,0.00,0.00,M,30.11,M,10.00,M,CLR,M,M,M,M,M,M,M,M,M,M,M,M,M,M,M,KIND 020705Z AUTO 00000KT 10SM CLR 04/02 A3011 RMK T00400020 MADISHF
IND,2020-04-02 07:10,M,M,M,0.00,0.00,M,30.11,M,10.00,M,CLR,M,M,M,M,M,M,M,M,M,M,M,M,M,M,M,KIND 020710Z AUTO 00000KT 10SM CLR 04/02 A3011 RMK T00400020 MADISHF
IND,2020-04-02 07:15,M,M,M,0.00,0.00,M,30.11,M,10.00,M,CLR,M,M,M,M,M,M,M,M,M,M,M,M,M,M,M,KIND 020715Z AUTO 00000KT 10SM CLR 04/02 A3011 RMK T00400020 MADISHF
IND,2020-04-02 07:20,M,M,M,0.00,0.00,M,30.11,M,10.00,M,CLR,M,M,M,M,M,M,M,M,M,M,M,M,M,M,M,KIND 020720Z AUTO 00000KT 10SM CLR 04/02 A3011 RMK T00400020 MADISHF
IND,2020-04-02 07:25,M,M,M,0.00,0.00,M,30.11,M,10.00,M,CLR,M,M,M,M,M,M,M,M,M,M,M,M,M,M,M,KIND 020725Z AUTO 00000KT 10SM CLR 04/02 A3011 RMK T00400020 MADISHF
IND,2020-04-02 07:30,M,M,M,340.00,2.00,M,30.11,M,10.00,M,CLR,M,M,M,M,M,M,M,M,M,M,M,M,M,M,M,KIND 020730Z AUTO 34002KT 10SM CLR 04/02 A3011 RMK T00400020 MADISHF
IND,2020-04-02 07:35,M,M,M,0.00,0.00,M,30.11,M,10.00,M,CLR,M,M,M,M,M,M,M,M,M,M,M,M,M,M,M,KIND 020735Z AUTO 00000KT 10SM CLR 04/02 A3011 RMK T00400020 MADISHF
IND,2020-04-02 07:40,M,M,M,350.00,2.00,M,30.11,M,10.00,M,CLR,M,M,M,M,M,M,M,M,M,M,M,M,M,M,M,KIND 020740Z AUTO 35002KT 10SM CLR 04/02 A3011 RMK T00400020 MADISHF
IND,2020-04-02 07:45,M,M,M,360.00,2.00,M,30.11,M,10.00,M,CLR,M,M,M,M,M,M,M,M,M,M,M,M,M,M,M,KIND 020745Z AUTO 36002KT 10SM CLR 04/02 A3011 RMK T00400020 MADISHF
IND,2020-04-02 07:50,M,M,M,10.00,2.00,M,30.11,M,10.00,M,CLR,M,M,M,M,M,M,M,M,M,M,M,M,M,M,M,KIND 020750Z AUTO 01002KT 10SM CLR 04/02 A3011 RMK T00400020 MADISHF
IND,2020-04-02 07:54,39.90,35.10,82.80,20.00,3.00,0.00,30.11,1020.00,10.00,M,CLR,M,M,M,M,M,M,M,M,M,M,M,M,M,M,37.72,KIND 020754Z 02003KT 10SM CLR 04/02 A3011 RMK AO2 SLP200 T00440017
IND,2020-04-02 07:55,M,M,M,20.00,2.00,M,30.11,M,10.00,M,CLR,M,M,M,M,M,M,M,M,M,M,M,M,M,M,M,KIND 020755Z AUTO 02002KT 10SM CLR 04/02 A3011 RMK T00400020 MADISHF
IND,2020-04-02 08:00,M,M,M,10.00,4.00,M,30.11,M,10.00,M,CLR,M,M,M,M,M,M,M,M,M,M,M,M,M,M,M,KIND 020800Z AUTO 01004KT 10SM CLR 04/02 A3011 RMK T00400020 MADISHF
IND,2020-04-02 08:05,M,M,M,20.00,2.00,M,30.11,M,10.00,M,CLR,M,M,M,M,M,M,M,M,M,M,M,M,M,M,M,KIND 020805Z AUTO 02002KT 10SM CLR 04/02 A3011 RMK T00400020 MADISHF
IND,2020-04-02 08:10,M,M,M,30.00,4.00,M,30.11,M,10.00,M,CLR,M,M,M,M,M,M,M,M,M,M,M,M,M,M,M,KIND 020810Z AUTO 03004KT 10SM CLR 04/02 A3011 RMK T00400020 MADISHF
IND,2020-04-02 08:15,M,M,M,30.00,4.00,M,30.11,M,10.00,M,CLR,M,M,M,M,M,M,M,M,M,M,M,M,M,M,M,KIND 020815Z AUTO 03004KT 10SM CLR 04/02 A3011 RMK T00400020 MADISHF
IND,2020-04-02 08:20,M,M,M,30.00,5.00,M,30.11,M,10.00,M,CLR,M,M,M,M,M,M,M,M,M,M,M,M,M,M,M,KIND 020820Z AUTO 03005KT 10SM CLR 04/02 A3011 RMK T00400020 MADISHF
IND,2020-04-02 08:25,M,M,M,30.00,5.00,M,30.11,M,10.00,M,CLR,M,M,M,M,M,M,M,M,M,M,M,M,M,M,M,KIND 020825Z AUTO 03005KT 10SM CLR 03/02 A3011 RMK T00300020 MADISHF
IND,2020-04-02 08:30,M,M,M,30.00,5.00,M,30.11,M,10.00,M,CLR,M,M,M,M,M,M,M,M,M,M,M,M,M,M,M,KIND 020830Z AUTO 03005KT 10SM CLR 03/01 A3011 RMK T00300010 MADISHF
IND,2020-04-02 08:35,M,M,M,30.00,7.00,M,30.11,M,10.00,M,CLR,M,M,M,M,M,M,M,M,M,M,M,M,M,M,M,KIND 020835Z AUTO 03007KT 10SM CLR 03/01 A3011 RMK T00300010 MADISHF
IND,2020-04-02 08:40,M,M,M,30.00,5.00,M,30.12,M,10.00,M,CLR,M,M,M,M,M,M,M,M,M,M,M,M,M,M,M,KIND 020840Z AUTO 03005KT 10SM CLR 03/01 A3012 RMK T00300010 MADISHF
IND,2020-04-02 08:45,M,M,M,30.00,5.00,M,30.12,M,10.00,M,CLR,M,M,M,M,M,M,M,M,M,M,M,M,M,M,M,KIND 020845Z AUTO 03005KT 10SM CLR 03/02 A3012 RMK T00300020 MADISHF
IND,2020-04-02 08:50,M,M,M,30.00,5.00,M,30.12,M,10.00,M,CLR,M,M,M,M,M,M,M,M,M,M,M,M,M,M,M,KIND 020850Z AUTO 03005KT 10SM CLR 03/02 A3012 RMK T00300020 MADISHF
IND,2020-04-02 08:54,37.90,35.10,89.53,40.00,5.00,0.00,30.12,1020.10,10.00,M,CLR,M,M,M,M,M,M,M,M,M,M,M,M,M,M,33.40,KIND 020854Z 04005KT 10SM CLR 03/02 A3012 RMK AO2 SLP201 T00330017 53002
IND,2020-04-02 08:55,M,M,M,40.00,5.00,M,30.12,M,10.00,M,CLR,M,M,M,M,M,M,M,M,M,M,M,M,M,M,M,KIND 020855Z AUTO 04005KT 10SM CLR 03/02 A3012 RMK T00300020 MADISHF
IND,2020-04-02 09:00,M,M,M,40.00,4.00,M,30.12,M,10.00,M,CLR,M,M,M,M,M,M,M,M,M,M,M,M,M,M,M,KIND 020900Z AUTO 04004KT 10SM CLR 04/02 A3012 RMK T00400020 MADISHF
IND,2020-04-02 09:05,M,M,M,40.00,4.00,M,30.12,M,10.00,M,CLR,M,M,M,M,M,M,M,M,M,M,M,M,M,M,M,KIND 020905Z AUTO 04004KT 10SM CLR 03/02 A3012 RMK T00300020 MADISHF
IND,2020-04-02 09:10,M,M,M,40.00,4.00,M,30.12,M,10.00,M,CLR,M,M,M,M,M,M,M,M,M,M,M,M,M,M,M,KIND 020910Z AUTO 04004KT 10SM CLR 03/02 A3012 RMK T00300020 MADISHF
IND,2020-04-02 09:15,M,M,M,50.00,5.00,M,30.12,M,10.00,M,CLR,M,M,M,M,M,M,M,M,M,M,M,M,M,M,M,KIND 020915Z AUTO 05005KT 10SM CLR 03/02 A3012 RMK T00300020 MADISHF
IND,2020-04-02 09:20,M,M,M,50.00,5.00,M,30.12,M,10.00,M,CLR,M,M,M,M,M,M,M,M,M,M,M,M,M,M,M,KIND 020920Z AUTO 05005KT 10SM CLR 03/02 A3012 RMK T00300020 MADISHF
IND,2020-04-02 09:25,M,M,M,50.00,5.00,M,30.12,M,10.00,M,CLR,M,M,M,M,M,M,M,M,M,M,M,M,M,M,M,KIND 020925Z AUTO 05005KT 10SM CLR 03/02 A3012 RMK T00300020 MADISHF
IND,2020-04-02 09:30,M,M,M,50.00,5.00,M,30.12,M,10.00,M,CLR,M,M,M,M,M,M,M,M,M,M,M,M,M,M,M,KIND 020930Z AUTO 05005KT 10SM CLR 03/02 A3012 RMK T00300020 MADISHF
IND,2020-04-02 09:35,M,M,M,40.00,4.00,M,30.12,M,10.00,M,CLR,M,M,M,M,M,M,M,M,M,M,M,M,M,M,M,KIND 020935Z AUTO 04004KT 10SM CLR 03/02 A3012 RMK T00300020 MADISHF
IND,2020-04-02 09:40,M,M,M,40.00,2.00,M,30.12,M,10.00,M,CLR,M,M,M,M,M,M,M,M,M,M,M,M,M,M,M,KIND 020940Z AUTO 04002KT 10SM CLR 03/02 A3012 RMK T00300020 MADISHF
IND,2020-04-02 09:45,M,M,M,30.00,4.00,M,30.12,M,10.00,M,CLR,M,M,M,M,M,M,M,M,M,M,M,M,M,M,M,KIND 020945Z AUTO 03004KT 10SM CLR 04/02 A3012 RMK T00400020 MADISHF
IND,2020-04-02 09:50,M,M,M,30.00,4.00,M,30.12,M,10.00,M,CLR,M,M,M,M,M,M,M,M,M,M,M,M,M,M,M,KIND 020950Z AUTO 03004KT 10SM CLR 03/02 A3012 RMK T00300020 MADISHF
IND,2020-04-02 09:54,37.00,35.10,92.76,30.00,4.00,0.00,30.13,1020.40,10.00,M,CLR,M,M,M,M,M,M,M,M,M,M,M,M,M,M,33.26,KIND 020954Z 03004KT 10SM CLR 03/02 A3013 RMK AO2 SLP204 T00280017
IND,2020-04-02 09:55,M,M,M,20.00,4.00,M,30.13,M,10.00,M,CLR,M,M,M,M,M,M,M,M,M,M,M,M,M,M,M,KIND 020955Z AUTO 02004KT 10SM CLR 03/02 A3012 RMK T00300020 MADISHF
IND,2020-04-02 10:00,M,M,M,20.00,4.00,M,30.13,M,10.00,M,CLR,M,M,M,M,M,M,M,M,M,M,M,M,M,M,M,KIND 021000Z AUTO 02004KT 10SM CLR 03/02 A3012 RMK T00300020 MADISHF
IND,2020-04-02 10:05,M,M,M,10.00,2.00,M,30.13,M,10.00,M,CLR,M,M,M,M,M,M,M,M,M,M,M,M,M,M,M,KIND 021005Z AUTO 01002KT 10SM CLR 03/01 A3012 RMK T00300010 MADISHF
IND,2020-04-02 10:10,M,M,M,10.00,2.00,M,30.13,M,10.00,M,CLR,M,M,M,M,M,M,M,M,M,M,M,M,M,M,M,KIND 021010Z AUTO 01002KT 10SM CLR 02/01 A3012 RMK T00200010 MADISHF
IND,2020-04-02 10:15,M,M,M,360.00,2.00,M,30.14,M,10.00,M,CLR,M,M,M,M,M,M,M,M,M,M,M,M,M,M,M,KIND 021015Z AUTO 36002KT 10SM CLR 02/01 A3013 RMK T00200010 MADISHF
IND,2020-04-02 10:20,M,M,M,0.00,0.00,M,30.14,M,10.00,M,CLR,M,M,M,M,M,M,M,M,M,M,M,M,M,M,M,KIND 021020Z AUTO 00000KT 10SM CLR 03/01 A3013 RMK T00300010 MADISHF
IND,2020-04-02 10:25,M,M,M,0.00,0.00,M,30.14,M,10.00,M,CLR,M,M,M,M,M,M,M,M,M,M,M,M,M,M,M,KIND 021025Z AUTO 00000KT 10SM CLR 03/02 A3013 RMK T00300020 MADISHF
IND,2020-04-02 10:30,M,M,M,10.00,2.00,M,30.14,M,10.00,M,CLR,M,M,M,M,M,M,M,M,M,M,M,M,M,M,M,KIND 021030Z AUTO 01002KT 10SM CLR 03/02 A3013 RMK T00300020 MADISHF
IND,2020-04-02 10:35,M,M,M,0.00,0.00,M,30.14,M,10.00,M,CLR,M,M,M,M,M,M,M,M,M,M,M,M,M,M,M,KIND 021035Z AUTO 00000KT 10SM CLR 03/01 A3013 RMK T00300010 MADISHF
IND,2020-04-02 10:40,M,M,M,0.00,0.00,M,30.14,M,10.00,M,CLR,M,M,M,M,M,M,M,M,M,M,M,M,M,M,M,KIND 021040Z AUTO 00000KT 10SM CLR 02/01 A3013 RMK T00200010 MADISHF
IND,2020-04-02 10:45,M,M,M,0.00,0.00,M,30.15,M,10.00,M,CLR,M,M,M,M,M,M,M,M,M,M,M,M,M,M,M,KIND 021045Z AUTO 00000KT 10SM CLR 02/01 A3014 RMK T00200010 MADISHF
IND,2020-04-02 10:50,M,M,M,10.00,2.00,M,30.15,M,10.00,M,CLR,M,M,M,M,M,M,M,M,M,M,M,M,M,M,M,KIND 021050Z AUTO 01002KT 10SM CLR 03/01 A3014 RMK T00300010 MADISHF
IND,2020-04-02 10:54,37.00,35.10,92.76,20.00,3.00,0.00,30.15,1021.20,10.00,M,CLR,M,M,M,M,M,M,M,M,M,M,M,M,M,M,34.40,KIND 021054Z 02003KT 10SM CLR 03/02 A3015 RMK AO2 SLP212 T00280017
IND,2020-04-02 10:55,M,M,M,20.00,2.00,M,30.15,M,10.00,M,CLR,M,M,M,M,M,M,M,M,M,M,M,M,M,M,M,KIND 021055Z AUTO 02002KT 10SM CLR 03/02 A3014 RMK T00300020 MADISHF
IND,2020-04-02 11:00,M,M,M,30.00,2.00,M,30.15,M,10.00,M,CLR,M,M,M,M,M,M,M,M,M,M,M,M,M,M,M,KIND 021100Z AUTO 03002KT 10SM CLR 03/02 A3014 RMK T00300020 MADISHF
IND,2020-04-02 11:05,M,M,M,0.00,0.00,M,30.15,M,10.00,M,CLR,M,M,M,M,M,M,M,M,M,M,M,M,M,M,M,KIND 021105Z AUTO 00000KT 10SM CLR 02/01 A3014 RMK T00200010 MADISHF
IND,2020-04-02 11:10,M,M,M,0.00,0.00,M,30.15,M,10.00,M,CLR,M,M,M,M,M,M,M,M,M,M,M,M,M,M,M,KIND 021110Z AUTO 00000KT 10SM CLR 02/01 A3014 RMK T00200010 MADISHF
IND,2020-04-02 11:15,M,M,M,0.00,0.00,M,30.15,M,10.00,M,CLR,M,M,M,M,M,M,M,M,M,M,M,M,M,M,M,KIND 021115Z AUTO 00000KT 10SM CLR 02/01 A3014 RMK T00200010 MADISHF
IND,2020-04-02 11:20,M,M,M,0.00,0.00,M,30.16,M,10.00,M,CLR,M,M,M,M,M,M,M,M,M,M,M,M,M,M,M,KIND 021120Z AUTO 00000KT 10SM CLR 02/01 A3015 RMK T00200010 MADISHF
IND,2020-04-02 11:25,M,M,M,0.00,0.00,M,30.16,M,10.00,M,CLR,M,M,M,M,M,M,M,M,M,M,M,M,M,M,M,KIND 021125Z AUTO 00000KT 10SM CLR 02/02 A3015 RMK T00200020 MADISHF
IND,2020-04-02 11:30,M,M,M,0.00,0.00,M,30.16,M,10.00,M,CLR,M,M,M,M,M,M,M,M,M,M,M,M,M,M,M,KIND 021130Z AUTO 00000KT 10SM CLR 02/01 A3015 RMK T00200010 MADISHF
IND,2020-04-02 11:35,M,M,M,0.00,0.00,M,30.16,M,10.00,M,CLR,M,M,M,M,M,M,M,M,M,M,M,M,M,M,M,KIND 021135Z AUTO 00000KT 10SM CLR 02/01 A3015 RMK T00200010 MADISHF
IND,2020-04-02 11:40,M,M,M,0.00,0.00,M,30.17,M,10.00,M,CLR,M,M,M,M,M,M,M,M,M,M,M,M,M,M,M,KIND 021140Z AUTO 00000KT 10SM CLR 02/01 A3017 RMK T00200010 MADISHF
IND,2020-04-02 11:45,M,M,M,0.00,0.00,M,30.17,M,10.00,M,CLR,M,M,M,M,M,M,M,M,M,M,M,M,M,M,M,KIND 021145Z AUTO 00000KT 10SM CLR 02/01 A3017 RMK T00200010 MADISHF
IND,2020-04-02 11:50,M,M,M,0.00,0.00,M,30.17,M,9.00,M,CLR,M,M,M,M,M,M,M,M,M,M,M,M,M,M,M,KIND 021150Z AUTO 00000KT 9SM CLR 02/01 A3017 RMK T00200010 MADISHF
IND,2020-04-02 11:54,36.00,34.00,92.35,0.00,0.00,0.00,30.17,1022.00,9.00,M,FEW,M,M,M,25000.00,M,M,M,M,M,M,M,M,M,M,M,KIND 021154Z 00000KT 9SM FEW250 02/01 A3017 RMK AO2 SLP220 T00220011 10050 20017 53018
IND,2020-04-02 11:55,M,M,M,0.00,0.00,M,30.17,M,9.00,M,M,M,M,M,M,M,M,M,M,M,M,M,M,M,M,M,KIND 021155Z AUTO 00000KT 9SM 02/01 A3017 RMK T00200010 MADISHF
IND,2020-04-02 12:00,M,M,M,0.00,0.00,M,30.17,M,10.00,M,M,M,M,M,M,M,M,M,M,M,M,M,M,M,M,M,KIND 021200Z AUTO 00000KT 10SM 02/01 A3017 RMK T00200010 MADISHF
IND,2020-04-02 12:05,M,M,M,0.00,0.00,M,30.18,M,10.00,M,M,M,M,M,M,M,M,M,M,M,M,M,M,M,M,M,KIND 021205Z AUTO 00000KT 10SM 03/01 A3018 RMK T00300010 MADISHF
IND,2020-04-02 12:10,M,M,M,0.00,0.00,M,30.18,M,10.00,M,M,M,M,M,M,M,M,M,M,M,M,M,M,M,M,M,KIND 021210Z AUTO 00000KT 10SM 03/01 A3018 RMK T00300010 MADISHF
IND,2020-04-02 12:15,M,M,M,0.00,0.00,M,30.18,M,10.00,M,M,M,M,M,M,M,M,M,M,M,M,M,M,M,M,M,KIND 021215Z AUTO 00000KT 10SM 03/02 A3018 RMK T00300020 MADISHF
IND,2020-04-02 12:20,M,M,M,0.00,0.00,M,30.18,M,10.00,M,M,M,M,M,M,M,M,M,M,M,M,M,M,M,M,M,KIND 021220Z AUTO 00000KT 10SM 03/02 A3018 RMK T00300020 MADISHF
IND,2020-04-02 12:25,M,M,M,0.00,0.00,M,30.18,M,10.00,M,M,M,M,M,M,M,M,M,M,M,M,M,M,M,M,M,KIND 021225Z AUTO 00000KT 10SM 04/02 A3018 RMK T00400020 MADISHF
IND,2020-04-02 12:30,M,M,M,0.00,0.00,M,30.18,M,10.00,M,M,M,M,M,M,M,M,M,M,M,M,M,M,M,M,M,KIND 021230Z AUTO 00000KT 10SM 04/03 A3018 RMK T00400030 MADISHF
IND,2020-04-02 12:35,M,M,M,0.00,0.00,M,30.19,M,10.00,M,M,M,M,M,M,M,M,M,M,M,M,M,M,M,M,M,KIND 021235Z AUTO 00000KT 10SM 04/03 A3019 RMK T00400030 MADISHF
IND,2020-04-02 12:40,M,M,M,0.00,0.00,M,30.19,M,10.00,M,M,M,M,M,M,M,M,M,M,M,M,M,M,M,M,M,KIND 021240Z AUTO 00000KT 10SM 05/03 A3019 RMK T00500030 MADISHF
IND,2020-04-02 12:45,M,M,M,0.00,0.00,M,30.19,M,10.00,M,M,M,M,M,M,M,M,M,M,M,M,M,M,M,M,M,KIND 021245Z AUTO 00000KT 10SM 06/03 A3019 RMK T00600030 MADISHF
IND,2020-04-02 12:50,M,M,M,0.00,0.00,M,30.19,M,10.00,M,M,M,M,M,M,M,M,M,M,M,M,M,M,M,M,M,KIND 021250Z AUTO 00000KT 10SM 06/03 A3019 RMK T00600030 MADISHF
IND,2020-04-02 12:54,42.10,39.00,88.67,0.00,0.00,0.00,30.19,1022.60,10.00,M,FEW,M,M,M,25000.00,M,M,M,M,M,M,M,M,M,M,M,KIND 021254Z 00000KT 10SM FEW250 06/04 A3019 RMK AO2 SLP226 T00560039
IND,2020-04-02 12:55,M,M,M,0.00,0.00,M,30.19,M,10.00,M,M,M,M,M,M,M,M,M,M,M,M,M,M,M,M,M,KIND 021255Z AUTO 00000KT 10SM 06/04 A3019 RMK T00600040 MADISHF
IND,2020-04-02 13:00,M,M,M,40.00,2.00,M,30.19,M,10.00,M,M,M,M,M,M,M,M,M,M,M,M,M,M,M,M,M,KIND 021300Z AUTO 04002KT 10SM 06/04 A3019 RMK T00600040 MADISHF
IND,2020-04-02 13:05,M,M,M,0.00,0.00,M,30.19,M,10.00,M,M,M,M,M,M,M,M,M,M,M,M,M,M,M,M,M,KIND 021305Z AUTO 00000KT 10SM 07/04 A3019 RMK T00700040 MADISHF
IND,2020-04-02 13:10,M,M,M,0.00,0.00,M,30.19,M,10.00,M,M,M,M,M,M,M,M,M,M,M,M,M,M,M,M,M,KIND 021310Z AUTO 00000KT 10SM 07/04 A3019 RMK T00700040 MADISHF
IND,2020-04-02 13:15,M,M,M,0.00,0.00,M,30.20,M,10.00,M,M,M,M,M,M,M,M,M,M,M,M,M,M,M,M,M,KIND 021315Z AUTO 00000KT 10SM 07/04 A3020 RMK T00700040 MADISHF
IND,2020-04-02 13:20,M,M,M,70.00,2.00,M,30.20,M,10.00,M,M,M,M,M,M,M,M,M,M,M,M,M,M,M,M,M,KIND 021320Z AUTO 07002KT 10SM 07/04 A3020 RMK T00700040 MADISHF
IND,2020-04-02 13:25,M,M,M,80.00,4.00,M,30.20,M,10.00,30.00,M,M,M,M,M,M,M,M,M,M,M,M,M,M,M,M,KIND 021325Z AUTO 08004G30KT 10SM 07/04 A3020 RMK T00700040 MADISHF
IND,2020-04-02 13:30,M,M,M,80.00,4.00,M,30.20,M,10.00,30.00,M,M,M,M,M,M,M,M,M,M,M,M,M,M,M,M,KIND 021330Z AUTO 08004G30KT 10SM 07/04 A3020 RMK T00700040 MADISHF
IND,2020-04-02 13:35,M,M,M,80.00,4.00,M,30.20,M,10.00,30.00,M,M,M,M,M,M,M,M,M,M,M,M,M,M,M,M,KIND 021335Z AUTO 08004G30KT 10SM 08/04 A3020 RMK T00800040 MADISHF
IND,2020-04-02 13:40,M,M,M,80.00,4.00,M,30.20,M,10.00,30.00,M,M,M,M,M,M,M,M,M,M,M,M,M,M,M,M,KIND 021340Z AUTO 08004G30KT 10SM 08/04 A3020 RMK T00800040 MADISHF
IND,2020-04-02 13:45,M,M,M,80.00,4.00,M,30.20,M,10.00,30.00,M,M,M,M,M,M,M,M,M,M,M,M,M,M,M,M,KIND 021345Z AUTO 08004G30KT 10SM 08/04 A3020 RMK T00800040 MADISHF
IND,2020-04-02 13:50,M,M,M,80.00,2.00,M,30.20,M,10.00,M,M,M,M,M,M,M,M,M,M,M,M,M,M,M,M,M,KIND 021350Z AUTO 08002KT 10SM 08/04 A3020 RMK T00800040 MADISHF
IND,2020-04-02 13:54,46.90,39.00,73.85,90.00,3.00,0.00,30.20,1022.90,9.00,M,SCT,M,M,M,25000.00,M,M,M,M,M,M,M,M,M,M,45.72,KIND 021354Z 09003KT 9SM SCT250 08/04 A3020 RMK AO2 SLP229 T00830039
IND,2020-04-02 13:55,M,M,M,100.00,2.00,M,30.20,M,9.00,M,M,M,M,M,M,M,M,M,M,M,M,M,M,M,M,M,KIND 021355Z AUTO 10002KT 9SM 08/04 A3020 RMK T00800040 MADISHF
IND,2020-04-02 14:00,M,M,M,100.00,2.00,M,30.20,M,9.00,M,M,M,M,M,M,M,M,M,M,M,M,M,M,M,M,M,KIND 021400Z AUTO 10002KT 9SM 08/04 A3020 RMK T00800040 MADISHF
IND,2020-04-02 14:05,M,M,M,80.00,2.00,M,30.20,M,9.00,M,M,M,M,M,M,M,M,M,M,M,M,M,M,M,M,M,KIND 021405Z AUTO 08002KT 9SM 09/04 A3020 RMK T00900040 MADISHF
IND,2020-04-02 14:10,M,M,M,80.00,2.00,M,30.20,M,9.00,M,M,M,M,M,M,M,M,M,M,M,M,M,M,M,M,M,KIND 021410Z AUTO 08002KT 9SM 09/04 A3020 RMK T00900040 MADISHF
IND,2020-04-02 14:15,M,M,M,120.00,2.00,M,30.20,M,9.00,M,M,M,M,M,M,M,M,M,M,M,M,M,M,M,M,M,KIND 021415Z AUTO 12002KT 9SM 09/04 A3020 RMK T00900040 MADISHF
IND,2020-04-02 14:20,M,M,M,M,M,M,30.20,M,9.00,M,M,M,M,M,M,M,M,M,M,M,M,M,M,M,M,M,KIND 021420Z AUTO /////KT 9SM 09/04 A3020 RMK T00900040 MADISHF
IND,2020-04-02 14:25,M,M,M,140.00,2.00,M,30.20,M,9.00,30.00,M,M,M,M,M,M,M,M,M,M,M,M,M,M,M,M,KIND 021425Z AUTO 14002G30KT 9SM 09/04 A3020 RMK T00900040 MADISHF
IND,2020-04-02 14:30,M,M,M,140.00,2.00,M,30.20,M,9.00,30.00,M,M,M,M,M,M,M,M,M,M,M,M,M,M,M,M,KIND 021430Z AUTO 14002G30KT 9SM 09/04 A3020 RMK T00900040 MADISHF
IND,2020-04-02 14:35,M,M,M,140.00,2.00,M,30.20,M,9.00,30.00,M,M,M,M,M,M,M,M,M,M,M,M,M,M,M,M,KIND 021435Z AUTO 14002G30KT 9SM 10/04 A3020 RMK T01000040 MADISHF
IND,2020-04-02 14:40,M,M,M,140.00,2.00,M,30.20,M,9.00,30.00,M,M,M,M,M,M,M,M,M,M,M,M,M,M,M,M,KIND 021440Z AUTO 14002G30KT 9SM 10/04 A3020 RMK T01000040 MADISHF
IND,2020-04-02 14:45,M,M,M,140.00,2.00,M,30.20,M,9.00,30.00,M,M,M,M,M,M,M,M,M,M,M,M,M,M,M,M,KIND 021445Z AUTO 14002G30KT 9SM 11/04 A3020 RMK T01100040 MADISHF
IND,2020-04-02 14:50,M,M,M,140.00,2.00,M,30.20,M,9.00,30.00,M,M,M,M,M,M,M,M,M,M,M,M,M,M,M,M,KIND 021450Z AUTO 14002G30KT 9SM 11/04 A3020 RMK T01100040 MADISHF
IND,2020-04-02 14:54,51.10,39.90,65.38,140.00,3.00,0.00,30.20,1022.90,9.00,M,SCT,M,M,M,25000.00,M,M,M,M,M,M,M,M,M,M,M,KIND 021454Z 14003KT 9SM SCT250 11/04 A3020 RMK AO2 SLP229 T01060044 51010
IND,2020-04-02 14:55,M,M,M,10.00,2.00,M,30.20,M,10.00,M,M,M,M,M,M,M,M,M,M,M,M,M,M,M,M,M,KIND 021455Z AUTO 01002KT 10SM 11/05 A3020 RMK T01100050 MADISHF
IND,2020-04-02 15:00,M,M,M,0.00,0.00,M,30.20,M,9.00,M,M,M,M,M,M,M,M,M,M,M,M,M,M,M,M,M,KIND 021500Z AUTO 00000KT 9SM 11/04 A3020 RMK T01100040 MADISHF
IND,2020-04-02 15:05,M,M,M,0.00,0.00,M,30.20,M,9.00,M,M,M,M,M,M,M,M,M,M,M,M,M,M,M,M,M,KIND 021505Z AUTO 00000KT 9SM 11/04 A3020 RMK T01100040 MADISHF
IND,2020-04-02 15:10,M,M,M,60.00,2.00,M,30.20,M,9.00,M,M,M,M,M,M,M,M,M,M,M,M,M,M,M,M,M,KIND 021510Z AUTO 06002KT 9SM 11/05 A3020 RMK T01100050 VRB03KT  MADISHF
IND,2020-04-02 15:15,M,M,M,0.00,0.00,M,30.20,M,9.00,M,M,M,M,M,M,M,M,M,M,M,M,M,M,M,M,M,KIND 021515Z AUTO 00000KT 9SM 11/04 A3020 RMK T01100040 MADISHF
IND,2020-04-02 15:20,M,M,M,0.00,0.00,M,30.20,M,9.00,M,M,M,M,M,M,M,M,M,M,M,M,M,M,M,M,M,KIND 021520Z AUTO 00000KT 9SM 11/04 A3020 RMK T01100040 MADISHF
IND,2020-04-02 15:25,M,M,M,0.00,0.00,M,30.20,M,9.00,M,M,M,M,M,M,M,M,M,M,M,M,M,M,M,M,M,KIND 021525Z AUTO 00000KT 9SM 11/04 A3020 RMK T01100040 MADISHF
IND,2020-04-02 15:30,M,M,M,0.00,0.00,M,30.20,M,9.00,M,M,M,M,M,M,M,M,M,M,M,M,M,M,M,M,M,KIND 021530Z AUTO 00000KT 9SM 11/04 A3020 RMK T01100040 MADISHF
IND,2020-04-02 15:35,M,M,M,0.00,0.00,M,30.20,M,9.00,M,M,M,M,M,M,M,M,M,M,M,M,M,M,M,M,M,KIND 021535Z AUTO 00000KT 9SM 12/04 A3020 RMK T01200040 MADISHF
IND,2020-04-02 15:40,M,M,M,20.00,2.00,M,30.20,M,9.00,M,M,M,M,M,M,M,M,M,M,M,M,M,M,M,M,M,KIND 021540Z AUTO 02002KT 9SM 12/04 A3020 RMK T01200040 VRB03KT  MADISHF
IND,2020-04-02 15:45,M,M,M,0.00,0.00,M,30.20,M,9.00,M,M,M,M,M,M,M,M,M,M,M,M,M,M,M,M,M,KIND 021545Z AUTO 00000KT 9SM 12/04 A3020 RMK T01200040 MADISHF
IND,2020-04-02 15:50,M,M,M,0.00,0.00,M,30.20,M,9.00,M,FEW,M,M,M,2800.00,M,M,M,M,M,M,M,M,M,M,M,KIND 021550Z AUTO 00000KT 9SM FEW028 12/04 A3020 RMK T01200040 MADISHF
IND,2020-04-02 15:54,54.00,39.00,56.74,M,3.00,0.00,30.20,1022.70,10.00,M,FEW,SCT,M,M,3300.00,25000.00,M,M,M,M,M,M,M,M,M,M,KIND 021554Z VRB03KT 10SM FEW033 SCT250 12/04 A3020 RMK AO2 SLP227 T01220039
IND,2020-04-02 15:55,M,M,M,0.00,0.00,M,30.20,M,10.00,M,FEW,M,M,M,3300.00,M,M,M,M,M,M,M,M,M,M,M,KIND 021555Z AUTO 00000KT 10SM FEW033 12/04 A3020 RMK T01200040 MADISHF
IND,2020-04-02 16:00,M,M,M,350.00,2.00,M,30.20,M,10.00,M,FEW,M,M,M,3300.00,M,M,M,M,M,M,M,M,M,M,M,KIND 021600Z AUTO 35002KT 10SM FEW033 12/04 A3020 RMK T01200040 MADISHF
IND,2020-04-02 16:05,M,M,M,360.00,2.00,M,30.19,M,10.00,M,FEW,M,M,M,3300.00,M,M,M,M,M,M,M,M,M,M,M,KIND 021605Z AUTO 36002KT 10SM FEW033 12/04 A3019 RMK T01200040 VRB03KT  MADISHF
IND,2020-04-02 16:10,M,M,M,0.00,0.00,M,30.19,M,10.00,M,FEW,M,M,M,3300.00,M,M,M,M,M,M,M,M,M,M,M,KIND 021610Z AUTO 00000KT 10SM FEW033 12/03 A3019 RMK T01200030 MADISHF
IND,2020-04-02 16:15,M,M,M,80.00,2.00,M,30.19,M,10.00,M,FEW,M,M,M,3300.00,M,M,M,M,M,M,M,M,M,M,M,KIND 021615Z AUTO 08002KT 10SM FEW033 12/02 A3019 RMK T01200020 VRB03KT  MADISHF
IND,2020-04-02 16:20,M,M,M,100.00,2.00,M,30.19,M,10.00,M,FEW,M,M,M,3300.00,M,M,M,M,M,M,M,M,M,M,M,KIND 021620Z AUTO 10002KT 10SM FEW033 12/02 A3019 RMK T01200020 VRB03KT  MADISHF
IND,2020-04-02 16:25,M,M,M,10.00,2.00,M,30.19,M,10.00,M,FEW,M,M,M,3300.00,M,M,M,M,M,M,M,M,M,M,M,KIND 021625Z AUTO 01002KT 10SM FEW033 12/02 A3019 RMK T01200020 VRB03KT  MADISHF
IND,2020-04-02 16:30,M,M,M,10.00,4.00,M,30.18,M,10.00,M,FEW,M,M,M,3300.00,M,M,M,M,M,M,M,M,M,M,M,KIND 021630Z AUTO 01004KT 10SM FEW033 12/02 A3018 RMK T01200020 VRB04KT  MADISHF
IND,2020-04-02 16:35,M,M,M,0.00,0.00,M,30.18,M,10.00,M,FEW,M,M,M,3300.00,M,M,M,M,M,M,M,M,M,M,M,KIND 021635Z AUTO 00000KT 10SM FEW033 13/02 A3018 RMK T01300020 MADISHF
IND,2020-04-02 16:40,M,M,M,360.00,2.00,M,30.18,M,10.00,M,FEW,M,M,M,3300.00,M,M,M,M,M,M,M,M,M,M,M,KIND 021640Z AUTO 36002KT 10SM FEW033 13/03 A3018 RMK T01300030 VRB03KT  MADISHF
IND,2020-04-02 16:45,M,M,M,330.00,7.00,M,30.18,M,10.00,M,FEW,M,M,M,3300.00,M,M,M,M,M,M,M,M,M,M,M,KIND 021645Z AUTO 33007KT 10SM FEW033 13/02 A3018 RMK T01300020 MADISHF
IND,2020-04-02 16:50,M,M,M,70.00,5.00,M,30.18,M,10.00,M,FEW,M,M,M,3300.00,M,M,M,M,M,M,M,M,M,M,M,KIND 021650Z AUTO 07005KT 10SM FEW033 13/02 A3018 RMK T01300020 VRB05KT  MADISHF
IND,2020-04-02 16:54,55.90,36.00,47.05,M,3.00,0.00,30.18,1022.00,10.00,M,FEW,SCT,M,M,4400.00,25000.00,M,M,M,M,M,M,M,M,M,M,KIND 021654Z VRB03KT 10SM FEW044 SCT250 13/02 A3018 RMK AO2 SLP220 T01330022
IND,2020-04-02 16:55,M,M,M,80.00,2.00,M,30.18,M,10.00,M,FEW,M,M,M,4400.00,M,M,M,M,M,M,M,M,M,M,M,KIND 021655Z AUTO 08002KT 10SM FEW044 13/02 A3018 RMK T01300020 VRB03KT  MADISHF
IND,2020-04-02 17:00,M,M,M,70.00,2.00,M,30.17,M,10.00,M,FEW,M,M,M,4400.00,M,M,M,M,M,M,M,M,M,M,M,KIND 021700Z AUTO 07002KT 10SM FEW044 13/02 A3017 RMK T01300020 VRB03KT  MADISHF
IND,2020-04-02 17:05,M,M,M,10.00,5.00,M,30.17,M,10.00,M,FEW,M,M,M,4400.00,M,M,M,M,M,M,M,M,M,M,M,KIND 021705Z AUTO 01005KT 10SM FEW044 13/02 A3017 RMK T01300020 MADISHF
IND,2020-04-02 17:10,M,M,M,40.00,5.00,M,30.17,M,10.00,M,FEW,M,M,M,4400.00,M,M,M,M,M,M,M,M,M,M,M,KIND 021710Z AUTO 04005KT 10SM FEW044 14/01 A3017 RMK T01400010 MADISHF
IND,2020-04-02 17:15,M,M,M,70.00,2.00,M,30.17,M,10.00,M,FEW,M,M,M,4400.00,M,M,M,M,M,M,M,M,M,M,M,KIND 021715Z AUTO 07002KT 10SM FEW044 13/01 A3017 RMK T01300010 VRB03KT  MADISHF
IND,2020-04-02 17:20,M,M,M,0.00,0.00,M,30.17,M,10.00,M,FEW,M,M,M,4400.00,M,M,M,M,M,M,M,M,M,M,M,KIND 021720Z AUTO 00000KT 10SM FEW044 13/01 A3017 RMK T01300010 MADISHF
IND,2020-04-02 17:25,M,M,M,40.00,5.00,M,30.17,M,10.00,M,FEW,M,M,M,4400.00,M,M,M,M,M,M,M,M,M,M,M,KIND 021725Z AUTO 04005KT 10SM FEW044 14/02 A3017 RMK T01400020 MADISHF
IND,2020-04-02 17:30,M,M,M,320.00,2.00,M,30.16,M,10.00,M,FEW,M,M,M,4400.00,M,M,M,M,M,M,M,M,M,M,M,KIND 021730Z AUTO 32002KT 10SM FEW044 13/02 A3015 RMK T01300020 VRB03KT  MADISHF
IND,2020-04-02 17:35,M,M,M,60.00,5.00,M,30.16,M,10.00,M,FEW,M,M,M,4400.00,M,M,M,M,M,M,M,M,M,M,M,KIND 021735Z AUTO 06005KT 10SM FEW044 14/02 A3015 RMK T01400020 MADISHF
IND,2020-04-02 17:40,M,M,M,40.00,2.00,M,30.16,M,10.00,M,FEW,M,M,M,4400.00,M,M,M,M,M,M,M,M,M,M,M,KIND 021740Z AUTO 04002KT 10SM FEW044 14/02 A3015 RMK T01400020 VRB03KT  MADISHF
IND,2020-04-02 17:45,M,M,M,30.00,4.00,M,30.16,M,10.00,M,FEW,M,M,M,4400.00,M,M,M,M,M,M,M,M,M,M,M,KIND 021745Z AUTO 03004KT 10SM FEW044 14/02 A3015 RMK T01400020 MADISHF
IND,2020-04-02 17:50,M,M,M,20.00,2.00,M,30.16,M,10.00,M,FEW,M,M,M,4400.00,M,M,M,M,M,M,M,M,M,M,M,KIND 021750Z AUTO 02002KT 10SM FEW044 14/02 A3015 RMK T01400020 VRB03KT  MADISHF
IND,2020-04-02 17:54,57.00,35.10,43.63,80.00,4.00,0.00,30.15,1021.20,10.00,M,FEW,SCT,M,M,4800.00,25000.00,M,M,M,M,M,M,M,M,M,M,KIND 021754Z 08004KT 10SM FEW048 SCT250 14/02 A3015 RMK AO2 SLP212 T01390017 10144 20022 58016
IND,2020-04-02 17:55,M,M,M,80.00,5.00,M,30.15,M,10.00,M,CLR,M,M,M,M,M,M,M,M,M,M,M,M,M,M,M,KIND 021755Z AUTO 08005KT 10SM CLR 14/02 A3014 RMK T01400020 MADISHF
IND,2020-04-02 18:00,M,M,M,60.00,4.00,M,30.15,M,10.00,M,CLR,M,M,M,M,M,M,M,M,M,M,M,M,M,M,M,KIND 021800Z AUTO 06004KT 10SM CLR 14/02 A3014 RMK T01400020 VRB04KT  MADISHF
IND,2020-04-02 18:05,M,M,M,0.00,0.00,M,30.15,M,10.00,M,CLR,M,M,M,M,M,M,M,M,M,M,M,M,M,M,M,KIND 021805Z AUTO 00000KT 10SM CLR 13/02 A3014 RMK T01300020 MADISHF
IND,2020-04-02 18:10,M,M,M,320.00,2.00,M,30.15,M,10.00,M,CLR,M,M,M,M,M,M,M,M,M,M,M,M,M,M,M,KIND 021810Z AUTO 32002KT 10SM CLR 14/02 A3014 RMK T01400020 MADISHF
IND,2020-04-02 18:15,M,M,M,0.00,0.00,M,30.14,M,10.00,M,CLR,M,M,M,M,M,M,M,M,M,M,M,M,M,M,M,KIND 021815Z AUTO 00000KT 10SM CLR 14/02 A3013 RMK T01400020 MADISHF
IND,2020-04-02 18:20,M,M,M,0.00,0.00,M,30.14,M,10.00,M,CLR,M,M,M,M,M,M,M,M,M,M,M,M,M,M,M,KIND 021820Z AUTO 00000KT 10SM CLR 14/02 A3013 RMK T01400020 MADISHF
IND,2020-04-02 18:25,M,M,M,0.00,0.00,M,30.14,M,10.00,M,FEW,M,M,M,4800.00,M,M,M,M,M,M,M,M,M,M,M,KIND 021825Z AUTO 00000KT 10SM FEW048 14/02 A3013 RMK T01400020 MADISHF
IND,2020-04-02 18:30,M,M,M,60.00,5.00,M,30.14,M,10.00,30.00,FEW,M,M,M,4800.00,M,M,M,M,M,M,M,M,M,M,M,KIND 021830Z AUTO 06005G30KT 10SM FEW048 14/02 A3013 RMK T01400020 MADISHF
IND,2020-04-02 18:35,M,M,M,60.00,5.00,M,30.14,M,10.00,30.00,FEW,M,M,M,4800.00,M,M,M,M,M,M,M,M,M,M,M,KIND 021835Z AUTO 06005G30KT 10SM FEW048 15/02 A3013 RMK T01500020 VRB03KT  MADISHF
IND,2020-04-02 18:40,M,M,M,60.00,5.00,M,30.14,M,10.00,30.00,FEW,M,M,M,4800.00,M,M,M,M,M,M,M,M,M,M,M,KIND 021840Z AUTO 06005G30KT 10SM FEW048 16/03 A3013 RMK T01600030 MADISHF
IND,2020-04-02 18:45,M,M,M,60.00,5.00,M,30.13,M,10.00,30.00,FEW,M,M,M,4800.00,M,M,M,M,M,M,M,M,M,M,M,KIND 021845Z AUTO 06005G30KT 10SM FEW048 15/02 A3012 RMK T01500020 MADISHF
IND,2020-04-02 18:50,M,M,M,0.00,0.00,M,30.13,M,10.00,M,FEW,M,M,M,4800.00,M,M,M,M,M,M,M,M,M,M,M,KIND 021850Z AUTO 00000KT 10SM FEW048 15/02 A3012 RMK T01500020 MADISHF
IND,2020-04-02 18:54,59.00,34.00,38.87,80.00,3.00,0.00,30.13,1020.50,10.00,M,SCT,M,M,M,25000.00,M,M,M,M,M,M,M,M,M,M,M,KIND 021854Z 08003KT 10SM SCT250 15/01 A3013 RMK AO2 SLP205 T01500011
IND,2020-04-02 18:55,M,M,M,M,M,M,30.13,M,10.00,M,CLR,M,M,M,M,M,M,M,M,M,M,M,M,M,M,M,KIND 021855Z AUTO /////KT 10SM CLR 14/01 A3012 RMK T01400010 MADISHF
IND,2020-04-02 19:00,M,M,M,90.00,2.00,M,30.13,M,10.00,30.00,M,M,M,M,M,M,M,M,M,M,M,M,M,M,M,M,KIND 021900Z AUTO 09002G30KT 10SM 14/02 A3012 RMK T01400020 MADISHF
IND,2020-04-02 19:05,M,M,M,0.00,0.00,M,30.13,M,10.00,M,M,M,M,M,M,M,M,M,M,M,M,M,M,M,M,M,KIND 021905Z AUTO 00000KT 10SM 14/02 A3012 RMK T01400020 MADISHF
IND,2020-04-02 19:10,M,M,M,40.00,4.00,M,30.13,M,10.00,30.00,M,M,M,M,M,M,M,M,M,M,M,M,M,M,M,M,KIND 021910Z AUTO 04004G30KT 10SM 14/02 A3012 RMK T01400020 MADISHF
IND,2020-04-02 19:15,M,M,M,40.00,4.00,M,30.12,M,10.00,30.00,M,M,M,M,M,M,M,M,M,M,M,M,M,M,M,M,KIND 021915Z AUTO 04004G30KT 10SM 15/02 A3012 RMK T01500020 MADISHF
IND,2020-04-02 19:20,M,M,M,40.00,4.00,M,30.12,M,10.00,30.00,M,M,M,M,M,M,M,M,M,M,M,M,M,M,M,M,KIND 021920Z AUTO 04004G30KT 10SM 15/02 A3012 RMK T01500020 MADISHF
IND,2020-04-02 19:25,M,M,M,40.00,4.00,M,30.12,M,10.00,30.00,M,M,M,M,M,M,M,M,M,M,M,M,M,M,M,M,KIND 021925Z AUTO 04004G30KT 10SM 15/02 A3012 RMK T01500020 MADISHF
IND,2020-04-02 19:30,M,M,M,40.00,4.00,M,30.12,M,10.00,30.00,M,M,M,M,M,M,M,M,M,M,M,M,M,M,M,M,KIND 021930Z AUTO 04004G30KT 10SM 15/02 A3012 RMK T01500020 MADISHF
IND,2020-04-02 19:35,M,M,M,40.00,4.00,M,30.11,M,10.00,30.00,M,M,M,M,M,M,M,M,M,M,M,M,M,M,M,M,KIND 021935Z AUTO 04004G30KT 10SM 15/02 A3011 RMK T01500020 VRB03KT  MADISHF
IND,2020-04-02 19:40,M,M,M,0.00,0.00,M,30.11,M,10.00,M,M,M,M,M,M,M,M,M,M,M,M,M,M,M,M,M,KIND 021940Z AUTO 00000KT 10SM 16/02 A3011 RMK T01600020 MADISHF
IND,2020-04-02 19:45,M,M,M,230.00,2.00,M,30.11,M,10.00,M,M,M,M,M,M,M,M,M,M,M,M,M,M,M,M,M,KIND 021945Z AUTO 23002KT 10SM 15/02 A3011 RMK T01500020 VRB03KT  MADISHF
IND,2020-04-02 19:50,M,M,M,0.00,0.00,M,30.11,M,10.00,M,M,M,M,M,M,M,M,M,M,M,M,M,M,M,M,M,KIND 021950Z AUTO 00000KT 10SM 15/01 A3011 RMK T01500010 MADISHF
IND,2020-04-02 19:54,60.10,35.10,39.04,0.00,0.00,0.00,30.10,1019.60,10.00,M,SCT,M,M,M,25000.00,M,M,M,M,M,M,M,M,M,M,M,KIND 021954Z 00000KT 10SM SCT250 16/02 A3010 RMK AO2 SLP196 T01560017
IND,2020-04-02 19:55,M,M,M,0.00,0.00,M,30.10,M,10.00,M,M,M,M,M,M,M,M,M,M,M,M,M,M,M,M,M,KIND 021955Z AUTO 00000KT 10SM 16/02 A3010 RMK T01600020 MADISHF
IND,2020-04-02 20:00,M,M,M,0.00,0.00,M,30.10,M,10.00,M,M,M,M,M,M,M,M,M,M,M,M,M,M,M,M,M,KIND 022000Z AUTO 00000KT 10SM 16/02 A3010 RMK T01600020 MADISHF
IND,2020-04-02 20:05,M,M,M,0.00,0.00,M,30.10,M,10.00,M,M,M,M,M,M,M,M,M,M,M,M,M,M,M,M,M,KIND 022005Z AUTO 00000KT 10SM 16/02 A3010 RMK T01600020 MADISHF
IND,2020-04-02 20:10,M,M,M,50.00,2.00,M,30.10,M,10.00,M,M,M,M,M,M,M,M,M,M,M,M,M,M,M,M,M,KIND 022010Z AUTO 05002KT 10SM 16/02 A3010 RMK T01600020 VRB03KT  MADISHF
IND,2020-04-02 20:15,M,M,M,20.00,5.00,M,30.10,M,10.00,M,M,M,M,M,M,M,M,M,M,M,M,M,M,M,M,M,KIND 022015Z AUTO 02005KT 10SM 17/02 A3010 RMK T01700020 MADISHF
IND,2020-04-02 20:20,M,M,M,60.00,2.00,M,30.10,M,10.00,M,M,M,M,M,M,M,M,M,M,M,M,M,M,M,M,M,KIND 022020Z AUTO 06002KT 10SM 16/01 A3010 RMK T01600010 VRB03KT  MADISHF
IND,2020-04-02 20:25,M,M,M,0.00,0.00,M,30.10,M,10.00,M,M,M,M,M,M,M,M,M,M,M,M,M,M,M,M,M,KIND 022025Z AUTO 00000KT 10SM 16/01 A3010 RMK T01600010 MADISHF
IND,2020-04-02 20:30,M,M,M,30.00,4.00,M,30.10,M,10.00,30.00,M,M,M,M,M,M,M,M,M,M,M,M,M,M,M,M,KIND 022030Z AUTO 03004G30KT 10SM 16/01 A3010 RMK T01600010 MADISHF
IND,2020-04-02 20:35,M,M,M,30.00,4.00,M,30.10,M,10.00,30.00,M,M,M,M,M,M,M,M,M,M,M,M,M,M,M,M,KIND 022035Z AUTO 03004G30KT 10SM 16/01 A3010 RMK T01600010 MADISHF
IND,2020-04-02 20:40,M,M,M,30.00,4.00,M,30.10,M,10.00,30.00,M,M,M,M,M,M,M,M,M,M,M,M,M,M,M,M,KIND 022040Z AUTO 03004G30KT 10SM 16/01 A3010 RMK T01600010 MADISHF
IND,2020-04-02 20:45,M,M,M,80.00,2.00,M,30.09,M,10.00,M,M,M,M,M,M,M,M,M,M,M,M,M,M,M,M,M,KIND 022045Z AUTO 08002KT 10SM 16/01 A3009 RMK T01600010 MADISHF
IND,2020-04-02 20:50,M,M,M,90.00,5.00,M,30.09,M,10.00,M,M,M,M,M,M,M,M,M,M,M,M,M,M,M,M,M,KIND 022050Z AUTO 09005KT 10SM 16/01 A3009 RMK T01600010 MADISHF
IND,2020-04-02 20:54,60.10,33.10,36.05,80.00,3.00,0.00,30.09,1019.20,10.00,M,SCT,M,M,M,25000.00,M,M,M,M,M,M,M,M,M,M,M,KIND 022054Z 08003KT 10SM SCT250 16/01 A3009 RMK AO2 SLP192 T01560006 56020
IND,2020-04-02 20:55,M,M,M,80.00,2.00,M,30.09,M,10.00,M,M,M,M,M,M,M,M,M,M,M,M,M,M,M,M,M,KIND 022055Z AUTO 08002KT 10SM 16/01 A3009 RMK T01600010 VRB03KT  MADISHF
IND,2020-04-02 21:00,M,M,M,0.00,0.00,M,30.09,M,10.00,M,M,M,M,M,M,M,M,M,M,M,M,M,M,M,M,M,KIND 022100Z AUTO 00000KT 10SM 16/01 A3009 RMK T01600010 MADISHF
IND,2020-04-02 21:05,M,M,M,0.00,0.00,M,30.09,M,10.00,M,M,M,M,M,M,M,M,M,M,M,M,M,M,M,M,M,KIND 022105Z AUTO 00000KT 10SM 16/01 A3009 RMK T01600010 MADISHF
IND,2020-04-02 21:10,M,M,M,70.00,2.00,M,30.09,M,10.00,M,M,M,M,M,M,M,M,M,M,M,M,M,M,M,M,M,KIND 022110Z AUTO 07002KT 10SM 16/01 A3009 RMK T01600010 MADISHF
IND,2020-04-02 21:15,M,M,M,0.00,0.00,M,30.09,M,10.00,M,M,M,M,M,M,M,M,M,M,M,M,M,M,M,M,M,KIND 022115Z AUTO 00000KT 10SM 16/01 A3009 RMK T01600010 MADISHF
IND,2020-04-02 21:20,M,M,M,30.00,5.00,M,30.09,M,10.00,M,M,M,M,M,M,M,M,M,M,M,M,M,M,M,M,M,KIND 022120Z AUTO 03005KT 10SM 17/01 A3009 RMK T01700010 MADISHF
IND,2020-04-02 21:25,M,M,M,10.00,5.00,M,30.09,M,10.00,M,M,M,M,M,M,M,M,M,M,M,M,M,M,M,M,M,KIND 022125Z AUTO 01005KT 10SM 17/02 A3009 RMK T01700020 MADISHF
IND,2020-04-02 21:30,M,M,M,40.00,5.00,M,30.09,M,10.00,M,M,M,M,M,M,M,M,M,M,M,M,M,M,M,M,M,KIND 022130Z AUTO 04005KT 10SM 17/01 A3009 RMK T01700010 MADISHF
IND,2020-04-02 21:35,M,M,M,90.00,4.00,M,30.09,M,10.00,M,M,M,M,M,M,M,M,M,M,M,M,M,M,M,M,M,KIND 022135Z AUTO 09004KT 10SM 16/01 A3009 RMK T01600010 MADISHF
IND,2020-04-02 21:40,M,M,M,0.00,0.00,M,30.09,M,10.00,M,M,M,M,M,M,M,M,M,M,M,M,M,M,M,M,M,KIND 022140Z AUTO 00000KT 10SM 16/00 A3009 RMK T01600000 MADISHF
IND,2020-04-02 21:45,M,M,M,80.00,4.00,M,30.08,M,10.00,M,M,M,M,M,M,M,M,M,M,M,M,M,M,M,M,M,KIND 022145Z AUTO 08004KT 10SM 16/01 A3007 RMK T01600010 MADISHF
IND,2020-04-02 21:50,M,M,M,90.00,2.00,M,30.08,M,10.00,M,M,M,M,M,M,M,M,M,M,M,M,M,M,M,M,M,KIND 022150Z AUTO 09002KT 10SM 16/00 A3007 RMK T01600000 VRB03KT  MADISHF
IND,2020-04-02 21:55,M,M,M,M,M,M,30.08,M,10.00,M,CLR,M,M,M,M,M,M,M,M,M,M,M,M,M,M,M,KIND 022155Z AUTO /////KT 10SM CLR 16/01 A3007 RMK T01600010 MADISHF
IND,2020-04-02 22:00,M,M,M,0.00,0.00,M,30.08,M,10.00,M,CLR,M,M,M,M,M,M,M,M,M,M,M,M,M,M,M,KIND 022200Z AUTO 00000KT 10SM CLR 16/01 A3007 RMK T01600010 MADISHF
IND,2020-04-02 22:05,M,M,M,0.00,0.00,M,30.08,M,10.00,M,CLR,M,M,M,M,M,M,M,M,M,M,M,M,M,M,M,KIND 022205Z AUTO 00000KT 10SM CLR 16/01 A3007 RMK T01600010 MADISHF
IND,2020-04-02 22:10,M,M,M,0.00,0.00,M,30.08,M,10.00,M,CLR,M,M,M,M,M,M,M,M,M,M,M,M,M,M,M,KIND 022210Z AUTO 00000KT 10SM CLR 16/01 A3007 RMK T01600010 MADISHF
IND,2020-04-02 22:15,M,M,M,30.00,4.00,M,30.08,M,10.00,M,M,M,M,M,M,M,M,M,M,M,M,M,M,M,M,M,KIND 022215Z AUTO 03004KT 10SM 16/01 A3007 RMK T01600010 MADISHF
IND,2020-04-02 22:20,M,M,M,60.00,4.00,M,30.08,M,10.00,M,M,M,M,M,M,M,M,M,M,M,M,M,M,M,M,M,KIND 022220Z AUTO 06004KT 10SM 16/00 A3007 RMK T01600000 MADISHF
IND,2020-04-02 22:25,M,M,M,50.00,2.00,M,30.08,M,10.00,M,M,M,M,M,M,M,M,M,M,M,M,M,M,M,M,M,KIND 022225Z AUTO 05002KT 10SM 16/00 A3007 RMK T01600000 MADISHF
IND,2020-04-02 22:30,M,M,M,0.00,0.00,M,30.08,M,10.00,M,M,M,M,M,M,M,M,M,M,M,M,M,M,M,M,M,KIND 022230Z AUTO 00000KT 10SM 17/00 A3007 RMK T01700000 MADISHF
IND,2020-04-02 22:35,M,M,M,0.00,0.00,M,30.08,M,10.00,M,M,M,M,M,M,M,M,M,M,M,M,M,M,M,M,M,KIND 022235Z AUTO 00000KT 10SM 17/00 A3007 RMK T01700000 MADISHF
IND,2020-04-02 22:40,M,M,M,40.00,5.00,M,30.08,M,10.00,M,M,M,M,M,M,M,M,M,M,M,M,M,M,M,M,M,KIND 022240Z AUTO 04005KT 10SM 16/M01 A3007 RMK T01601010 MADISHF
IND,2020-04-02 22:45,M,M,M,70.00,4.00,M,30.08,M,10.00,M,M,M,M,M,M,M,M,M,M,M,M,M,M,M,M,M,KIND 022245Z AUTO 07004KT 10SM 16/M01 A3007 RMK T01601010 MADISHF
IND,2020-04-02 22:50,M,M,M,0.00,0.00,M,30.08,M,10.00,M,M,M,M,M,M,M,M,M,M,M,M,M,M,M,M,M,KIND 022250Z AUTO 00000KT 10SM 16/M01 A3007 RMK T01601010 MADISHF
IND,2020-04-02 22:54,61.00,30.00,30.80,0.00,0.00,0.00,30.08,1018.90,10.00,M,BKN,M,M,M,25000.00,M,M,M,M,M,M,M,M,M,M,M,KIND 022254Z 00000KT 10SM BKN250 16/M01 A3008 RMK AO2 SLP189 T01611011
IND,2020-04-02 22:55,M,M,M,M,M,M,30.08,M,10.00,M,M,M,M,M,M,M,M,M,M,M,M,M,M,M,M,M,KIND 022255Z AUTO /////KT 10SM 16/M01 A3007 RMK T01601010 MADISHF
IND,2020-04-02 23:00,M,M,M,20.00,5.00,M,30.08,M,10.00,30.00,M,M,M,M,M,M,M,M,M,M,M,M,M,M,M,M,KIND 022300Z AUTO 02005G30KT 10SM 16/M01 A3007 RMK T01601010 MADISHF
IND,2020-04-02 23:05,M,M,M,20.00,5.00,M,30.08,M,10.00,30.00,M,M,M,M,M,M,M,M,M,M,M,M,M,M,M,M,KIND 022305Z AUTO 02005G30KT 10SM 16/01 A3007 RMK T01600010 MADISHF
IND,2020-04-02 23:10,M,M,M,20.00,5.00,M,30.09,M,10.00,30.00,M,M,M,M,M,M,M,M,M,M,M,M,M,M,M,M,KIND 022310Z AUTO 02005G30KT 10SM 16/01 A3009 RMK T01600010 MADISHF
IND,2020-04-02 23:15,M,M,M,20.00,5.00,M,30.09,M,10.00,30.00,M,M,M,M,M,M,M,M,M,M,M,M,M,M,M,M,KIND 022315Z AUTO 02005G30KT 10SM 16/01 A3009 RMK T01600010 MADISHF
IND,2020-04-02 23:20,M,M,M,60.00,2.00,M,30.09,M,10.00,M,M,M,M,M,M,M,M,M,M,M,M,M,M,M,M,M,KIND 022320Z AUTO 06002KT 10SM 16/01 A3009 RMK T01600010 MADISHF
IND,2020-04-02 23:25,M,M,M,30.00,2.00,M,30.09,M,10.00,M,M,M,M,M,M,M,M,M,M,M,M,M,M,M,M,M,KIND 022325Z AUTO 03002KT 10SM 16/01 A3009 RMK T01600010 MADISHF
IND,2020-04-02 23:30,M,M,M,20.00,4.00,M,30.09,M,10.00,30.00,M,M,M,M,M,M,M,M,M,M,M,M,M,M,M,M,KIND 022330Z AUTO 02004G30KT 10SM 15/02 A3009 RMK T01500020 MADISHF
IND,2020-04-02 23:35,M,M,M,20.00,4.00,M,30.09,M,10.00,30.00,M,M,M,M,M,M,M,M,M,M,M,M,M,M,M,M,KIND 022335Z AUTO 02004G30KT 10SM 14/03 A3009 RMK T01400030 MADISHF
IND,2020-04-02 23:40,M,M,M,20.00,4.00,M,30.09,M,10.00,30.00,M,M,M,M,M,M,M,M,M,M,M,M,M,M,M,M,KIND 022340Z AUTO 02004G30KT 10SM 14/02 A3009 RMK T01400020 MADISHF
IND,2020-04-02 23:45,M,M,M,20.00,4.00,M,30.09,M,10.00,30.00,M,M,M,M,M,M,M,M,M,M,M,M,M,M,M,M,KIND 022345Z AUTO 02004G30KT 10SM 14/02 A3009 RMK T01400020 MADISHF
IND,2020-04-02 23:50,M,M,M,40.00,5.00,M,30.08,M,10.00,M,M,M,M,M,M,M,M,M,M,M,M,M,M,M,M,M,KIND 022350Z AUTO 04005KT 10SM 14/02 A3007 RMK T01400020 MADISHF
IND,2020-04-02 23:55,M,M,M,50.00,5.00,M,30.08,M,10.00,M,M,M,M,M,M,M,M,M,M,M,M,M,M,M,M,M,KIND 022355Z AUTO 05005KT 10SM 14/02 A3007 RMK T01400020 MADISHF
IND,2020-04-03 00:00,M,M,M,M,M,M,30.08,M,10.00,M,M,M,M,M,M,M,M,M,M,M,M,M,M,M,M,M,KIND 030000Z AUTO /////KT 10SM 14/02 A3007 RMK T01400020 MADISHF
IND,2020-04-03 00:05,M,M,M,60.00,5.00,M,30.08,M,10.00,30.00,M,M,M,M,M,M,M,M,M,M,M,M,M,M,M,M,KIND 030005Z AUTO 06005G30KT 10SM 13/02 A3007 RMK T01300020 MADISHF
IND,2020-04-03 00:10,M,M,M,60.00,5.00,M,30.08,M,10.00,30.00,M,M,M,M,M,M,M,M,M,M,M,M,M,M,M,M,KIND 030010Z AUTO 06005G30KT 10SM 13/02 A3007 RMK T01300020 MADISHF
IND,2020-04-03 00:15,M,M,M,50.00,5.00,M,30.08,M,10.00,M,M,M,M,M,M,M,M,M,M,M,M,M,M,M,M,M,KIND 030015Z AUTO 05005KT 10SM 13/02 A3007 RMK T01300020 MADISHF
IND,2020-04-03 00:20,M,M,M,50.00,5.00,M,30.08,M,10.00,M,M,M,M,M,M,M,M,M,M,M,M,M,M,M,M,M,KIND 030020Z AUTO 05005KT 10SM 13/02 A3007 RMK T01300020 MADISHF
IND,2020-04-03 00:25,M,M,M,70.00,5.00,M,30.09,M,10.00,M,M,M,M,M,M,M,M,M,M,M,M,M,M,M,M,M,KIND 030025Z AUTO 07005KT 10SM 14/02 A3009 RMK T01400020 MADISHF
IND,2020-04-03 00:30,M,M,M,100.00,5.00,M,30.09,M,10.00,M,M,M,M,M,M,M,M,M,M,M,M,M,M,M,M,M,KIND 030030Z AUTO 10005KT 10SM 13/02 A3009 RMK T01300020 MADISHF
IND,2020-04-03 00:35,M,M,M,90.00,5.00,M,30.09,M,10.00,M,M,M,M,M,M,M,M,M,M,M,M,M,M,M,M,M,KIND 030035Z AUTO 09005KT 10SM 13/02 A3009 RMK T01300020 MADISHF
IND,2020-04-03 00:40,M,M,M,100.00,5.00,M,30.09,M,10.00,M,M,M,M,M,M,M,M,M,M,M,M,M,M,M,M,M,KIND 030040Z AUTO 10005KT 10SM 13/02 A3009 RMK T01300020 MADISHF
IND,2020-04-03 00:45,M,M,M,100.00,5.00,M,30.09,M,10.00,M,M,M,M,M,M,M,M,M,M,M,M,M,M,M,M,M,KIND 030045Z AUTO 10005KT 10SM 13/02 A3009 RMK T01300020 MADISHF
IND,2020-04-03 00:50,M,M,M,90.00,5.00,M,30.09,M,10.00,M,M,M,M,M,M,M,M,M,M,M,M,M,M,M,M,M,KIND 030050Z AUTO 09005KT 10SM 13/02 A3009 RMK T01300020 MADISHF
IND,2020-04-03 00:55,M,M,M,80.00,5.00,M,30.09,M,10.00,M,M,M,M,M,M,M,M,M,M,M,M,M,M,M,M,M,KIND 030055Z AUTO 08005KT 10SM 13/02 A3009 RMK T01300020 MADISHF
IND,2020-04-03 01:00,M,M,M,80.00,5.00,M,30.09,M,10.00,M,M,M,M,M,M,M,M,M,M,M,M,M,M,M,M,M,KIND 030100Z AUTO 08005KT 10SM 13/02 A3009 RMK T01300020 MADISHF
IND,2020-04-03 01:05,M,M,M,70.00,5.00,M,30.09,M,10.00,M,M,M,M,M,M,M,M,M,M,M,M,M,M,M,M,M,KIND 030105Z AUTO 07005KT 10SM 13/02 A3009 RMK T01300020 MADISHF
IND,2020-04-03 01:10,M,M,M,80.00,5.00,M,30.09,M,10.00,M,M,M,M,M,M,M,M,M,M,M,M,M,M,M,M,M,KIND 030110Z AUTO 08005KT 10SM 13/02 A3009 RMK T01300020 MADISHF
IND,2020-04-03 01:15,M,M,M,80.00,4.00,M,30.09,M,10.00,M,M,M,M,M,M,M,M,M,M,M,M,M,M,M,M,M,KIND 030115Z AUTO 08004KT 10SM 13/02 A3009 RMK T01300020 MADISHF
IND,2020-04-03 01:20,M,M,M,80.00,4.00,M,30.09,M,10.00,M,M,M,M,M,M,M,M,M,M,M,M,M,M,M,M,M,KIND 030120Z AUTO 08004KT 10SM 13/02 A3009 RMK T01300020 MADISHF
IND,2020-04-03 01:25,M,M,M,80.00,4.00,M,30.10,M,10.00,M,M,M,M,M,M,M,M,M,M,M,M,M,M,M,M,M,KIND 030125Z AUTO 08004KT 10SM 13/02 A3010 RMK T01300020 MADISHF
IND,2020-04-03 01:30,M,M,M,80.00,5.00,M,30.10,M,10.00,M,M,M,M,M,M,M,M,M,M,M,M,M,M,M,M,M,KIND 030130Z AUTO 08005KT 10SM 13/03 A3010 RMK T01300030 MADISHF
IND,2020-04-03 01:35,M,M,M,80.00,4.00,M,30.10,M,10.00,M,M,M,M,M,M,M,M,M,M,M,M,M,M,M,M,M,KIND 030135Z AUTO 08004KT 10SM 12/03 A3010 RMK T01200030 MADISHF
IND,2020-04-03 01:40,M,M,M,90.00,4.00,M,30.10,M,10.00,M,M,M,M,M,M,M,M,M,M,M,M,M,M,M,M,M,KIND 030140Z AUTO 09004KT 10SM 12/03 A3010 RMK T01200030 MADISHF
IND,2020-04-03 01:45,M,M,M,90.00,5.00,M,30.10,M,10.00,M,M,M,M,M,M,M,M,M,M,M,M,M,M,M,M,M,KIND 030145Z AUTO 09005KT 10SM 12/03 A3010 RMK T01200030 MADISHF
IND,2020-04-03 01:50,M,M,M,90.00,4.00,M,30.10,M,10.00,M,M,M,M,M,M,M,M,M,M,M,M,M,M,M,M,M,KIND 030150Z AUTO 09004KT 10SM 12/03 A3010 RMK T01200030 MADISHF
IND,2020-04-03 01:54,54.00,37.00,52.45,90.00,4.00,0.00,30.10,1019.40,10.00,M,BKN,BKN,M,M,21000.00,25000.00,M,M,M,M,M,M,M,M,M,M,KIND 030154Z 09004KT 10SM BKN210 BKN250 12/03 A3010 RMK AO2 SLP194 T01220028
IND,2020-04-03 01:55,M,M,M,90.00,4.00,M,30.10,M,10.00,M,CLR,M,M,M,M,M,M,M,M,M,M,M,M,M,M,M,KIND 030155Z AUTO 09004KT 10SM CLR 12/03 A3010 RMK T01200030 MADISHF
IND,2020-04-03 02:00,M,M,M,90.00,2.00,M,30.10,M,10.00,M,M,M,M,M,M,M,M,M,M,M,M,M,M,M,M,M,KIND 030200Z AUTO 09002KT 10SM 12/03 A3010 RMK T01200030 MADISHF
IND,2020-04-03 02:05,M,M,M,90.00,2.00,M,30.10,M,10.00,M,M,M,M,M,M,M,M,M,M,M,M,M,M,M,M,M,KIND 030205Z AUTO 09002KT 10SM 12/03 A3010 RMK T01200030 MADISHF
IND,2020-04-03 02:10,M,M,M,100.00,2.00,M,30.10,M,10.00,M,M,M,M,M,M,M,M,M,M,M,M,M,M,M,M,M,KIND 030210Z AUTO 10002KT 10SM 12/03 A3010 RMK T01200030 MADISHF
IND,2020-04-03 02:15,M,M,M,0.00,0.00,M,30.10,M,10.00,M,M,M,M,M,M,M,M,M,M,M,M,M,M,M,M,M,KIND 030215Z AUTO 00000KT 10SM 12/03 A3010 RMK T01200030 MADISHF
IND,2020-04-03 02:20,M,M,M,0.00,0.00,M,30.10,M,10.00,M,M,M,M,M,M,M,M,M,M,M,M,M,M,M,M,M,KIND 030220Z AUTO 00000KT 10SM 12/02 A3010 RMK T01200020 MADISHF
IND,2020-04-03 02:25,M,M,M,110.00,2.00,M,30.10,M,10.00,M,M,M,M,M,M,M,M,M,M,M,M,M,M,M,M,M,KIND 030225Z AUTO 11002KT 10SM 12/02 A3010 RMK T01200020 MADISHF
IND,2020-04-03 02:30,M,M,M,0.00,0.00,M,30.10,M,10.00,M,M,M,M,M,M,M,M,M,M,M,M,M,M,M,M,M,KIND 030230Z AUTO 00000KT 10SM 12/02 A3010 RMK T01200020 MADISHF
IND,2020-04-03 02:35,M,M,M,0.00,0.00,M,30.10,M,10.00,M,M,M,M,M,M,M,M,M,M,M,M,M,M,M,M,M,KIND 030235Z AUTO 00000KT 10SM 12/03 A3010 RMK T01200030 MADISHF
IND,2020-04-03 02:40,M,M,M,0.00,0.00,M,30.10,M,10.00,M,M,M,M,M,M,M,M,M,M,M,M,M,M,M,M,M,KIND 030240Z AUTO 00000KT 10SM 12/02 A3010 RMK T01200020 MADISHF
IND,2020-04-03 02:45,M,M,M,0.00,0.00,M,30.10,M,10.00,M,M,M,M,M,M,M,M,M,M,M,M,M,M,M,M,M,KIND 030245Z AUTO 00000KT 10SM 12/02 A3010 RMK T01200020 MADISHF
IND,2020-04-03 02:50,M,M,M,90.00,2.00,M,30.10,M,10.00,M,M,M,M,M,M,M,M,M,M,M,M,M,M,M,M,M,KIND 030250Z AUTO 09002KT 10SM 12/02 A3010 RMK T01200020 MADISHF
IND,2020-04-03 02:54,54.00,36.00,50.42,90.00,3.00,0.00,30.10,1019.40,10.00,M,SCT,OVC,M,M,21000.00,25000.00,M,M,M,M,M,M,M,M,M,M,KIND 030254Z 09003KT 10SM SCT210 OVC250 12/02 A3010 RMK AO2 SLP194 T01220022 51006
IND,2020-04-03 02:55,M,M,M,90.00,2.00,M,30.10,M,10.00,M,CLR,M,M,M,M,M,M,M,M,M,M,M,M,M,M,M,KIND 030255Z AUTO 09002KT 10SM CLR 12/02 A3010 RMK T01200020 MADISHF
IND,2020-04-03 03:00,M,M,M,90.00,2.00,M,30.10,M,10.00,M,CLR,M,M,M,M,M,M,M,M,M,M,M,M,M,M,M,KIND 030300Z AUTO 09002KT 10SM CLR 12/02 A3010 RMK T01200020 MADISHF
IND,2020-04-03 03:05,M,M,M,80.00,2.00,M,30.10,M,10.00,M,CLR,M,M,M,M,M,M,M,M,M,M,M,M,M,M,M,KIND 030305Z AUTO 08002KT 10SM CLR 12/03 A3010 RMK T01200030 MADISHF
IND,2020-04-03 03:10,M,M,M,0.00,0.00,M,30.10,M,10.00,M,CLR,M,M,M,M,M,M,M,M,M,M,M,M,M,M,M,KIND 030310Z AUTO 00000KT 10SM CLR 12/03 A3010 RMK T01200030 MADISHF
IND,2020-04-03 03:15,M,M,M,70.00,2.00,M,30.10,M,10.00,M,CLR,M,M,M,M,M,M,M,M,M,M,M,M,M,M,M,KIND 030315Z AUTO 07002KT 10SM CLR 12/03 A3010 RMK T01200030 MADISHF
IND,2020-04-03 03:20,M,M,M,60.00,2.00,M,30.10,M,10.00,M,CLR,M,M,M,M,M,M,M,M,M,M,M,M,M,M,M,KIND 030320Z AUTO 06002KT 10SM CLR 12/03 A3010 RMK T01200030 MADISHF
IND,2020-04-03 03:25,M,M,M,50.00,2.00,M,30.10,M,10.00,M,CLR,M,M,M,M,M,M,M,M,M,M,M,M,M,M,M,KIND 030325Z AUTO 05002KT 10SM CLR 12/03 A3010 RMK T01200030 MADISHF
IND,2020-04-03 03:30,M,M,M,50.00,2.00,M,30.10,M,10.00,M,CLR,M,M,M,M,M,M,M,M,M,M,M,M,M,M,M,KIND 030330Z AUTO 05002KT 10SM CLR 12/03 A3010 RMK T01200030 MADISHF
IND,2020-04-03 03:35,M,M,M,50.00,2.00,M,30.10,M,10.00,M,CLR,M,M,M,M,M,M,M,M,M,M,M,M,M,M,M,KIND 030335Z AUTO 05002KT 10SM CLR 11/03 A3010 RMK T01100030 MADISHF
IND,2020-04-03 03:40,M,M,M,40.00,4.00,M,30.10,M,10.00,M,CLR,M,M,M,M,M,M,M,M,M,M,M,M,M,M,M,KIND 030340Z AUTO 04004KT 10SM CLR 12/03 A3010 RMK T01200030 MADISHF
IND,2020-04-03 03:45,M,M,M,40.00,5.00,M,30.10,M,10.00,M,CLR,M,M,M,M,M,M,M,M,M,M,M,M,M,M,M,KIND 030345Z AUTO 04005KT 10SM CLR 10/03 A3010 RMK T01000030 MADISHF
IND,2020-04-03 03:50,M,M,M,50.00,2.00,M,30.10,M,10.00,M,M,M,M,M,M,M,M,M,M,M,M,M,M,M,M,M,KIND 030350Z AUTO 05002KT 10SM 11/03 A3010 RMK T01100030 MADISHF
IND,2020-04-03 03:54,51.10,37.90,60.46,60.00,3.00,0.00,30.10,1019.30,10.00,M,SCT,BKN,M,M,18000.00,25000.00,M,M,M,M,M,M,M,M,M,M,KIND 030354Z 06003KT 10SM SCT180 BKN250 11/03 A3010 RMK AO2 SLP193 T01060033
IND,2020-04-03 03:55,M,M,M,60.00,2.00,M,30.10,M,10.00,M,CLR,M,M,M,M,M,M,M,M,M,M,M,M,M,M,M,KIND 030355Z AUTO 06002KT 10SM CLR 11/03 A3010 RMK T01100030 MADISHF
IND,2020-04-03 04:00,M,M,M,50.00,2.00,M,30.10,M,10.00,M,CLR,M,M,M,M,M,M,M,M,M,M,M,M,M,M,M,KIND 030400Z AUTO 05002KT 10SM CLR 11/03 A3010 RMK T01100030 MADISHF
IND,2020-04-03 04:05,M,M,M,70.00,2.00,M,30.10,M,10.00,M,CLR,M,M,M,M,M,M,M,M,M,M,M,M,M,M,M,KIND 030405Z AUTO 07002KT 10SM CLR 11/03 A3010 RMK T01100030 MADISHF
IND,2020-04-03 04:10,M,M,M,60.00,2.00,M,30.10,M,10.00,M,CLR,M,M,M,M,M,M,M,M,M,M,M,M,M,M,M,KIND 030410Z AUTO 06002KT 10SM CLR 12/03 A3010 RMK T01200030 MADISHF
IND,2020-04-03 04:15,M,M,M,60.00,2.00,M,30.10,M,10.00,M,CLR,M,M,M,M,M,M,M,M,M,M,M,M,M,M,M,KIND 030415Z AUTO 06002KT 10SM CLR 11/03 A3010 RMK T01100030 MADISHF
IND,2020-04-03 04:20,M,M,M,0.00,0.00,M,30.10,M,10.00,M,CLR,M,M,M,M,M,M,M,M,M,M,M,M,M,M,M,KIND 030420Z AUTO 00000KT 10SM CLR 11/03 A3010 RMK T01100030 MADISHF
IND,2020-04-03 04:25,M,M,M,0.00,0.00,M,30.10,M,10.00,M,CLR,M,M,M,M,M,M,M,M,M,M,M,M,M,M,M,KIND 030425Z AUTO 00000KT 10SM CLR 11/03 A3010 RMK T01100030 MADISHF
IND,2020-04-03 04:30,M,M,M,0.00,0.00,M,30.10,M,10.00,M,CLR,M,M,M,M,M,M,M,M,M,M,M,M,M,M,M,KIND 030430Z AUTO 00000KT 10SM CLR 11/03 A3010 RMK T01100030 MADISHF
IND,2020-04-03 04:35,M,M,M,0.00,0.00,M,30.10,M,10.00,M,CLR,M,M,M,M,M,M,M,M,M,M,M,M,M,M,M,KIND 030435Z AUTO 00000KT 10SM CLR 11/03 A3010 RMK T01100030 MADISHF
IND,2020-04-03 04:40,M,M,M,0.00,0.00,M,30.10,M,10.00,M,CLR,M,M,M,M,M,M,M,M,M,M,M,M,M,M,M,KIND 030440Z AUTO 00000KT 10SM CLR 11/03 A3010 RMK T01100030 MADISHF
IND,2020-04-03 04:45,M,M,M,0.00,0.00,M,30.10,M,10.00,M,CLR,M,M,M,M,M,M,M,M,M,M,M,M,M,M,M,KIND 030445Z AUTO 00000KT 10SM CLR 11/03 A3010 RMK T01100030 MADISHF
IND,2020-04-03 04:50,M,M,M,0.00,0.00,M,30.10,M,10.00,M,M,M,M,M,M,M,M,M,M,M,M,M,M,M,M,M,KIND 030450Z AUTO 00000KT 10SM 11/03 A3010 RMK T01100030 MADISHF
IND,2020-04-03 04:54,52.00,37.00,56.45,0.00,0.00,0.00,30.09,1019.00,10.00,M,SCT,BKN,M,M,15000.00,25000.00,M,M,M,M,M,M,M,M,M,M,KIND 030454Z 00000KT 10SM SCT150 BKN250 11/03 A3009 RMK AO2 SLP190 T01110028 401670017
IND,2020-04-03 04:55,M,M,M,0.00,0.00,M,30.09,M,10.00,M,CLR,M,M,M,M,M,M,M,M,M,M,M,M,M,M,M,KIND 030455Z AUTO 00000KT 10SM CLR 11/03 A3009 RMK T01100030 MADISHF
IND,2020-04-03 05:00,M,M,M,0.00,0.00,M,30.10,M,10.00,M,CLR,M,M,M,M,M,M,M,M,M,M,M,M,M,M,M,KIND 030500Z AUTO 00000KT 10SM CLR 11/03 A3010 RMK T01100030 MADISHF
IND,2020-04-03 05:05,M,M,M,0.00,0.00,M,30.10,M,10.00,M,CLR,M,M,M,M,M,M,M,M,M,M,M,M,M,M,M,KIND 030505Z AUTO 00000KT 10SM CLR 11/03 A3010 RMK T01100030 MADISHF
IND,2020-04-03 05:10,M,M,M,0.00,0.00,M,30.10,M,10.00,M,CLR,M,M,M,M,M,M,M,M,M,M,M,M,M,M,M,KIND 030510Z AUTO 00000KT 10SM CLR 11/03 A3010 RMK T01100030 MADISHF
IND,2020-04-03 05:15,M,M,M,0.00,0.00,M,30.10,M,10.00,M,CLR,M,M,M,M,M,M,M,M,M,M,M,M,M,M,M,KIND 030515Z AUTO 00000KT 10SM CLR 11/03 A3010 RMK T01100030 MADISHF
IND,2020-04-03 05:20,M,M,M,0.00,0.00,M,30.10,M,10.00,M,CLR,M,M,M,M,M,M,M,M,M,M,M,M,M,M,M,KIND 030520Z AUTO 00000KT 10SM CLR 11/03 A3010 RMK T01100030 MADISHF
IND,2020-04-03 05:25,M,M,M,100.00,2.00,M,30.10,M,10.00,M,CLR,M,M,M,M,M,M,M,M,M,M,M,M,M,M,M,KIND 030525Z AUTO 10002KT 10SM CLR 11/03 A3010 RMK T01100030 MADISHF
IND,2020-04-03 05:30,M,M,M,90.00,2.00,M,30.10,M,10.00,M,CLR,M,M,M,M,M,M,M,M,M,M,M,M,M,M,M,KIND 030530Z AUTO 09002KT 10SM CLR 11/03 A3010 RMK T01100030 MADISHF
IND,2020-04-03 05:35,M,M,M,90.00,2.00,M,30.10,M,10.00,M,CLR,M,M,M,M,M,M,M,M,M,M,M,M,M,M,M,KIND 030535Z AUTO 09002KT 10SM CLR 11/03 A3010 RMK T01100030 MADISHF
IND,2020-04-03 05:40,M,M,M,100.00,2.00,M,30.10,M,10.00,M,CLR,M,M,M,M,M,M,M,M,M,M,M,M,M,M,M,KIND 030540Z AUTO 10002KT 10SM CLR 11/03 A3010 RMK T01100030 MADISHF
IND,2020-04-03 05:45,M,M,M,110.00,2.00,M,30.10,M,10.00,M,CLR,M,M,M,M,M,M,M,M,M,M,M,M,M,M,M,KIND 030545Z AUTO 11002KT 10SM CLR 11/03 A3010 RMK T01100030 MADISHF
IND,2020-04-03 05:50,M,M,M,110.00,2.00,M,30.10,M,10.00,M,M,M,M,M,M,M,M,M,M,M,M,M,M,M,M,M,KIND 030550Z AUTO 11002KT 10SM 11/03 A3010 RMK T01100030 MADISHF
IND,2020-04-03 05:54,51.10,37.90,60.46,120.00,3.00,0.00,30.09,1019.00,10.00,M,BKN,OVC,M,M,13000.00,25000.00,M,M,M,M,M,M,M,M,M,M,KIND 030554Z 12003KT 10SM BKN130 OVC250 11/03 A3009 RMK AO2 SLP190 T01060033 10139 20100 56003
IND,2020-04-03 05:55,M,M,M,130.00,2.00,M,30.09,M,10.00,M,CLR,M,M,M,M,M,M,M,M,M,M,M,M,M,M,M,KIND 030555Z AUTO 13002KT 10SM CLR 11/03 A3009 RMK T01100030 MADISHF
IND,2020-04-03 06:00,M,M,M,120.00,2.00,M,30.09,M,10.00,M,FEW,M,M,M,12000.00,M,M,M,M,M,M,M,M,M,M,M,KIND 030600Z AUTO 12002KT 10SM FEW120 11/03 A3009 RMK T01100030 MADISHF
IND,2020-04-03 06:05,M,M,M,120.00,2.00,M,30.09,M,10.00,M,FEW,M,M,M,12000.00,M,M,M,M,M,M,M,M,M,M,M,KIND 030605Z AUTO 12002KT 10SM FEW120 11/03 A3009 RMK T01100030 MADISHF
IND,2020-04-03 06:10,M,M,M,110.00,4.00,M,30.09,M,10.00,M,CLR,M,M,M,M,M,M,M,M,M,M,M,M,M,M,M,KIND 030610Z AUTO 11004KT 10SM CLR 11/03 A3009 RMK T01100030 MADISHF
IND,2020-04-03 06:15,M,M,M,110.00,2.00,M,30.09,M,10.00,M,FEW,M,M,M,12000.00,M,M,M,M,M,M,M,M,M,M,M,KIND 030615Z AUTO 11002KT 10SM FEW120 10/03 A3009 RMK T01000030 MADISHF
IND,2020-04-03 06:20,M,M,M,100.00,2.00,M,30.08,M,10.00,M,FEW,M,M,M,12000.00,M,M,M,M,M,M,M,M,M,M,M,KIND 030620Z AUTO 10002KT 10SM FEW120 11/03 A3007 RMK T01100030 MADISHF
IND,2020-04-03 06:25,M,M,M,100.00,4.00,M,30.08,M,10.00,M,FEW,M,M,M,12000.00,M,M,M,M,M,M,M,M,M,M,M,KIND 030625Z AUTO 10004KT 10SM FEW120 11/03 A3007 RMK T01100030 MADISHF
IND,2020-04-03 06:30,M,M,M,100.00,4.00,M,30.08,M,10.00,M,M,M,M,M,M,M,M,M,M,M,M,M,M,M,M,M,KIND 030630Z AUTO 10004KT 10SM 10/03 A3007 RMK T01000030 MADISHF
IND,2020-04-03 06:35,M,M,M,100.00,4.00,M,30.08,M,10.00,M,M,M,M,M,M,M,M,M,M,M,M,M,M,M,M,M,KIND 030635Z AUTO 10004KT 10SM 10/04 A3007 RMK T01000040 MADISHF
IND,2020-04-03 06:40,M,M,M,90.00,4.00,M,30.08,M,10.00,M,M,M,M,M,M,M,M,M,M,M,M,M,M,M,M,M,KIND 030640Z AUTO 09004KT 10SM 10/04 A3007 RMK T01000040 MADISHF
IND,2020-04-03 06:45,M,M,M,90.00,5.00,M,30.07,M,10.00,M,M,M,M,M,M,M,M,M,M,M,M,M,M,M,M,M,KIND 030645Z AUTO 09005KT 10SM 10/04 A3006 RMK T01000040 MADISHF
IND,2020-04-03 06:50,M,M,M,90.00,5.00,M,30.07,M,10.00,M,M,M,M,M,M,M,M,M,M,M,M,M,M,M,M,M,KIND 030650Z AUTO 09005KT 10SM 10/04 A3006 RMK T01000040 MADISHF
IND,2020-04-03 06:54,50.00,39.00,65.75,90.00,6.00,0.00,30.06,1018.00,10.00,M,BKN,M,M,M,13000.00,M,M,M,M,M,M,M,M,M,M,M,KIND 030654Z 09006KT 10SM BKN130 10/04 A3006 RMK AO2 SLP180 T01000039
IND,2020-04-03 06:55,M,M,M,90.00,7.00,M,30.06,M,10.00,M,BKN,BKN,M,M,10000.00,12000.00,M,M,M,M,M,M,M,M,M,M,KIND 030655Z AUTO 09007KT 10SM BKN100 BKN120 10/04 A3005 RMK T01000040 MADISHF
IND,2020-04-03 07:00,M,M,M,90.00,8.00,M,30.05,M,10.00,M,BKN,OVC,M,M,10000.00,12000.00,M,M,M,M,M,M,M,M,M,M,KIND 030700Z AUTO 09008KT 10SM BKN100 OVC120 10/04 A3004 RMK T01000040 MADISHF
IND,2020-04-03 07:05,M,M,M,80.00,9.00,M,30.04,M,10.00,M,OVC,M,M,M,11000.00,M,M,M,M,M,M,M,M,M,M,M,KIND 030705Z AUTO 08009KT 10SM OVC110 10/03 A3004 RMK T01000030 MADISHF
IND,2020-04-03 07:10,M,M,M,80.00,10.00,M,30.04,M,10.00,M,OVC,M,M,M,11000.00,M,M,M,M,M,M,M,M,M,M,M,KIND 030710Z AUTO 08010KT 10SM OVC110 10/03 A3004 RMK T01000030 MADISHF
IND,2020-04-03 07:15,M,M,M,80.00,10.00,M,30.04,M,10.00,M,OVC,M,M,M,11000.00,M,M,M,M,M,M,M,M,M,M,M,KIND 030715Z AUTO 08010KT 10SM OVC110 10/03 A3004 RMK T01000030 MADISHF
IND,2020-04-03 07:20,M,M,M,90.00,8.00,M,30.05,M,10.00,M,BKN,M,M,M,11000.00,M,M,M,M,M,M,M,M,M,M,M,KIND 030720Z AUTO 09008KT 10SM BKN110 10/03 A3004 RMK T01000030 MADISHF
IND,2020-04-03 07:25,M,M,M,90.00,8.00,M,30.05,M,10.00,M,BKN,M,M,M,11000.00,M,M,M,M,M,M,M,M,M,M,M,KIND 030725Z AUTO 09008KT 10SM BKN110 10/03 A3004 RMK T01000030 MADISHF
IND,2020-04-03 07:30,M,M,M,100.00,7.00,M,30.05,M,10.00,M,BKN,M,M,M,11000.00,M,M,M,M,M,M,M,M,M,M,M,KIND 030730Z AUTO 10007KT 10SM BKN110 10/03 A3004 RMK T01000030 MADISHF
IND,2020-04-03 07:35,M,M,M,100.00,7.00,M,30.05,M,10.00,M,SCT,M,M,M,11000.00,M,M,M,M,M,M,M,M,M,M,M,KIND 030735Z AUTO 10007KT 10SM SCT110 10/03 A3004 RMK T01000030 MADISHF
IND,2020-04-03 07:40,M,M,M,110.00,5.00,M,30.06,M,10.00,M,FEW,M,M,M,11000.00,M,M,M,M,M,M,M,M,M,M,M,KIND 030740Z AUTO 11005KT 10SM FEW110 10/03 A3005 RMK T01000030 MADISHF
IND,2020-04-03 07:45,M,M,M,110.00,7.00,M,30.06,M,10.00,M,FEW,M,M,M,11000.00,M,M,M,M,M,M,M,M,M,M,M,KIND 030745Z AUTO 11007KT 10SM FEW110 10/03 A3005 RMK T01000030 MADISHF
IND,2020-04-03 07:50,M,M,M,110.00,5.00,M,30.06,M,10.00,M,M,M,M,M,M,M,M,M,M,M,M,M,M,M,M,M,KIND 030750Z AUTO 11005KT 10SM 10/03 A3005 RMK T01000030 MADISHF
IND,2020-04-03 07:54,50.00,37.90,62.98,110.00,4.00,0.00,30.07,1018.10,10.00,M,BKN,M,M,M,13000.00,M,M,M,M,M,M,M,M,M,M,M,KIND 030754Z 11004KT 10SM BKN130 10/03 A3007 RMK AO2 SLP181 T01000033
IND,2020-04-03 07:55,M,M,M,110.00,4.00,M,30.07,M,10.00,M,CLR,M,M,M,M,M,M,M,M,M,M,M,M,M,M,M,KIND 030755Z AUTO 11004KT 10SM CLR 10/03 A3006 RMK T01000030 MADISHF
IND,2020-04-03 08:00,M,M,M,130.00,2.00,M,30.07,M,10.00,M,CLR,M,M,M,M,M,M,M,M,M,M,M,M,M,M,M,KIND 030800Z AUTO 13002KT 10SM CLR 10/03 A3006 RMK T01000030 MADISHF
IND,2020-04-03 08:05,M,M,M,130.00,2.00,M,30.08,M,10.00,M,CLR,M,M,M,M,M,M,M,M,M,M,M,M,M,M,M,KIND 030805Z AUTO 13002KT 10SM CLR 10/03 A3007 RMK T01000030 VRB03KT  MADISHF
IND,2020-04-03 08:10,M,M,M,160.00,2.00,M,30.08,M,10.00,M,CLR,M,M,M,M,M,M,M,M,M,M,M,M,M,M,M,KIND 030810Z AUTO 16002KT 10SM CLR 11/03 A3007 RMK T01100030 VRB03KT  MADISHF
IND,2020-04-03 08:15,M,M,M,180.00,2.00,M,30.08,M,10.00,M,CLR,M,M,M,M,M,M,M,M,M,M,M,M,M,M,M,KIND 030815Z AUTO 18002KT 10SM CLR 11/03 A3007 RMK T01100030 MADISHF
IND,2020-04-03 08:20,M,M,M,240.00,8.00,M,30.08,M,10.00,M,CLR,M,M,M,M,M,M,M,M,M,M,M,M,M,M,M,KIND 030820Z AUTO 24008KT 10SM CLR 09/03 A3007 RMK T00900030 MADISHF
IND,2020-04-03 08:25,M,M,M,250.00,7.00,M,30.09,M,10.00,M,CLR,M,M,M,M,M,M,M,M,M,M,M,M,M,M,M,KIND 030825Z AUTO 25007KT 10SM CLR 09/04 A3009 RMK T00900040 MADISHF
IND,2020-04-03 08:30,M,M,M,250.00,7.00,M,30.09,M,10.00,M,CLR,M,M,M,M,M,M,M,M,M,M,M,M,M,M,M,KIND 030830Z AUTO 25007KT 10SM CLR 09/04 A3009 RMK T00900040 MADISHF
IND,2020-04-03 08:35,M,M,M,260.00,5.00,M,30.09,M,10.00,M,CLR,M,M,M,M,M,M,M,M,M,M,M,M,M,M,M,KIND 030835Z AUTO 26005KT 10SM CLR 09/04 A3009 RMK T00900040 MADISHF
IND,2020-04-03 08:40,M,M,M,260.00,5.00,M,30.09,M,10.00,M,M,M,M,M,M,M,M,M,M,M,M,M,M,M,M,M,KIND 030840Z AUTO 26005KT 10SM 08/04 A3009 RMK T00800040 MADISHF
IND,2020-04-03 08:45,M,M,M,250.00,5.00,M,30.10,M,10.00,M,M,M,M,M,M,M,M,M,M,M,M,M,M,M,M,M,KIND 030845Z AUTO 25005KT 10SM 08/04 A3010 RMK T00800040 MADISHF
IND,2020-04-03 08:50,M,M,M,260.00,5.00,M,30.10,M,10.00,M,M,M,M,M,M,M,M,M,M,M,M,M,M,M,M,M,KIND 030850Z AUTO 26005KT 10SM 09/04 A3010 RMK T00900040 MADISHF
IND,2020-04-03 08:54,48.00,39.00,70.85,260.00,5.00,0.00,30.09,1019.00,10.00,M,BKN,OVC,M,M,13000.00,25000.00,M,M,M,M,M,M,M,M,M,45.40,KIND 030854Z 26005KT 10SM BKN130 OVC250 09/04 A3009 RMK AO2 SLP190 T00890039 55000
IND,2020-04-03 08:55,M,M,M,260.00,5.00,M,30.09,M,10.00,M,CLR,M,M,M,M,M,M,M,M,M,M,M,M,M,M,M,KIND 030855Z AUTO 26005KT 10SM CLR 09/04 A3009 RMK T00900040 MADISHF
IND,2020-04-03 09:00,M,M,M,260.00,4.00,M,30.10,M,10.00,M,CLR,M,M,M,M,M,M,M,M,M,M,M,M,M,M,M,KIND 030900Z AUTO 26004KT 10SM CLR 09/04 A3010 RMK T00900040 MADISHF
IND,2020-04-03 09:05,M,M,M,260.00,2.00,M,30.10,M,10.00,M,CLR,M,M,M,M,M,M,M,M,M,M,M,M,M,M,M,KIND 030905Z AUTO 26002KT 10SM CLR 09/04 A3010 RMK T00900040 MADISHF
IND,2020-04-03 09:10,M,M,M,260.00,4.00,M,30.10,M,10.00,M,CLR,M,M,M,M,M,M,M,M,M,M,M,M,M,M,M,KIND 030910Z AUTO 26004KT 10SM CLR 09/04 A3010 RMK T00900040 MADISHF
IND,2020-04-03 09:15,M,M,M,270.00,2.00,M,30.10,M,10.00,M,CLR,M,M,M,M,M,M,M,M,M,M,M,M,M,M,M,KIND 030915Z AUTO 27002KT 10SM CLR 09/04 A3010 RMK T00900040 MADISHF
IND,2020-04-03 09:20,M,M,M,0.00,0.00,M,30.10,M,10.00,M,CLR,M,M,M,M,M,M,M,M,M,M,M,M,M,M,M,KIND 030920Z AUTO 00000KT 10SM CLR 09/04 A3010 RMK T00900040 MADISHF
IND,2020-04-03 09:25,M,M,M,0.00,0.00,M,30.10,M,10.00,M,CLR,M,M,M,M,M,M,M,M,M,M,M,M,M,M,M,KIND 030925Z AUTO 00000KT 10SM CLR 09/04 A3010 RMK T00900040 MADISHF
IND,2020-04-03 09:30,M,M,M,0.00,0.00,M,30.10,M,10.00,M,CLR,M,M,M,M,M,M,M,M,M,M,M,M,M,M,M,KIND 030930Z AUTO 00000KT 10SM CLR 09/03 A3010 RMK T00900030 MADISHF
IND,2020-04-03 09:35,M,M,M,0.00,0.00,M,30.10,M,10.00,M,CLR,M,M,M,M,M,M,M,M,M,M,M,M,M,M,M,KIND 030935Z AUTO 00000KT 10SM CLR 09/03 A3010 RMK T00900030 MADISHF
IND,2020-04-03 09:40,M,M,M,0.00,0.00,M,30.10,M,10.00,M,CLR,M,M,M,M,M,M,M,M,M,M,M,M,M,M,M,KIND 030940Z AUTO 00000KT 10SM CLR 09/03 A3010 RMK T00900030 MADISHF
IND,2020-04-03 09:45,M,M,M,0.00,0.00,M,30.10,M,10.00,M,CLR,M,M,M,M,M,M,M,M,M,M,M,M,M,M,M,KIND 030945Z AUTO 00000KT 10SM CLR 09/03 A3010 RMK T00900030 MADISHF
IND,2020-04-03 09:50,M,M,M,0.00,0.00,M,30.10,M,10.00,M,M,M,M,M,M,M,M,M,M,M,M,M,M,M,M,M,KIND 030950Z AUTO 00000KT 10SM 09/03 A3010 RMK T00900030 MADISHF
IND,2020-04-03 09:54,48.00,37.90,67.87,0.00,0.00,0.00,30.10,1019.20,10.00,M,SCT,BKN,M,M,14000.00,25000.00,M,M,M,M,M,M,M,M,M,M,KIND 030954Z 00000KT 10SM SCT140 BKN250 09/03 A3010 RMK AO2 SLP192 T00890033
IND,2020-04-03 10:00,M,M,M,0.00,0.00,M,30.10,M,10.00,M,CLR,M,M,M,M,M,M,M,M,M,M,M,M,M,M,M,KIND 031000Z AUTO 00000KT 10SM CLR 09/03 A3010 RMK T00900030 MADISHF
IND,2020-04-03 10:05,M,M,M,0.00,0.00,M,30.10,M,10.00,M,CLR,M,M,M,M,M,M,M,M,M,M,M,M,M,M,M,KIND 031005Z AUTO 00000KT 10SM CLR 09/03 A3010 RMK T00900030 MADISHF
IND,2020-04-03 10:10,M,M,M,0.00,0.00,M,30.10,M,10.00,M,CLR,M,M,M,M,M,M,M,M,M,M,M,M,M,M,M,KIND 031010Z AUTO 00000KT 10SM CLR 09/03 A3010 RMK T00900030 MADISHF
IND,2020-04-03 10:15,M,M,M,0.00,0.00,M,30.10,M,10.00,M,CLR,M,M,M,M,M,M,M,M,M,M,M,M,M,M,M,KIND 031015Z AUTO 00000KT 10SM CLR 09/03 A3010 RMK T00900030 MADISHF
IND,2020-04-03 10:20,M,M,M,0.00,0.00,M,30.10,M,10.00,M,CLR,M,M,M,M,M,M,M,M,M,M,M,M,M,M,M,KIND 031020Z AUTO 00000KT 10SM CLR 09/03 A3010 RMK T00900030 MADISHF
IND,2020-04-03 10:25,M,M,M,0.00,0.00,M,30.10,M,10.00,M,CLR,M,M,M,M,M,M,M,M,M,M,M,M,M,M,M,KIND 031025Z AUTO 00000KT 10SM CLR 09/03 A3010 RMK T00900030 MADISHF
IND,2020-04-03 10:30,M,M,M,0.00,0.00,M,30.10,M,10.00,M,FEW,M,M,M,10000.00,M,M,M,M,M,M,M,M,M,M,M,KIND 031030Z AUTO 00000KT 10SM FEW100 09/03 A3010 RMK T00900030 MADISHF
IND,2020-04-03 10:35,M,M,M,20.00,2.00,M,30.10,M,10.00,M,FEW,M,M,M,10000.00,M,M,M,M,M,M,M,M,M,M,M,KIND 031035Z AUTO 02002KT 10SM FEW100 09/03 A3010 RMK T00900030 MADISHF
IND,2020-04-03 10:40,M,M,M,20.00,2.00,M,30.11,M,10.00,M,SCT,M,M,M,10000.00,M,M,M,M,M,M,M,M,M,M,M,KIND 031040Z AUTO 02002KT 10SM SCT100 09/03 A3011 RMK T00900030 MADISHF
IND,2020-04-03 10:45,M,M,M,0.00,0.00,M,30.11,M,10.00,M,BKN,M,M,M,10000.00,M,M,M,M,M,M,M,M,M,M,M,KIND 031045Z AUTO 00000KT 10SM BKN100 09/03 A3011 RMK T00900030 MADISHF
IND,2020-04-03 10:50,M,M,M,0.00,0.00,M,30.11,M,10.00,M,SCT,M,M,M,10000.00,M,M,M,M,M,M,M,M,M,M,M,KIND 031050Z AUTO 00000KT 10SM SCT100 09/03 A3011 RMK T00900030 MADISHF
IND,2020-04-03 10:54,48.00,37.90,67.87,0.00,0.00,0.00,30.10,1019.40,10.00,M,SCT,BKN,M,M,10000.00,14000.00,M,M,M,M,M,M,M,M,M,M,KIND 031054Z 00000KT 10SM SCT100 BKN140 09/03 A3010 RMK AO2 SLP194 T00890033
IND,2020-04-03 10:55,M,M,M,0.00,0.00,M,30.10,M,10.00,M,BKN,M,M,M,10000.00,M,M,M,M,M,M,M,M,M,M,M,KIND 031055Z AUTO 00000KT 10SM BKN100 09/03 A3010 RMK T00900030 MADISHF
IND,2020-04-03 11:00,M,M,M,0.00,0.00,M,30.10,M,10.00,M,SCT,M,M,M,10000.00,M,M,M,M,M,M,M,M,M,M,M,KIND 031100Z AUTO 00000KT 10SM SCT100 09/03 A3010 RMK T00900030 MADISHF
IND,2020-04-03 11:05,M,M,M,0.00,0.00,M,30.10,M,10.00,M,SCT,M,M,M,10000.00,M,M,M,M,M,M,M,M,M,M,M,KIND 031105Z AUTO 00000KT 10SM SCT100 09/03 A3010 RMK T00900030 MADISHF
IND,2020-04-03 11:10,M,M,M,70.00,2.00,M,30.10,M,10.00,M,SCT,M,M,M,10000.00,M,M,M,M,M,M,M,M,M,M,M,KIND 031110Z AUTO 07002KT 10SM SCT100 08/03 A3010 RMK T00800030 MADISHF
IND,2020-04-03 11:15,M,M,M,M,M,M,30.10,M,10.00,M,SCT,M,M,M,11000.00,M,M,M,M,M,M,M,M,M,M,M,KIND 031115Z AUTO /////KT 10SM SCT110 09/03 A3010 RMK T00900030 MADISHF
IND,2020-04-03 11:20,M,M,M,M,M,M,30.10,M,10.00,M,FEW,M,M,M,10000.00,M,M,M,M,M,M,M,M,M,M,M,KIND 031120Z AUTO /////KT 10SM FEW100 08/03 A3010 RMK T00800030 MADISHF
IND,2020-04-03 11:25,M,M,M,M,M,M,30.10,M,10.00,M,FEW,M,M,M,12000.00,M,M,M,M,M,M,M,M,M,M,M,KIND 031125Z AUTO /////KT 10SM FEW120 09/03 A3010 RMK T00900030 MADISHF
IND,2020-04-03 11:30,M,M,M,0.00,0.00,M,30.10,M,10.00,M,SCT,M,M,M,12000.00,M,M,M,M,M,M,M,M,M,M,M,KIND 031130Z AUTO 00000KT 10SM SCT120 09/03 A3010 RMK T00900030 MADISHF
IND,2020-04-03 11:35,M,M,M,0.00,0.00,M,30.10,M,10.00,M,BKN,M,M,M,11000.00,M,M,M,M,M,M,M,M,M,M,M,KIND 031135Z AUTO 00000KT 10SM BKN110 09/03 A3010 RMK T00900030 MADISHF
IND,2020-04-03 11:54,48.00,39.00,70.85,50.00,3.00,0.00,30.11,1019.70,10.00,M,SCT,BKN,M,M,10000.00,14000.00,M,M,M,M,M,M,M,M,M,46.98,KIND 031154Z 05003KT 10SM SCT100 BKN140 09/04 A3011 RMK AO2 SLP197 T00890039 10106 20083 53005
IND,2020-04-03 12:54,50.00,39.90,68.10,0.00,0.00,0.00,30.11,1019.60,8.00,M,FEW,BKN,BKN,M,10000.00,12000.00,16000.00,M,M,M,M,M,M,M,M,M,KIND 031254Z 00000KT 8SM FEW100 BKN120 BKN160 10/04 A3011 RMK AO2 SLP196 T01000044
IND,2020-04-03 12:55,M,M,M,M,M,M,30.11,M,8.00,M,BKN,M,M,M,12000.00,M,M,M,M,M,M,M,M,M,M,M,KIND 031255Z AUTO /////KT 8SM BKN120 10/04 A3011 RMK T01000040 MADISHF
IND,2020-04-03 13:00,M,M,M,110.00,2.00,M,30.11,M,9.00,30.00,FEW,BKN,M,M,10000.00,12000.00,M,M,M,M,M,M,M,M,M,M,KIND 031300Z AUTO 11002G30KT 9SM FEW100 BKN120 11/04 A3011 RMK T01100040 MADISHF
IND,2020-04-03 13:05,M,M,M,110.00,2.00,M,30.11,M,10.00,30.00,FEW,BKN,M,M,10000.00,12000.00,M,M,M,M,M,M,M,M,M,M,KIND 031305Z AUTO 11002G30KT 10SM FEW100 BKN120 11/04 A3011 RMK T01100040 MADISHF
IND,2020-04-03 13:10,M,M,M,110.00,2.00,M,30.11,M,10.00,30.00,FEW,BKN,M,M,10000.00,12000.00,M,M,M,M,M,M,M,M,M,M,KIND 031310Z AUTO 11002G30KT 10SM FEW100 BKN120 11/04 A3011 RMK T01100040 MADISHF
IND,2020-04-03 13:15,M,M,M,110.00,2.00,M,30.11,M,10.00,30.00,FEW,BKN,M,M,10000.00,12000.00,M,M,M,M,M,M,M,M,M,M,KIND 031315Z AUTO 11002G30KT 10SM FEW100 BKN120 11/04 A3011 RMK T01100040 MADISHF
IND,2020-04-03 13:20,M,M,M,110.00,2.00,M,30.11,M,10.00,30.00,FEW,BKN,M,M,10000.00,12000.00,M,M,M,M,M,M,M,M,M,M,KIND 031320Z AUTO 11002G30KT 10SM FEW100 BKN120 11/04 A3011 RMK T01100040 MADISHF
IND,2020-04-03 13:25,M,M,M,120.00,4.00,M,30.11,M,10.00,M,FEW,BKN,M,M,10000.00,12000.00,M,M,M,M,M,M,M,M,M,M,KIND 031325Z AUTO 12004KT 10SM FEW100 BKN120 11/04 A3011 RMK T01100040 MADISHF
IND,2020-04-03 13:30,M,M,M,120.00,5.00,M,30.11,M,10.00,M,FEW,BKN,M,M,10000.00,12000.00,M,M,M,M,M,M,M,M,M,M,KIND 031330Z AUTO 12005KT 10SM FEW100 BKN120 11/04 A3011 RMK T01100040 MADISHF
IND,2020-04-03 13:35,M,M,M,120.00,4.00,M,30.11,M,10.00,M,FEW,BKN,M,M,10000.00,12000.00,M,M,M,M,M,M,M,M,M,M,KIND 031335Z AUTO 12004KT 10SM FEW100 BKN120 11/04 A3011 RMK T01100040 MADISHF
IND,2020-04-03 13:40,M,M,M,140.00,4.00,M,30.11,M,10.00,M,FEW,BKN,M,M,10000.00,12000.00,M,M,M,M,M,M,M,M,M,M,KIND 031340Z AUTO 14004KT 10SM FEW100 BKN120 11/04 A3011 RMK T01100040 MADISHF
IND,2020-04-03 13:45,M,M,M,140.00,5.00,M,30.11,M,10.00,M,FEW,BKN,M,M,10000.00,12000.00,M,M,M,M,M,M,M,M,M,M,KIND 031345Z AUTO 14005KT 10SM FEW100 BKN120 12/04 A3011 RMK T01200040 MADISHF
IND,2020-04-03 13:50,M,M,M,160.00,5.00,M,30.11,M,10.00,M,FEW,BKN,M,M,10000.00,12000.00,M,M,M,M,M,M,M,M,M,M,KIND 031350Z AUTO 16005KT 10SM FEW100 BKN120 12/04 A3011 RMK T01200040 MADISHF
IND,2020-04-03 13:54,53.10,39.00,58.64,180.00,5.00,0.00,30.11,1019.60,10.00,M,BKN,BKN,M,M,11000.00,16000.00,M,M,M,M,M,M,M,M,M,M,KIND 031354Z 18005KT 10SM BKN110 BKN160 12/04 A3011 RMK AO2 SLP196 T01170039
IND,2020-04-03 13:55,M,M,M,180.00,5.00,M,30.11,M,10.00,M,BKN,M,M,M,11000.00,M,M,M,M,M,M,M,M,M,M,M,KIND 031355Z AUTO 18005KT 10SM BKN110 12/04 A3011 RMK T01200040 MADISHF
IND,2020-04-03 14:00,M,M,M,190.00,5.00,M,30.11,M,10.00,M,BKN,M,M,M,11000.00,M,M,M,M,M,M,M,M,M,M,M,KIND 031400Z AUTO 19005KT 10SM BKN110 12/03 A3011 RMK T01200030 MADISHF
IND,2020-04-03 14:05,M,M,M,180.00,4.00,M,30.11,M,10.00,M,OVC,M,M,M,11000.00,M,M,M,M,M,M,M,M,M,M,M,KIND 031405Z AUTO 18004KT 10SM OVC110 12/04 A3011 RMK T01200040 MADISHF
IND,2020-04-03 14:10,M,M,M,200.00,5.00,M,30.11,M,10.00,30.00,OVC,M,M,M,11000.00,M,M,M,M,M,M,M,M,M,M,M,KIND 031410Z AUTO 20005G30KT 10SM OVC110 12/04 A3011 RMK T01200040 MADISHF
IND,2020-04-03 14:15,M,M,M,200.00,5.00,M,30.11,M,10.00,30.00,BKN,M,M,M,11000.00,M,M,M,M,M,M,M,M,M,M,M,KIND 031415Z AUTO 20005G30KT 10SM BKN110 12/04 A3011 RMK T01200040 MADISHF
IND,2020-04-03 14:20,M,M,M,200.00,5.00,M,30.11,M,10.00,30.00,BKN,M,M,M,11000.00,M,M,M,M,M,M,M,M,M,M,M,KIND 031420Z AUTO 20005G30KT 10SM BKN110 12/04 A3011 RMK T01200040 MADISHF
IND,2020-04-03 14:25,M,M,M,200.00,5.00,M,30.11,M,10.00,30.00,OVC,M,M,M,11000.00,M,M,M,M,M,M,M,M,M,M,M,KIND 031425Z AUTO 20005G30KT 10SM OVC110 12/04 A3011 RMK T01200040 MADISHF
IND,2020-04-03 14:30,M,M,M,200.00,5.00,M,30.11,M,10.00,30.00,BKN,M,M,M,11000.00,M,M,M,M,M,M,M,M,M,M,M,KIND 031430Z AUTO 20005G30KT 10SM BKN110 12/04 A3011 RMK T01200040 MADISHF
IND,2020-04-03 14:35,M,M,M,200.00,5.00,M,30.11,M,10.00,30.00,BKN,M,M,M,11000.00,M,M,M,M,M,M,M,M,M,M,M,KIND 031435Z AUTO 20005G30KT 10SM BKN110 13/04 A3011 RMK T01300040 MADISHF
IND,2020-04-03 14:40,M,M,M,200.00,5.00,M,30.11,M,10.00,30.00,BKN,M,M,M,11000.00,M,M,M,M,M,M,M,M,M,M,M,KIND 031440Z AUTO 20005G30KT 10SM BKN110 13/04 A3011 RMK T01300040 MADISHF
IND,2020-04-03 14:45,M,M,M,200.00,5.00,M,30.11,M,10.00,30.00,BKN,M,M,M,11000.00,M,M,M,M,M,M,M,M,M,M,M,KIND 031445Z AUTO 20005G30KT 10SM BKN110 13/04 A3011 RMK T01300040 MADISHF
IND,2020-04-03 14:50,M,M,M,170.00,7.00,M,30.11,M,10.00,M,BKN,M,M,M,11000.00,M,M,M,M,M,M,M,M,M,M,M,KIND 031450Z AUTO 17007KT 10SM BKN110 13/04 A3011 RMK T01300040 MADISHF
IND,2020-04-03 14:54,55.00,39.00,54.70,180.00,5.00,0.00,30.11,1019.70,10.00,M,BKN,BKN,M,M,11000.00,14000.00,M,M,M,M,M,M,M,M,M,M,KIND 031454Z 18005KT 10SM BKN110 BKN140 13/04 A3011 RMK AO2 SLP197 T01280039 53001
IND,2020-04-03 14:55,M,M,M,190.00,4.00,M,30.11,M,10.00,M,BKN,M,M,M,11000.00,M,M,M,M,M,M,M,M,M,M,M,KIND 031455Z AUTO 19004KT 10SM BKN110 13/04 A3011 RMK T01300040 MADISHF
IND,2020-04-03 15:00,M,M,M,160.00,7.00,M,30.11,M,10.00,M,BKN,M,M,M,11000.00,M,M,M,M,M,M,M,M,M,M,M,KIND 031500Z AUTO 16007KT 10SM BKN110 13/04 A3011 RMK T01300040 MADISHF
IND,2020-04-03 15:05,M,M,M,170.00,5.00,M,30.11,M,10.00,M,BKN,M,M,M,11000.00,M,M,M,M,M,M,M,M,M,M,M,KIND 031505Z AUTO 17005KT 10SM BKN110 13/04 A3011 RMK T01300040 MADISHF
IND,2020-04-03 15:10,M,M,M,170.00,5.00,M,30.11,M,10.00,M,BKN,M,M,M,11000.00,M,M,M,M,M,M,M,M,M,M,M,KIND 031510Z AUTO 17005KT 10SM BKN110 13/04 A3011 RMK T01300040 MADISHF
IND,2020-04-03 15:15,M,M,M,170.00,5.00,M,30.12,M,10.00,M,BKN,M,M,M,11000.00,M,M,M,M,M,M,M,M,M,M,M,KIND 031515Z AUTO 17005KT 10SM BKN110 13/04 A3012 RMK T01300040 MADISHF
IND,2020-04-03 15:20,M,M,M,180.00,5.00,M,30.12,M,10.00,M,BKN,M,M,M,11000.00,M,M,M,M,M,M,M,M,M,M,M,KIND 031520Z AUTO 18005KT 10SM BKN110 13/04 A3012 RMK T01300040 MADISHF
IND,2020-04-03 15:25,M,M,M,160.00,5.00,M,30.11,M,10.00,M,BKN,M,M,M,11000.00,M,M,M,M,M,M,M,M,M,M,M,KIND 031525Z AUTO 16005KT 10SM BKN110 14/04 A3011 RMK T01400040 MADISHF
IND,2020-04-03 15:30,M,M,M,170.00,4.00,M,30.11,M,10.00,M,BKN,M,M,M,11000.00,M,M,M,M,M,M,M,M,M,M,M,KIND 031530Z AUTO 17004KT 10SM BKN110 14/04 A3011 RMK T01400040 MADISHF
IND,2020-04-03 15:35,M,M,M,180.00,5.00,M,30.11,M,10.00,M,BKN,M,M,M,11000.00,M,M,M,M,M,M,M,M,M,M,M,KIND 031535Z AUTO 18005KT 10SM BKN110 14/04 A3011 RMK T01400040 MADISHF
IND,2020-04-03 15:40,M,M,M,160.00,5.00,M,30.11,M,10.00,M,BKN,M,M,M,11000.00,M,M,M,M,M,M,M,M,M,M,M,KIND 031540Z AUTO 16005KT 10SM BKN110 14/04 A3011 RMK T01400040 MADISHF
IND,2020-04-03 15:45,M,M,M,170.00,5.00,M,30.11,M,10.00,M,BKN,M,M,M,11000.00,M,M,M,M,M,M,M,M,M,M,M,KIND 031545Z AUTO 17005KT 10SM BKN110 14/04 A3011 RMK T01400040 MADISHF
IND,2020-04-03 15:50,M,M,M,180.00,5.00,M,30.11,M,10.00,M,BKN,M,M,M,11000.00,M,M,M,M,M,M,M,M,M,M,M,KIND 031550Z AUTO 18005KT 10SM BKN110 14/04 A3011 RMK T01400040 MADISHF
IND,2020-04-03 15:54,57.90,41.00,53.24,180.00,6.00,0.00,30.10,1019.30,10.00,M,BKN,BKN,M,M,11000.00,13000.00,M,M,M,M,M,M,M,M,M,M,KIND 031554Z 18006KT 10SM BKN110 BKN130 14/05 A3010 RMK AO2 SLP193 T01440050
IND,2020-04-03 15:55,M,M,M,190.00,5.00,M,30.10,M,10.00,M,OVC,M,M,M,11000.00,M,M,M,M,M,M,M,M,M,M,M,KIND 031555Z AUTO 19005KT 10SM OVC110 14/05 A3010 RMK T01400050 MADISHF
IND,2020-04-03 16:00,M,M,M,180.00,5.00,M,30.10,M,10.00,M,BKN,M,M,M,11000.00,M,M,M,M,M,M,M,M,M,M,M,KIND 031600Z AUTO 18005KT 10SM BKN110 14/04 A3010 RMK T01400040 MADISHF
IND,2020-04-03 16:05,M,M,M,190.00,4.00,M,30.10,M,10.00,M,BKN,M,M,M,11000.00,M,M,M,M,M,M,M,M,M,M,M,KIND 031605Z AUTO 19004KT 10SM BKN110 14/04 A3010 RMK T01400040 MADISHF
IND,2020-04-03 16:10,M,M,M,130.00,5.00,M,30.10,M,10.00,M,BKN,M,M,M,11000.00,M,M,M,M,M,M,M,M,M,M,M,KIND 031610Z AUTO 13005KT 10SM BKN110 16/06 A3010 RMK T01600060 VRB05KT  MADISHF
IND,2020-04-03 16:15,M,M,M,190.00,5.00,M,30.10,M,10.00,M,BKN,M,M,M,11000.00,M,M,M,M,M,M,M,M,M,M,M,KIND 031615Z AUTO 19005KT 10SM BKN110 15/04 A3010 RMK T01500040 MADISHF
IND,2020-04-03 16:20,M,M,M,180.00,2.00,M,30.10,M,10.00,M,BKN,M,M,M,11000.00,M,M,M,M,M,M,M,M,M,M,M,KIND 031620Z AUTO 18002KT 10SM BKN110 16/04 A3010 RMK T01600040 MADISHF
IND,2020-04-03 16:25,M,M,M,200.00,4.00,M,30.10,M,10.00,M,BKN,M,M,M,11000.00,M,M,M,M,M,M,M,M,M,M,M,KIND 031625Z AUTO 20004KT 10SM BKN110 15/04 A3010 RMK T01500040 MADISHF
IND,2020-04-03 16:30,M,M,M,170.00,5.00,M,30.10,M,10.00,M,BKN,M,M,M,11000.00,M,M,M,M,M,M,M,M,M,M,M,KIND 031630Z AUTO 17005KT 10SM BKN110 15/04 A3010 RMK T01500040 MADISHF
IND,2020-04-03 16:35,M,M,M,210.00,5.00,M,30.10,M,10.00,M,BKN,M,M,M,11000.00,M,M,M,M,M,M,M,M,M,M,M,KIND 031635Z AUTO 21005KT 10SM BKN110 16/04 A3010 RMK T01600040 MADISHF
IND,2020-04-03 16:40,M,M,M,220.00,5.00,M,30.10,M,10.00,M,BKN,M,M,M,11000.00,M,M,M,M,M,M,M,M,M,M,M,KIND 031640Z AUTO 22005KT 10SM BKN110 16/05 A3010 RMK T01600050 MADISHF
IND,2020-04-03 16:45,M,M,M,240.00,5.00,M,30.10,M,10.00,M,BKN,M,M,M,11000.00,M,M,M,M,M,M,M,M,M,M,M,KIND 031645Z AUTO 24005KT 10SM BKN110 16/04 A3010 RMK T01600040 MADISHF
IND,2020-04-03 16:50,M,M,M,200.00,5.00,M,30.09,M,10.00,M,BKN,M,M,M,11000.00,M,M,M,M,M,M,M,M,M,M,M,KIND 031650Z AUTO 20005KT 10SM BKN110 16/04 A3009 RMK T01600040 MADISHF
IND,2020-04-03 16:54,60.10,39.90,47.15,170.00,4.00,0.00,30.09,1019.00,10.00,M,BKN,BKN,M,M,11000.00,13000.00,M,M,M,M,M,M,M,M,M,M,KIND 031654Z 17004KT 10SM BKN110 BKN130 16/04 A3009 RMK AO2 SLP190 T01560044
IND,2020-04-03 16:55,M,M,M,170.00,5.00,M,30.09,M,10.00,M,BKN,M,M,M,11000.00,M,M,M,M,M,M,M,M,M,M,M,KIND 031655Z AUTO 17005KT 10SM BKN110 16/04 A3009 RMK T01600040 MADISHF
IND,2020-04-03 17:00,M,M,M,210.00,2.00,M,30.09,M,10.00,M,BKN,M,M,M,11000.00,M,M,M,M,M,M,M,M,M,M,M,KIND 031700Z AUTO 21002KT 10SM BKN110 16/04 A3009 RMK T01600040 VRB03KT  MADISHF
IND,2020-04-03 17:05,M,M,M,190.00,4.00,M,30.09,M,10.00,M,BKN,M,M,M,11000.00,M,M,M,M,M,M,M,M,M,M,M,KIND 031705Z AUTO 19004KT 10SM BKN110 16/04 A3009 RMK T01600040 MADISHF
IND,2020-04-03 17:10,M,M,M,M,M,M,30.09,M,10.00,M,BKN,M,M,M,11000.00,M,M,M,M,M,M,M,M,M,M,M,KIND 031710Z AUTO /////KT 10SM BKN110 16/04 A3009 RMK T01600040 MADISHF
IND,2020-04-03 17:15,M,M,M,M,M,M,30.09,M,10.00,M,BKN,M,M,M,11000.00,M,M,M,M,M,M,M,M,M,M,M,KIND 031715Z AUTO /////KT 10SM BKN110 17/04 A3009 RMK T01700040 MADISHF
IND,2020-04-03 17:20,M,M,M,M,M,M,30.09,M,10.00,M,BKN,M,M,M,11000.00,M,M,M,M,M,M,M,M,M,M,M,KIND 031720Z AUTO /////KT 10SM BKN110 17/03 A3009 RMK T01700030 MADISHF
IND,2020-04-03 17:25,M,M,M,160.00,2.00,M,30.08,M,10.00,M,BKN,M,M,M,11000.00,M,M,M,M,M,M,M,M,M,M,M,KIND 031725Z AUTO 16002KT 10SM BKN110 17/03 A3007 RMK T01700030 VRB03KT  MADISHF
IND,2020-04-03 17:30,M,M,M,190.00,2.00,M,30.08,M,10.00,M,BKN,M,M,M,11000.00,M,M,M,M,M,M,M,M,M,M,M,KIND 031730Z AUTO 19002KT 10SM BKN110 17/04 A3007 RMK T01700040 MADISHF
IND,2020-04-03 17:35,M,M,M,110.00,4.00,M,30.08,M,10.00,M,BKN,M,M,M,11000.00,M,M,M,M,M,M,M,M,M,M,M,KIND 031735Z AUTO 11004KT 10SM BKN110 17/03 A3007 RMK T01700030 MADISHF
IND,2020-04-03 17:40,M,M,M,0.00,0.00,M,30.07,M,10.00,M,BKN,M,M,M,11000.00,M,M,M,M,M,M,M,M,M,M,M,KIND 031740Z AUTO 00000KT 10SM BKN110 17/03 A3006 RMK T01700030 MADISHF
IND,2020-04-03 17:45,M,M,M,0.00,0.00,M,30.07,M,10.00,M,BKN,M,M,M,11000.00,M,M,M,M,M,M,M,M,M,M,M,KIND 031745Z AUTO 00000KT 10SM BKN110 17/03 A3006 RMK T01700030 MADISHF
IND,2020-04-03 17:50,M,M,M,170.00,2.00,M,30.07,M,10.00,M,BKN,M,M,M,11000.00,M,M,M,M,M,M,M,M,M,M,M,KIND 031750Z AUTO 17002KT 10SM BKN110 18/04 A3006 RMK T01800040 MADISHF
IND,2020-04-03 17:54,64.00,37.00,36.68,0.00,0.00,0.00,30.07,1018.20,10.00,M,BKN,BKN,M,M,11000.00,13000.00,M,M,M,M,M,M,M,M,M,M,KIND 031754Z 00000KT 10SM BKN110 BKN130 18/03 A3007 RMK AO2 SLP182 T01780028 10178 20089 58013
IND,2020-04-03 17:55,M,M,M,0.00,0.00,M,30.07,M,10.00,M,SCT,M,M,M,11000.00,M,M,M,M,M,M,M,M,M,M,M,KIND 031755Z AUTO 00000KT 10SM SCT110 18/03 A3006 RMK T01800030 MADISHF
IND,2020-04-03 18:00,M,M,M,0.00,0.00,M,30.07,M,10.00,M,SCT,M,M,M,11000.00,M,M,M,M,M,M,M,M,M,M,M,KIND 031800Z AUTO 00000KT 10SM SCT110 18/03 A3006 RMK T01800030 MADISHF
IND,2020-04-03 18:05,M,M,M,0.00,0.00,M,30.07,M,10.00,M,SCT,M,M,M,11000.00,M,M,M,M,M,M,M,M,M,M,M,KIND 031805Z AUTO 00000KT 10SM SCT110 17/02 A3006 RMK T01700020 MADISHF
IND,2020-04-03 18:10,M,M,M,0.00,0.00,M,30.06,M,10.00,M,SCT,M,M,M,11000.00,M,M,M,M,M,M,M,M,M,M,M,KIND 031810Z AUTO 00000KT 10SM SCT110 18/02 A3005 RMK T01800020 VRB04KT  MADISHF
IND,2020-04-03 18:15,M,M,M,0.00,0.00,M,30.06,M,10.00,M,SCT,M,M,M,11000.00,M,M,M,M,M,M,M,M,M,M,M,KIND 031815Z AUTO 00000KT 10SM SCT110 18/03 A3005 RMK T01800030 VRB03KT  MADISHF
IND,2020-04-03 18:20,M,M,M,0.00,0.00,M,30.06,M,10.00,M,SCT,M,M,M,11000.00,M,M,M,M,M,M,M,M,M,M,M,KIND 031820Z AUTO 00000KT 10SM SCT110 19/04 A3005 RMK T01900040 MADISHF
IND,2020-04-03 18:25,M,M,M,0.00,0.00,M,30.06,M,10.00,M,SCT,M,M,M,11000.00,M,M,M,M,M,M,M,M,M,M,M,KIND 031825Z AUTO 00000KT 10SM SCT110 18/04 A3005 RMK T01800040 MADISHF
IND,2020-04-03 18:30,M,M,M,0.00,0.00,M,30.06,M,10.00,M,SCT,M,M,M,11000.00,M,M,M,M,M,M,M,M,M,M,M,KIND 031830Z AUTO 00000KT 10SM SCT110 18/04 A3005 RMK T01800040 VRB04KT  MADISHF
IND,2020-04-03 18:35,M,M,M,0.00,0.00,M,30.06,M,10.00,M,SCT,M,M,M,11000.00,M,M,M,M,M,M,M,M,M,M,M,KIND 031835Z AUTO 00000KT 10SM SCT110 18/03 A3005 RMK T01800030 MADISHF
IND,2020-04-03 18:40,M,M,M,0.00,0.00,M,30.05,M,10.00,M,SCT,M,M,M,11000.00,M,M,M,M,M,M,M,M,M,M,M,KIND 031840Z AUTO 00000KT 10SM SCT110 19/04 A3004 RMK T01900040 MADISHF
IND,2020-04-03 18:45,M,M,M,0.00,0.00,M,30.06,M,10.00,M,SCT,M,M,M,11000.00,M,M,M,M,M,M,M,M,M,M,M,KIND 031845Z AUTO 00000KT 10SM SCT110 18/03 A3005 RMK T01800030 MADISHF
IND,2020-04-03 18:50,M,M,M,0.00,0.00,M,30.06,M,10.00,M,SCT,M,M,M,11000.00,M,M,M,M,M,M,M,M,M,M,M,KIND 031850Z AUTO 00000KT 10SM SCT110 19/04 A3005 RMK T01900040 MADISHF
IND,2020-04-03 18:54,66.00,39.00,37.00,60.00,3.00,0.00,30.05,1017.60,10.00,M,FEW,SCT,M,M,11000.00,13000.00,M,M,M,M,M,M,M,M,M,M,KIND 031854Z 06003KT 10SM FEW110 SCT130 19/04 A3005 RMK AO2 SLP176 T01890039
IND,2020-04-03 18:55,M,M,M,60.00,2.00,M,30.05,M,10.00,30.00,FEW,M,M,M,11000.00,M,M,M,M,M,M,M,M,M,M,M,KIND 031855Z AUTO 06002G30KT 10SM FEW110 19/03 A3004 RMK T01900030 MADISHF
IND,2020-04-03 19:00,M,M,M,60.00,2.00,M,30.05,M,10.00,30.00,FEW,M,M,M,11000.00,M,M,M,M,M,M,M,M,M,M,M,KIND 031900Z AUTO 06002G30KT 10SM FEW110 19/03 A3004 RMK T01900030 MADISHF
IND,2020-04-03 19:05,M,M,M,60.00,2.00,M,30.05,M,10.00,30.00,FEW,M,M,M,11000.00,M,M,M,M,M,M,M,M,M,M,M,KIND 031905Z AUTO 06002G30KT 10SM FEW110 19/03 A3004 RMK T01900030 MADISHF
IND,2020-04-03 19:10,M,M,M,60.00,2.00,M,30.05,M,10.00,30.00,FEW,M,M,M,11000.00,M,M,M,M,M,M,M,M,M,M,M,KIND 031910Z AUTO 06002G30KT 10SM FEW110 19/03 A3004 RMK T01900030 MADISHF
IND,2020-04-03 19:15,M,M,M,60.00,2.00,M,30.05,M,10.00,30.00,FEW,M,M,M,11000.00,M,M,M,M,M,M,M,M,M,M,M,KIND 031915Z AUTO 06002G30KT 10SM FEW110 19/04 A3004 RMK T01900040 MADISHF
IND,2020-04-03 19:20,M,M,M,60.00,2.00,M,30.05,M,10.00,30.00,FEW,M,M,M,11000.00,M,M,M,M,M,M,M,M,M,M,M,KIND 031920Z AUTO 06002G30KT 10SM FEW110 19/03 A3004 RMK T01900030 MADISHF
IND,2020-04-03 19:25,M,M,M,60.00,2.00,M,30.04,M,10.00,30.00,FEW,M,M,M,11000.00,M,M,M,M,M,M,M,M,M,M,M,KIND 031925Z AUTO 06002G30KT 10SM FEW110 19/03 A3004 RMK T01900030 MADISHF
IND,2020-04-03 19:30,M,M,M,60.00,2.00,M,30.04,M,10.00,30.00,FEW,M,M,M,11000.00,M,M,M,M,M,M,M,M,M,M,M,KIND 031930Z AUTO 06002G30KT 10SM FEW110 19/04 A3004 RMK T01900040 VRB05KT  MADISHF
IND,2020-04-03 19:35,M,M,M,60.00,2.00,M,30.04,M,10.00,30.00,FEW,M,M,M,11000.00,M,M,M,M,M,M,M,M,M,M,M,KIND 031935Z AUTO 06002G30KT 10SM FEW110 19/03 A3004 RMK T01900030 MADISHF
IND,2020-04-03 19:40,M,M,M,60.00,2.00,M,30.04,M,10.00,30.00,FEW,M,M,M,11000.00,M,M,M,M,M,M,M,M,M,M,M,KIND 031940Z AUTO 06002G30KT 10SM FEW110 19/03 A3004 RMK T01900030 VRB03KT  MADISHF
IND,2020-04-03 19:45,M,M,M,60.00,2.00,M,30.03,M,10.00,30.00,FEW,M,M,M,11000.00,M,M,M,M,M,M,M,M,M,M,M,KIND 031945Z AUTO 06002G30KT 10SM FEW110 19/04 A3003 RMK T01900040 MADISHF
IND,2020-04-03 19:50,M,M,M,0.00,0.00,M,30.03,M,10.00,M,BKN,M,M,M,9000.00,M,M,M,M,M,M,M,M,M,M,M,KIND 031950Z AUTO 00000KT 10SM BKN090 19/03 A3003 RMK T01900030 MADISHF
IND,2020-04-03 19:54,66.00,39.00,37.00,M,3.00,0.00,30.03,1016.80,10.00,M,BKN,M,M,M,9000.00,M,M,M,M,M,M,M,M,M,M,M,KIND 031954Z VRB03KT 10SM BKN090 19/04 A3003 RMK AO2 SLP168 T01890039
IND,2020-04-03 19:55,M,M,M,0.00,0.00,M,30.03,M,10.00,M,BKN,M,M,M,9000.00,M,M,M,M,M,M,M,M,M,M,M,KIND 031955Z AUTO 00000KT 10SM BKN090 19/04 A3003 RMK T01900040 MADISHF
IND,2020-04-03 20:00,M,M,M,0.00,0.00,M,30.03,M,10.00,M,BKN,M,M,M,9000.00,M,M,M,M,M,M,M,M,M,M,M,KIND 032000Z AUTO 00000KT 10SM BKN090 20/04 A3003 RMK T02000040 MADISHF
IND,2020-04-03 20:05,M,M,M,0.00,0.00,M,30.03,M,10.00,M,BKN,M,M,M,9000.00,M,M,M,M,M,M,M,M,M,M,M,KIND 032005Z AUTO 00000KT 10SM BKN090 21/04 A3003 RMK T02100040 MADISHF
IND,2020-04-03 20:10,M,M,M,150.00,2.00,M,30.02,M,10.00,M,BKN,M,M,M,9000.00,M,M,M,M,M,M,M,M,M,M,M,KIND 032010Z AUTO 15002KT 10SM BKN090 20/04 A3002 RMK T02000040 MADISHF
IND,2020-04-03 20:15,M,M,M,50.00,2.00,M,30.02,M,10.00,M,BKN,M,M,M,8500.00,M,M,M,M,M,M,M,M,M,M,M,KIND 032015Z AUTO 05002KT 10SM BKN085 20/04 A3002 RMK T02000040 MADISHF
IND,2020-04-03 20:20,M,M,M,80.00,5.00,M,30.02,M,10.00,M,BKN,M,M,M,8500.00,M,M,M,M,M,M,M,M,M,M,M,KIND 032020Z AUTO 08005KT 10SM BKN085 20/05 A3002 RMK T02000050 VRB06KT  MADISHF
IND,2020-04-03 20:25,M,M,M,80.00,5.00,M,30.02,M,10.00,M,BKN,M,M,M,7999.00,M,M,M,M,M,M,M,M,M,M,M,KIND 032025Z AUTO 08005KT 10SM BKN079 20/04 A3002 RMK T02000040 MADISHF
IND,2020-04-03 20:30,M,M,M,50.00,4.00,M,30.02,M,10.00,M,BKN,M,M,M,7999.00,M,M,M,M,M,M,M,M,M,M,M,KIND 032030Z AUTO 05004KT 10SM BKN079 19/04 A3002 RMK T01900040 MADISHF
IND,2020-04-03 20:35,M,M,M,0.00,0.00,M,30.02,M,10.00,M,SCT,M,M,M,8500.00,M,M,M,M,M,M,M,M,M,M,M,KIND 032035Z AUTO 00000KT 10SM SCT085 20/04 A3002 RMK T02000040 MADISHF
IND,2020-04-03 20:40,M,M,M,60.00,4.00,M,30.02,M,10.00,M,SCT,M,M,M,8500.00,M,M,M,M,M,M,M,M,M,M,M,KIND 032040Z AUTO 06004KT 10SM SCT085 21/04 A3002 RMK T02100040 VRB04KT  MADISHF
IND,2020-04-03 20:45,M,M,M,70.00,5.00,M,30.01,M,10.00,M,SCT,M,M,M,8500.00,M,M,M,M,M,M,M,M,M,M,M,KIND 032045Z AUTO 07005KT 10SM SCT085 19/04 A3001 RMK T01900040 MADISHF
IND,2020-04-03 20:50,M,M,M,0.00,0.00,M,30.02,M,10.00,M,SCT,M,M,M,8500.00,M,M,M,M,M,M,M,M,M,M,M,KIND 032050Z AUTO 00000KT 10SM SCT085 19/04 A3002 RMK T01900040 MADISHF
IND,2020-04-03 20:54,68.00,39.90,35.76,0.00,0.00,0.00,30.02,1016.30,10.00,M,SCT,M,M,M,8500.00,M,M,M,M,M,M,M,M,M,M,M,KIND 032054Z 00000KT 10SM SCT085 20/04 A3002 RMK AO2 SLP163 T02000044 56019
IND,2020-04-03 20:55,M,M,M,M,M,M,30.01,M,10.00,M,SCT,M,M,M,8500.00,M,M,M,M,M,M,M,M,M,M,M,KIND 032055Z AUTO /////KT 10SM SCT085 20/04 A3001 RMK T02000040 MADISHF
IND,2020-04-03 21:00,M,M,M,0.00,0.00,M,30.01,M,10.00,M,SCT,M,M,M,8500.00,M,M,M,M,M,M,M,M,M,M,M,KIND 032100Z AUTO 00000KT 10SM SCT085 19/04 A3001 RMK T01900040 MADISHF
IND,2020-04-03 21:05,M,M,M,0.00,0.00,M,30.01,M,10.00,M,SCT,M,M,M,8500.00,M,M,M,M,M,M,M,M,M,M,M,KIND 032105Z AUTO 00000KT 10SM SCT085 19/04 A3001 RMK T01900040 MADISHF
IND,2020-04-03 21:10,M,M,M,0.00,0.00,M,30.01,M,10.00,M,SCT,M,M,M,8500.00,M,M,M,M,M,M,M,M,M,M,M,KIND 032110Z AUTO 00000KT 10SM SCT085 20/04 A3001 RMK T02000040 VRB04KT  MADISHF
IND,2020-04-03 21:15,M,M,M,0.00,0.00,M,30.01,M,10.00,M,SCT,M,M,M,8500.00,M,M,M,M,M,M,M,M,M,M,M,KIND 032115Z AUTO 00000KT 10SM SCT085 20/04 A3001 RMK T02000040 VRB04KT  MADISHF
IND,2020-04-03 21:20,M,M,M,0.00,0.00,M,30.01,M,10.00,M,SCT,M,M,M,8500.00,M,M,M,M,M,M,M,M,M,M,M,KIND 032120Z AUTO 00000KT 10SM SCT085 19/06 A3001 RMK T01900060 MADISHF
IND,2020-04-03 21:25,M,M,M,0.00,0.00,M,30.01,M,10.00,M,SCT,M,M,M,8500.00,M,M,M,M,M,M,M,M,M,M,M,KIND 032125Z AUTO 00000KT 10SM SCT085 19/05 A3001 RMK T01900050 VRB05KT  MADISHF
IND,2020-04-03 21:30,M,M,M,0.00,0.00,M,30.01,M,10.00,M,SCT,M,M,M,8500.00,M,M,M,M,M,M,M,M,M,M,M,KIND 032130Z AUTO 00000KT 10SM SCT085 19/04 A3001 RMK T01900040 MADISHF
IND,2020-04-03 21:35,M,M,M,0.00,0.00,M,30.01,M,10.00,M,SCT,M,M,M,8500.00,M,M,M,M,M,M,M,M,M,M,M,KIND 032135Z AUTO 00000KT 10SM SCT085 19/05 A3001 RMK T01900050 MADISHF
IND,2020-04-03 21:40,M,M,M,0.00,0.00,M,30.01,M,10.00,M,SCT,M,M,M,8500.00,M,M,M,M,M,M,M,M,M,M,M,KIND 032140Z AUTO 00000KT 10SM SCT085 19/05 A3001 RMK T01900050 VRB03KT  MADISHF
IND,2020-04-03 21:45,M,M,M,0.00,0.00,M,30.01,M,10.00,M,SCT,M,M,M,8500.00,M,M,M,M,M,M,M,M,M,M,M,KIND 032145Z AUTO 00000KT 10SM SCT085 19/04 A3001 RMK T01900040 MADISHF
IND,2020-04-03 21:50,M,M,M,0.00,0.00,M,30.01,M,10.00,M,SCT,M,M,M,9000.00,M,M,M,M,M,M,M,M,M,M,M,KIND 032150Z AUTO 00000KT 10SM SCT090 19/04 A3001 RMK T01900040 VRB03KT  MADISHF
IND,2020-04-03 21:54,66.90,39.00,35.86,100.00,8.00,0.00,30.01,1016.00,10.00,M,SCT,M,M,M,9000.00,M,M,M,M,M,M,M,M,M,M,M,KIND 032154Z 10008KT 10SM SCT090 19/04 A3001 RMK AO2 SLP160 T01940039
IND,2020-04-03 21:55,M,M,M,100.00,7.00,M,30.01,M,10.00,M,SCT,M,M,M,9000.00,M,M,M,M,M,M,M,M,M,M,M,KIND 032155Z AUTO 10007KT 10SM SCT090 19/04 A3001 RMK T01900040 MADISHF
IND,2020-04-03 22:00,M,M,M,110.00,7.00,M,30.01,M,10.00,M,SCT,M,M,M,9000.00,M,M,M,M,M,M,M,M,M,M,M,KIND 032200Z AUTO 11007KT 10SM SCT090 19/04 A3001 RMK T01900040 MADISHF
IND,2020-04-03 22:05,M,M,M,110.00,7.00,M,30.01,M,10.00,30.00,SCT,M,M,M,9000.00,M,M,M,M,M,M,M,M,M,M,M,KIND 032205Z AUTO 11007G30KT 10SM SCT090 19/04 A3001 RMK T01900040 MADISHF
IND,2020-04-03 22:10,M,M,M,110.00,7.00,M,30.01,M,10.00,30.00,SCT,M,M,M,9000.00,M,M,M,M,M,M,M,M,M,M,M,KIND 032210Z AUTO 11007G30KT 10SM SCT090 19/04 A3001 RMK T01900040 MADISHF
IND,2020-04-03 22:15,M,M,M,110.00,7.00,M,30.01,M,10.00,30.00,SCT,M,M,M,9000.00,M,M,M,M,M,M,M,M,M,M,M,KIND 032215Z AUTO 11007G30KT 10SM SCT090 19/04 A3001 RMK T01900040 MADISHF
IND,2020-04-03 22:20,M,M,M,110.00,7.00,M,30.01,M,10.00,30.00,SCT,M,M,M,9000.00,M,M,M,M,M,M,M,M,M,M,M,KIND 032220Z AUTO 11007G30KT 10SM SCT090 19/04 A3001 RMK T01900040 MADISHF
IND,2020-04-03 22:25,M,M,M,110.00,7.00,M,30.01,M,10.00,30.00,SCT,M,M,M,9000.00,M,M,M,M,M,M,M,M,M,M,M,KIND 032225Z AUTO 11007G30KT 10SM SCT090 19/04 A3001 RMK T01900040 MADISHF
IND,2020-04-03 22:30,M,M,M,120.00,5.00,M,30.01,M,10.00,M,SCT,M,M,M,9000.00,M,M,M,M,M,M,M,M,M,M,M,KIND 032230Z AUTO 12005KT 10SM SCT090 18/04 A3001 RMK T01800040 MADISHF
IND,2020-04-03 22:35,M,M,M,120.00,5.00,M,30.01,M,10.00,M,BKN,M,M,M,9000.00,M,M,M,M,M,M,M,M,M,M,M,KIND 032235Z AUTO 12005KT 10SM BKN090 18/05 A3001 RMK T01800050 MADISHF
IND,2020-04-03 22:40,M,M,M,120.00,5.00,M,30.01,M,10.00,M,BKN,M,M,M,9000.00,M,M,M,M,M,M,M,M,M,M,M,KIND 032240Z AUTO 12005KT 10SM BKN090 18/05 A3001 RMK T01800050 MADISHF
IND,2020-04-03 22:45,M,M,M,120.00,5.00,M,30.00,M,10.00,M,BKN,M,M,M,9000.00,M,M,M,M,M,M,M,M,M,M,M,KIND 032245Z AUTO 12005KT 10SM BKN090 18/06 A3000 RMK T01800060 MADISHF
IND,2020-04-03 22:50,M,M,M,110.00,5.00,M,30.01,M,10.00,M,BKN,M,M,M,9000.00,M,M,M,M,M,M,M,M,M,M,M,KIND 032250Z AUTO 11005KT 10SM BKN090 18/06 A3001 RMK T01800060 MADISHF
IND,2020-04-03 22:54,64.90,43.00,44.88,130.00,5.00,0.00,30.01,1016.00,10.00,M,BKN,M,M,M,9000.00,M,M,M,M,M,M,M,M,M,M,M,KIND 032254Z 13005KT 10SM BKN090 18/06 A3001 RMK AO2 SLP160 T01830061
IND,2020-04-03 22:55,M,M,M,130.00,5.00,M,30.01,M,10.00,M,BKN,M,M,M,9000.00,M,M,M,M,M,M,M,M,M,M,M,KIND 032255Z AUTO 13005KT 10SM BKN090 18/06 A3001 RMK T01800060 MADISHF
IND,2020-04-03 23:00,M,M,M,120.00,7.00,M,30.00,M,10.00,M,BKN,M,M,M,9000.00,M,M,M,M,M,M,M,M,M,M,M,KIND 032300Z AUTO 12007KT 10SM BKN090 18/06 A3000 RMK T01800060 MADISHF
IND,2020-04-03 23:05,M,M,M,110.00,7.00,M,30.00,M,10.00,M,BKN,M,M,M,9000.00,M,M,M,M,M,M,M,M,M,M,M,KIND 032305Z AUTO 11007KT 10SM BKN090 19/06 A3000 RMK T01900060 MADISHF
IND,2020-04-03 23:10,M,M,M,100.00,7.00,M,30.00,M,10.00,M,BKN,M,M,M,9000.00,M,M,M,M,M,M,M,M,M,M,M,KIND 032310Z AUTO 10007KT 10SM BKN090 19/05 A3000 RMK T01900050 MADISHF
IND,2020-04-03 23:15,M,M,M,90.00,5.00,M,30.00,M,10.00,M,BKN,M,M,M,9000.00,M,M,M,M,M,M,M,M,M,M,M,KIND 032315Z AUTO 09005KT 10SM BKN090 19/05 A3000 RMK T01900050 MADISHF
IND,2020-04-03 23:20,M,M,M,90.00,7.00,M,30.00,M,10.00,M,BKN,M,M,M,9000.00,M,M,M,M,M,M,M,M,M,M,M,KIND 032320Z AUTO 09007KT 10SM BKN090 19/05 A3000 RMK T01900050 MADISHF
IND,2020-04-03 23:25,M,M,M,90.00,5.00,M,30.00,M,10.00,M,BKN,M,M,M,9000.00,M,M,M,M,M,M,M,M,M,M,M,KIND 032325Z AUTO 09005KT 10SM BKN090 19/04 A3000 RMK T01900040 MADISHF
IND,2020-04-03 23:30,M,M,M,100.00,5.00,M,30.00,M,10.00,M,BKN,M,M,M,9000.00,M,M,M,M,M,M,M,M,M,M,M,KIND 032330Z AUTO 10005KT 10SM BKN090 18/06 A3000 RMK T01800060 MADISHF
IND,2020-04-03 23:35,M,M,M,120.00,5.00,M,30.00,M,10.00,M,BKN,M,M,M,9000.00,M,M,M,M,M,M,M,M,M,M,M,KIND 032335Z AUTO 12005KT 10SM BKN090 18/06 A3000 RMK T01800060 MADISHF
IND,2020-04-03 23:40,M,M,M,120.00,7.00,M,30.00,M,10.00,M,BKN,M,M,M,9000.00,M,M,M,M,M,M,M,M,M,M,M,KIND 032340Z AUTO 12007KT 10SM BKN090 17/06 A3000 RMK T01700060 MADISHF
IND,2020-04-03 23:45,M,M,M,120.00,5.00,M,30.00,M,10.00,M,BKN,M,M,M,9000.00,M,M,M,M,M,M,M,M,M,M,M,KIND 032345Z AUTO 12005KT 10SM BKN090 17/05 A3000 RMK T01700050 MADISHF
IND,2020-04-03 23:50,M,M,M,110.00,5.00,M,30.00,M,10.00,M,BKN,M,M,M,9000.00,M,M,M,M,M,M,M,M,M,M,M,KIND 032350Z AUTO 11005KT 10SM BKN090 17/06 A3000 RMK T01700060 MADISHF
IND,2020-04-03 23:54,62.10,42.10,47.83,100.00,7.00,0.00,30.00,1015.90,10.00,M,BKN,M,M,M,9000.00,M,M,M,M,M,M,M,M,M,M,M,KIND 032354Z 10007KT 10SM BKN090 17/06 A3000 RMK AO2 SLP159 T01670056 10206 20167 56004
IND,2020-04-03 23:55,M,M,M,90.00,5.00,M,30.00,M,10.00,M,BKN,M,M,M,9000.00,M,M,M,M,M,M,M,M,M,M,M,KIND 032355Z AUTO 09005KT 10SM BKN090 17/05 A3000 RMK T01700050 MADISHF
IND,2020-04-04 00:00,M,M,M,90.00,7.00,M,30.00,M,10.00,M,BKN,M,M,M,9000.00,M,M,M,M,M,M,M,M,M,M,M,KIND 040000Z AUTO 09007KT 10SM BKN090 17/05 A3000 RMK T01700050 MADISHF
IND,2020-04-04 00:05,M,M,M,110.00,5.00,M,30.00,M,10.00,M,BKN,M,M,M,9000.00,M,M,M,M,M,M,M,M,M,M,M,KIND 040005Z AUTO 11005KT 10SM BKN090 17/05 A3000 RMK T01700050 MADISHF
IND,2020-04-04 00:10,M,M,M,100.00,7.00,M,30.00,M,10.00,M,BKN,M,M,M,9000.00,M,M,M,M,M,M,M,M,M,M,M,KIND 040010Z AUTO 10007KT 10SM BKN090 17/05 A3000 RMK T01700050 MADISHF
IND,2020-04-04 00:15,M,M,M,100.00,7.00,M,30.00,M,10.00,M,BKN,M,M,M,9000.00,M,M,M,M,M,M,M,M,M,M,M,KIND 040015Z AUTO 10007KT 10SM BKN090 17/05 A3000 RMK T01700050 MADISHF
IND,2020-04-04 00:20,M,M,M,100.00,7.00,M,30.00,M,10.00,M,BKN,M,M,M,9000.00,M,M,M,M,M,M,M,M,M,M,M,KIND 040020Z AUTO 10007KT 10SM BKN090 17/05 A3000 RMK T01700050 MADISHF
IND,2020-04-04 00:25,M,M,M,110.00,5.00,M,30.00,M,10.00,M,BKN,M,M,M,9000.00,M,M,M,M,M,M,M,M,M,M,M,KIND 040025Z AUTO 11005KT 10SM BKN090 16/06 A3000 RMK T01600060 MADISHF
IND,2020-04-04 00:30,M,M,M,100.00,5.00,M,30.00,M,10.00,M,BKN,M,M,M,9000.00,M,M,M,M,M,M,M,M,M,M,M,KIND 040030Z AUTO 10005KT 10SM BKN090 16/06 A3000 RMK T01600060 MADISHF
IND,2020-04-04 00:35,M,M,M,100.00,5.00,M,30.00,M,10.00,M,BKN,M,M,M,9000.00,M,M,M,M,M,M,M,M,M,M,M,KIND 040035Z AUTO 10005KT 10SM BKN090 17/05 A3000 RMK T01700050 MADISHF
IND,2020-04-04 00:40,M,M,M,100.00,5.00,M,30.00,M,10.00,M,BKN,M,M,M,9000.00,M,M,M,M,M,M,M,M,M,M,M,KIND 040040Z AUTO 10005KT 10SM BKN090 17/05 A3000 RMK T01700050 MADISHF
IND,2020-04-04 00:45,M,M,M,100.00,5.00,M,30.00,M,10.00,M,BKN,M,M,M,9000.00,M,M,M,M,M,M,M,M,M,M,M,KIND 040045Z AUTO 10005KT 10SM BKN090 17/06 A3000 RMK T01700060 MADISHF
IND,2020-04-04 00:50,M,M,M,100.00,5.00,M,30.01,M,10.00,M,BKN,M,M,M,9000.00,M,M,M,M,M,M,M,M,M,M,M,KIND 040050Z AUTO 10005KT 10SM BKN090 17/06 A3001 RMK T01700060 MADISHF
IND,2020-04-04 00:54,61.00,42.10,49.73,110.00,4.00,0.00,30.01,1016.10,10.00,M,BKN,BKN,M,M,9000.00,13000.00,M,M,M,M,M,M,M,M,M,M,KIND 040054Z 11004KT 10SM BKN090 BKN130 16/06 A3001 RMK AO2 SLP161 T01610056
IND,2020-04-04 00:55,M,M,M,110.00,4.00,M,30.01,M,10.00,M,BKN,M,M,M,9000.00,M,M,M,M,M,M,M,M,M,M,M,KIND 040055Z AUTO 11004KT 10SM BKN090 16/06 A3001 RMK T01600060 MADISHF
IND,2020-04-04 01:00,M,M,M,100.00,5.00,M,30.01,M,10.00,M,BKN,M,M,M,9000.00,M,M,M,M,M,M,M,M,M,M,M,KIND 040100Z AUTO 10005KT 10SM BKN090 16/06 A3001 RMK T01600060 MADISHF
IND,2020-04-04 01:05,M,M,M,100.00,5.00,M,30.01,M,10.00,M,BKN,M,M,M,9000.00,M,M,M,M,M,M,M,M,M,M,M,KIND 040105Z AUTO 10005KT 10SM BKN090 16/06 A3001 RMK T01600060 MADISHF
IND,2020-04-04 01:10,M,M,M,100.00,5.00,M,30.01,M,10.00,M,BKN,M,M,M,9000.00,M,M,M,M,M,M,M,M,M,M,M,KIND 040110Z AUTO 10005KT 10SM BKN090 17/06 A3001 RMK T01700060 MADISHF
IND,2020-04-04 01:15,M,M,M,90.00,5.00,M,30.01,M,10.00,M,BKN,M,M,M,9000.00,M,M,M,M,M,M,M,M,M,M,M,KIND 040115Z AUTO 09005KT 10SM BKN090 17/06 A3001 RMK T01700060 MADISHF
IND,2020-04-04 01:20,M,M,M,90.00,5.00,M,30.01,M,10.00,M,BKN,M,M,M,9000.00,M,M,M,M,M,M,M,M,M,M,M,KIND 040120Z AUTO 09005KT 10SM BKN090 17/06 A3001 RMK T01700060 MADISHF
IND,2020-04-04 01:25,M,M,M,90.00,5.00,M,30.01,M,10.00,M,BKN,M,M,M,9000.00,M,M,M,M,M,M,M,M,M,M,M,KIND 040125Z AUTO 09005KT 10SM BKN090 16/06 A3001 RMK T01600060 MADISHF
IND,2020-04-04 01:30,M,M,M,90.00,5.00,M,30.01,M,10.00,M,BKN,M,M,M,9000.00,M,M,M,M,M,M,M,M,M,M,M,KIND 040130Z AUTO 09005KT 10SM BKN090 16/06 A3001 RMK T01600060 MADISHF
IND,2020-04-04 01:35,M,M,M,90.00,5.00,M,30.01,M,10.00,M,SCT,M,M,M,9000.00,M,M,M,M,M,M,M,M,M,M,M,KIND 040135Z AUTO 09005KT 10SM SCT090 16/06 A3001 RMK T01600060 MADISHF
IND,2020-04-04 01:40,M,M,M,90.00,5.00,M,30.01,M,10.00,M,SCT,M,M,M,9000.00,M,M,M,M,M,M,M,M,M,M,M,KIND 040140Z AUTO 09005KT 10SM SCT090 16/06 A3001 RMK T01600060 MADISHF
IND,2020-04-04 01:45,M,M,M,100.00,5.00,M,30.01,M,10.00,M,SCT,M,M,M,9000.00,M,M,M,M,M,M,M,M,M,M,M,KIND 040145Z AUTO 10005KT 10SM SCT090 16/06 A3001 RMK T01600060 MADISHF
IND,2020-04-04 01:50,M,M,M,90.00,5.00,M,30.01,M,10.00,M,SCT,M,M,M,7999.00,M,M,M,M,M,M,M,M,M,M,M,KIND 040150Z AUTO 09005KT 10SM SCT079 16/06 A3001 RMK T01600060 MADISHF
IND,2020-04-04 01:54,61.00,42.10,49.73,90.00,5.00,0.00,30.01,1016.20,10.00,M,SCT,BKN,M,M,8000.00,12000.00,M,M,M,M,M,M,M,M,M,M,KIND 040154Z 09005KT 10SM SCT080 BKN120 16/06 A3001 RMK AO2 SLP162 T01610056
IND,2020-04-04 01:55,M,M,M,90.00,5.00,M,30.01,M,10.00,M,SCT,BKN,M,M,7999.00,12000.00,M,M,M,M,M,M,M,M,M,M,KIND 040155Z AUTO 09005KT 10SM SCT079 BKN120 16/06 A3001 RMK T01600060 MADISHF
IND,2020-04-04 02:00,M,M,M,90.00,5.00,M,30.01,M,10.00,M,SCT,BKN,M,M,7999.00,12000.00,M,M,M,M,M,M,M,M,M,M,KIND 040200Z AUTO 09005KT 10SM SCT079 BKN120 16/05 A3001 RMK T01600050 MADISHF
IND,2020-04-04 02:05,M,M,M,90.00,5.00,M,30.01,M,10.00,M,SCT,BKN,M,M,7999.00,12000.00,M,M,M,M,M,M,M,M,M,M,KIND 040205Z AUTO 09005KT 10SM SCT079 BKN120 16/05 A3001 RMK T01600050 MADISHF
IND,2020-04-04 02:10,M,M,M,100.00,5.00,M,30.02,M,10.00,M,SCT,BKN,M,M,7999.00,12000.00,M,M,M,M,M,M,M,M,M,M,KIND 040210Z AUTO 10005KT 10SM SCT079 BKN120 16/06 A3002 RMK T01600060 MADISHF
IND,2020-04-04 02:15,M,M,M,100.00,4.00,M,30.02,M,10.00,M,SCT,BKN,M,M,7999.00,12000.00,M,M,M,M,M,M,M,M,M,M,KIND 040215Z AUTO 10004KT 10SM SCT079 BKN120 16/06 A3002 RMK T01600060 MADISHF
IND,2020-04-04 02:20,M,M,M,100.00,4.00,M,30.02,M,10.00,M,SCT,BKN,M,M,7999.00,12000.00,M,M,M,M,M,M,M,M,M,M,KIND 040220Z AUTO 10004KT 10SM SCT079 BKN120 16/06 A3002 RMK T01600060 MADISHF
IND,2020-04-04 02:25,M,M,M,100.00,4.00,M,30.02,M,10.00,M,SCT,BKN,M,M,7999.00,12000.00,M,M,M,M,M,M,M,M,M,M,KIND 040225Z AUTO 10004KT 10SM SCT079 BKN120 16/05 A3002 RMK T01600050 MADISHF
IND,2020-04-04 02:30,M,M,M,100.00,4.00,M,30.02,M,10.00,M,SCT,BKN,M,M,7999.00,12000.00,M,M,M,M,M,M,M,M,M,M,KIND 040230Z AUTO 10004KT 10SM SCT079 BKN120 16/05 A3002 RMK T01600050 MADISHF
IND,2020-04-04 02:35,M,M,M,100.00,4.00,M,30.02,M,10.00,M,SCT,BKN,M,M,7999.00,12000.00,M,M,M,M,M,M,M,M,M,M,KIND 040235Z AUTO 10004KT 10SM SCT079 BKN120 16/06 A3002 RMK T01600060 MADISHF
IND,2020-04-04 02:40,M,M,M,110.00,4.00,M,30.02,M,10.00,M,SCT,BKN,M,M,7999.00,12000.00,M,M,M,M,M,M,M,M,M,M,KIND 040240Z AUTO 11004KT 10SM SCT079 BKN120 16/06 A3002 RMK T01600060 MADISHF
IND,2020-04-04 02:45,M,M,M,100.00,5.00,M,30.02,M,10.00,M,SCT,BKN,M,M,7999.00,12000.00,M,M,M,M,M,M,M,M,M,M,KIND 040245Z AUTO 10005KT 10SM SCT079 BKN120 16/06 A3002 RMK T01600060 MADISHF
IND,2020-04-04 02:50,M,M,M,110.00,4.00,M,30.01,M,10.00,M,SCT,BKN,M,M,7999.00,12000.00,M,M,M,M,M,M,M,M,M,M,KIND 040250Z AUTO 11004KT 10SM SCT079 BKN120 16/06 A3001 RMK T01600060 MADISHF
IND,2020-04-04 02:54,59.00,43.00,55.28,110.00,4.00,0.00,30.01,1016.30,10.00,M,BKN,BKN,M,M,8000.00,12000.00,M,M,M,M,M,M,M,M,M,M,KIND 040254Z 11004KT 10SM BKN080 BKN120 15/06 A3001 RMK AO2 SLP163 T01500061 51004
IND,2020-04-04 02:55,M,M,M,120.00,4.00,M,30.01,M,10.00,M,BKN,BKN,M,M,7999.00,12000.00,M,M,M,M,M,M,M,M,M,M,KIND 040255Z AUTO 12004KT 10SM BKN079 BKN120 15/06 A3001 RMK T01500060 MADISHF
IND,2020-04-04 03:00,M,M,M,120.00,4.00,M,30.01,M,10.00,M,BKN,BKN,M,M,7999.00,12000.00,M,M,M,M,M,M,M,M,M,M,KIND 040300Z AUTO 12004KT 10SM BKN079 BKN120 15/06 A3001 RMK T01500060 MADISHF
IND,2020-04-04 03:05,M,M,M,120.00,2.00,M,30.01,M,10.00,M,BKN,BKN,M,M,7999.00,12000.00,M,M,M,M,M,M,M,M,M,M,KIND 040305Z AUTO 12002KT 10SM BKN079 BKN120 15/06 A3001 RMK T01500060 MADISHF
IND,2020-04-04 03:10,M,M,M,110.00,2.00,M,30.01,M,10.00,M,BKN,BKN,M,M,7999.00,12000.00,M,M,M,M,M,M,M,M,M,M,KIND 040310Z AUTO 11002KT 10SM BKN079 BKN120 16/06 A3001 RMK T01600060 MADISHF
IND,2020-04-04 03:15,M,M,M,110.00,2.00,M,30.01,M,10.00,M,BKN,BKN,M,M,7999.00,12000.00,M,M,M,M,M,M,M,M,M,M,KIND 040315Z AUTO 11002KT 10SM BKN079 BKN120 16/06 A3001 RMK T01600060 MADISHF
IND,2020-04-04 03:20,M,M,M,120.00,4.00,M,30.01,M,10.00,M,BKN,BKN,M,M,7999.00,12000.00,M,M,M,M,M,M,M,M,M,M,KIND 040320Z AUTO 12004KT 10SM BKN079 BKN120 16/06 A3001 RMK T01600060 MADISHF
IND,2020-04-04 03:25,M,M,M,110.00,4.00,M,30.01,M,10.00,M,BKN,BKN,M,M,7999.00,12000.00,M,M,M,M,M,M,M,M,M,M,KIND 040325Z AUTO 11004KT 10SM BKN079 BKN120 15/05 A3001 RMK T01500050 MADISHF
IND,2020-04-04 03:30,M,M,M,110.00,4.00,M,30.01,M,10.00,M,BKN,BKN,M,M,7999.00,12000.00,M,M,M,M,M,M,M,M,M,M,KIND 040330Z AUTO 11004KT 10SM BKN079 BKN120 15/05 A3001 RMK T01500050 MADISHF
IND,2020-04-04 03:35,M,M,M,120.00,5.00,M,30.01,M,10.00,M,BKN,BKN,M,M,7999.00,12000.00,M,M,M,M,M,M,M,M,M,M,KIND 040335Z AUTO 12005KT 10SM BKN079 BKN120 15/05 A3001 RMK T01500050 MADISHF
IND,2020-04-04 03:40,M,M,M,120.00,2.00,M,30.01,M,10.00,M,BKN,BKN,M,M,7999.00,12000.00,M,M,M,M,M,M,M,M,M,M,KIND 040340Z AUTO 12002KT 10SM BKN079 BKN120 16/05 A3001 RMK T01600050 MADISHF
IND,2020-04-04 03:45,M,M,M,110.00,2.00,M,30.01,M,10.00,M,BKN,BKN,M,M,7999.00,12000.00,M,M,M,M,M,M,M,M,M,M,KIND 040345Z AUTO 11002KT 10SM BKN079 BKN120 16/05 A3001 RMK T01600050 MADISHF
IND,2020-04-04 03:50,M,M,M,100.00,2.00,M,30.01,M,10.00,M,BKN,BKN,M,M,7999.00,12000.00,M,M,M,M,M,M,M,M,M,M,KIND 040350Z AUTO 10002KT 10SM BKN079 BKN120 15/05 A3001 RMK T01500050 MADISHF
IND,2020-04-04 03:54,59.00,42.10,53.40,100.00,3.00,0.00,30.01,1016.20,10.00,M,BKN,BKN,M,M,8000.00,12000.00,M,M,M,M,M,M,M,M,M,M,KIND 040354Z 10003KT 10SM BKN080 BKN120 15/06 A3001 RMK AO2 SLP162 T01500056
IND,2020-04-04 03:55,M,M,M,100.00,4.00,M,30.01,M,10.00,M,OVC,M,M,M,7999.00,M,M,M,M,M,M,M,M,M,M,M,KIND 040355Z AUTO 10004KT 10SM OVC079 15/06 A3001 RMK T01500060 MADISHF
IND,2020-04-04 04:00,M,M,M,100.00,4.00,M,30.01,M,10.00,M,OVC,M,M,M,7999.00,M,M,M,M,M,M,M,M,M,M,M,KIND 040400Z AUTO 10004KT 10SM OVC079 15/05 A3001 RMK T01500050 MADISHF
IND,2020-04-04 04:05,M,M,M,100.00,4.00,M,30.01,M,10.00,M,OVC,M,M,M,7999.00,M,M,M,M,M,M,M,M,M,M,M,KIND 040405Z AUTO 10004KT 10SM OVC079 15/06 A3001 RMK T01500060 MADISHF
IND,2020-04-04 04:10,M,M,M,100.00,5.00,M,30.01,M,10.00,M,OVC,M,M,M,7999.00,M,M,M,M,M,M,M,M,M,M,M,KIND 040410Z AUTO 10005KT 10SM OVC079 15/06 A3001 RMK T01500060 MADISHF
IND,2020-04-04 04:15,M,M,M,100.00,5.00,M,30.01,M,10.00,M,OVC,M,M,M,7999.00,M,M,M,M,M,M,M,M,M,M,M,KIND 040415Z AUTO 10005KT 10SM OVC079 14/06 A3001 RMK T01400060 MADISHF
IND,2020-04-04 04:20,M,M,M,90.00,5.00,M,30.01,M,10.00,M,OVC,M,M,M,7999.00,M,M,M,M,M,M,M,M,M,M,M,KIND 040420Z AUTO 09005KT 10SM OVC079 15/06 A3001 RMK T01500060 MADISHF
IND,2020-04-04 04:25,M,M,M,90.00,5.00,M,30.01,M,10.00,M,OVC,M,M,M,7999.00,M,M,M,M,M,M,M,M,M,M,M,KIND 040425Z AUTO 09005KT 10SM OVC079 15/06 A3001 RMK T01500060 MADISHF
IND,2020-04-04 04:30,M,M,M,100.00,4.00,M,30.01,M,10.00,M,OVC,M,M,M,7999.00,M,M,M,M,M,M,M,M,M,M,M,KIND 040430Z AUTO 10004KT 10SM OVC079 15/06 A3001 RMK T01500060 MADISHF
IND,2020-04-04 04:35,M,M,M,100.00,4.00,M,30.00,M,10.00,M,OVC,M,M,M,7999.00,M,M,M,M,M,M,M,M,M,M,M,KIND 040435Z AUTO 10004KT 10SM OVC079 14/06 A3000 RMK T01400060 MADISHF
IND,2020-04-04 04:40,M,M,M,100.00,4.00,M,30.00,M,10.00,M,OVC,M,M,M,7999.00,M,M,M,M,M,M,M,M,M,M,M,KIND 040440Z AUTO 10004KT 10SM OVC079 14/06 A3000 RMK T01400060 MADISHF
IND,2020-04-04 04:45,M,M,M,90.00,4.00,M,30.00,M,10.00,M,OVC,M,M,M,7999.00,M,M,M,M,M,M,M,M,M,M,M,KIND 040445Z AUTO 09004KT 10SM OVC079 14/06 A3000 RMK T01400060 MADISHF
IND,2020-04-04 04:50,M,M,M,90.00,5.00,M,30.00,M,10.00,M,BKN,M,M,M,7999.00,M,M,M,M,M,M,M,M,M,M,M,KIND 040450Z AUTO 09005KT 10SM BKN079 14/06 A3000 RMK T01400060 MADISHF
IND,2020-04-04 04:54,57.90,42.10,55.55,100.00,4.00,0.00,30.00,1015.80,10.00,M,BKN,M,M,M,8000.00,M,M,M,M,M,M,M,M,M,M,M,KIND 040454Z 10004KT 10SM BKN080 14/06 A3000 RMK AO2 SLP158 T01440056 402060083
IND,2020-04-04 04:55,M,M,M,100.00,5.00,M,30.00,M,10.00,M,OVC,M,M,M,7999.00,M,M,M,M,M,M,M,M,M,M,M,KIND 040455Z AUTO 10005KT 10SM OVC079 14/06 A3000 RMK T01400060 MADISHF
IND,2020-04-04 05:00,M,M,M,110.00,2.00,M,30.00,M,10.00,M,OVC,M,M,M,7999.00,M,M,M,M,M,M,M,M,M,M,M,KIND 040500Z AUTO 11002KT 10SM OVC079 14/06 A3000 RMK T01400060 MADISHF
IND,2020-04-04 05:05,M,M,M,110.00,4.00,M,30.00,M,10.00,M,OVC,M,M,M,7999.00,M,M,M,M,M,M,M,M,M,M,M,KIND 040505Z AUTO 11004KT 10SM OVC079 14/06 A3000 RMK T01400060 MADISHF
IND,2020-04-04 05:10,M,M,M,110.00,4.00,M,30.00,M,10.00,M,OVC,M,M,M,7999.00,M,M,M,M,M,M,M,M,M,M,M,KIND 040510Z AUTO 11004KT 10SM OVC079 14/06 A3000 RMK T01400060 MADISHF
IND,2020-04-04 05:15,M,M,M,110.00,5.00,M,30.00,M,10.00,M,OVC,M,M,M,7999.00,M,M,M,M,M,M,M,M,M,M,M,KIND 040515Z AUTO 11005KT 10SM OVC079 14/06 A3000 RMK T01400060 MADISHF
IND,2020-04-04 05:20,M,M,M,110.00,5.00,M,30.00,M,10.00,M,OVC,M,M,M,7999.00,M,M,M,M,M,M,M,M,M,M,M,KIND 040520Z AUTO 11005KT 10SM OVC079 14/06 A3000 RMK T01400060 MADISHF
IND,2020-04-04 05:25,M,M,M,110.00,4.00,M,30.00,M,10.00,M,OVC,M,M,M,7999.00,M,M,M,M,M,M,M,M,M,M,M,KIND 040525Z AUTO 11004KT 10SM OVC079 14/06 A3000 RMK T01400060 MADISHF
IND,2020-04-04 05:30,M,M,M,110.00,4.00,M,29.99,M,10.00,M,OVC,M,M,M,7999.00,M,M,M,M,M,M,M,M,M,M,M,KIND 040530Z AUTO 11004KT 10SM OVC079 14/06 A2998 RMK T01400060 MADISHF
IND,2020-04-04 05:35,M,M,M,110.00,4.00,M,29.99,M,10.00,M,OVC,M,M,M,7999.00,M,M,M,M,M,M,M,M,M,M,M,KIND 040535Z AUTO 11004KT 10SM OVC079 14/06 A2998 RMK T01400060 MADISHF
IND,2020-04-04 05:40,M,M,M,120.00,4.00,M,29.99,M,10.00,M,OVC,M,M,M,7999.00,M,M,M,M,M,M,M,M,M,M,M,KIND 040540Z AUTO 12004KT 10SM OVC079 14/06 A2998 RMK T01400060 MADISHF
IND,2020-04-04 05:45,M,M,M,120.00,4.00,M,29.99,M,10.00,M,OVC,M,M,M,7999.00,M,M,M,M,M,M,M,M,M,M,M,KIND 040545Z AUTO 12004KT 10SM OVC079 14/06 A2998 RMK T01400060 MADISHF
IND,2020-04-04 05:50,M,M,M,120.00,4.00,M,29.99,M,10.00,M,OVC,M,M,M,7999.00,M,M,M,M,M,M,M,M,M,M,M,KIND 040550Z AUTO 12004KT 10SM OVC079 14/06 A2998 RMK T01400060 MADISHF
IND,2020-04-04 05:54,57.00,42.10,57.38,120.00,4.00,0.00,30.00,1015.50,10.00,M,OVC,M,M,M,8000.00,M,M,M,M,M,M,M,M,M,M,M,KIND 040554Z 12004KT 10SM OVC080 14/06 A3000 RMK AO2 SLP155 T01390056 10172 20139 58006
IND,2020-04-04 05:55,M,M,M,120.00,4.00,M,30.00,M,10.00,M,OVC,M,M,M,7999.00,M,M,M,M,M,M,M,M,M,M,M,KIND 040555Z AUTO 12004KT 10SM OVC079 14/06 A3000 RMK T01400060 MADISHF
IND,2020-04-04 06:00,M,M,M,120.00,4.00,M,30.00,M,10.00,M,OVC,M,M,M,7999.00,M,M,M,M,M,M,M,M,M,M,M,KIND 040600Z AUTO 12004KT 10SM OVC079 14/06 A3000 RMK T01400060 MADISHF
IND,2020-04-04 06:05,M,M,M,120.00,4.00,M,30.00,M,10.00,M,OVC,M,M,M,7999.00,M,M,M,M,M,M,M,M,M,M,M,KIND 040605Z AUTO 12004KT 10SM OVC079 14/06 A3000 RMK T01400060 MADISHF
IND,2020-04-04 06:10,M,M,M,120.00,2.00,M,30.00,M,10.00,M,OVC,M,M,M,7999.00,M,M,M,M,M,M,M,M,M,M,M,KIND 040610Z AUTO 12002KT 10SM OVC079 14/06 A3000 RMK T01400060 MADISHF
IND,2020-04-04 06:15,M,M,M,120.00,2.00,M,30.00,M,10.00,M,OVC,M,M,M,7999.00,M,M,M,M,M,M,M,M,M,M,M,KIND 040615Z AUTO 12002KT 10SM OVC079 14/06 A3000 RMK T01400060 MADISHF
IND,2020-04-04 06:20,M,M,M,120.00,2.00,M,29.99,M,10.00,M,OVC,M,M,M,7999.00,M,M,M,M,M,M,M,M,M,M,M,KIND 040620Z AUTO 12002KT 10SM OVC079 14/06 A2998 RMK T01400060 MADISHF
IND,2020-04-04 06:25,M,M,M,120.00,5.00,M,29.99,M,10.00,M,OVC,M,M,M,7999.00,M,M,M,M,M,M,M,M,M,M,M,KIND 040625Z AUTO 12005KT 10SM OVC079 14/06 A2998 RMK T01400060 MADISHF
IND,2020-04-04 06:30,M,M,M,120.00,4.00,M,29.99,M,10.00,M,OVC,M,M,M,7999.00,M,M,M,M,M,M,M,M,M,M,M,KIND 040630Z AUTO 12004KT 10SM OVC079 13/05 A2998 RMK T01300050 MADISHF
IND,2020-04-04 06:35,M,M,M,110.00,4.00,M,29.99,M,10.00,M,OVC,M,M,M,7999.00,M,M,M,M,M,M,M,M,M,M,M,KIND 040635Z AUTO 11004KT 10SM OVC079 13/06 A2998 RMK T01300060 MADISHF
IND,2020-04-04 06:40,M,M,M,110.00,4.00,M,29.99,M,10.00,M,OVC,M,M,M,8500.00,M,M,M,M,M,M,M,M,M,M,M,KIND 040640Z AUTO 11004KT 10SM OVC085 14/06 A2998 RMK T01400060 MADISHF
IND,2020-04-04 06:45,M,M,M,120.00,2.00,M,29.99,M,10.00,M,OVC,M,M,M,8500.00,M,M,M,M,M,M,M,M,M,M,M,KIND 040645Z AUTO 12002KT 10SM OVC085 14/06 A2998 RMK T01400060 MADISHF
IND,2020-04-04 06:50,M,M,M,120.00,2.00,M,29.99,M,10.00,M,OVC,M,M,M,8500.00,M,M,M,M,M,M,M,M,M,M,M,KIND 040650Z AUTO 12002KT 10SM OVC085 14/06 A2998 RMK T01400060 MADISHF
IND,2020-04-04 06:54,57.00,42.10,57.38,0.00,0.00,0.00,29.99,1015.40,10.00,M,OVC,M,M,M,8500.00,M,M,M,M,M,M,M,M,M,M,M,KIND 040654Z 00000KT 10SM OVC085 14/06 A2999 RMK AO2 SLP154 T01390056
IND,2020-04-04 06:55,M,M,M,0.00,0.00,M,29.99,M,10.00,M,OVC,M,M,M,8500.00,M,M,M,M,M,M,M,M,M,M,M,KIND 040655Z AUTO 00000KT 10SM OVC085 14/06 A2998 RMK T01400060 MADISHF
IND,2020-04-04 07:00,M,M,M,120.00,2.00,M,29.99,M,10.00,M,OVC,M,M,M,8500.00,M,M,M,M,M,M,M,M,M,M,M,KIND 040700Z AUTO 12002KT 10SM OVC085 14/06 A2998 RMK T01400060 MADISHF
IND,2020-04-04 07:05,M,M,M,120.00,2.00,M,29.99,M,10.00,M,OVC,M,M,M,8500.00,M,M,M,M,M,M,M,M,M,M,M,KIND 040705Z AUTO 12002KT 10SM OVC085 13/06 A2998 RMK T01300060 MADISHF
IND,2020-04-04 07:10,M,M,M,120.00,4.00,M,29.99,M,10.00,M,OVC,M,M,M,8500.00,M,M,M,M,M,M,M,M,M,M,M,KIND 040710Z AUTO 12004KT 10SM OVC085 14/06 A2998 RMK T01400060 MADISHF
IND,2020-04-04 07:15,M,M,M,110.00,4.00,M,29.99,M,10.00,M,OVC,M,M,M,8500.00,M,M,M,M,M,M,M,M,M,M,M,KIND 040715Z AUTO 11004KT 10SM OVC085 13/06 A2998 RMK T01300060 MADISHF
IND,2020-04-04 07:20,M,M,M,110.00,4.00,M,29.99,M,10.00,M,OVC,M,M,M,8500.00,M,M,M,M,M,M,M,M,M,M,M,KIND 040720Z AUTO 11004KT 10SM OVC085 13/06 A2998 RMK T01300060 MADISHF
IND,2020-04-04 07:25,M,M,M,120.00,2.00,M,29.99,M,10.00,M,OVC,M,M,M,8500.00,M,M,M,M,M,M,M,M,M,M,M,KIND 040725Z AUTO 12002KT 10SM OVC085 13/06 A2998 RMK T01300060 MADISHF
IND,2020-04-04 07:30,M,M,M,130.00,2.00,M,29.99,M,10.00,M,OVC,M,M,M,8500.00,M,M,M,M,M,M,M,M,M,M,M,KIND 040730Z AUTO 13002KT 10SM OVC085 13/06 A2998 RMK T01300060 MADISHF
IND,2020-04-04 07:35,M,M,M,130.00,2.00,M,29.99,M,10.00,M,OVC,M,M,M,8500.00,M,M,M,M,M,M,M,M,M,M,M,KIND 040735Z AUTO 13002KT 10SM OVC085 13/06 A2998 RMK T01300060 MADISHF
IND,2020-04-04 07:40,M,M,M,0.00,0.00,M,29.99,M,10.00,M,FEW,OVC,M,M,7000.00,8500.00,M,M,M,M,M,M,M,M,M,M,KIND 040740Z AUTO 00000KT 10SM FEW070 OVC085 13/06 A2998 RMK T01300060 MADISHF
IND,2020-04-04 07:45,M,M,M,0.00,0.00,M,29.99,M,10.00,M,FEW,OVC,M,M,7000.00,8500.00,M,M,M,M,M,M,M,M,M,M,KIND 040745Z AUTO 00000KT 10SM FEW070 OVC085 13/06 A2998 RMK T01300060 MADISHF
IND,2020-04-04 07:50,M,M,M,0.00,0.00,M,29.99,M,10.00,M,SCT,OVC,M,M,7000.00,8500.00,M,M,M,M,M,M,M,M,M,M,KIND 040750Z AUTO 00000KT 10SM SCT070 OVC085 13/06 A2998 RMK T01300060 MADISHF
IND,2020-04-04 07:54,57.00,41.00,54.99,0.00,0.00,0.00,29.99,1015.40,10.00,M,BKN,OVC,M,M,7000.00,8500.00,M,M,M,M,M,M,M,M,M,M,KIND 040754Z 00000KT 10SM BKN070 OVC085 14/05 A2999 RMK AO2 SLP154 T01390050
IND,2020-04-04 07:55,M,M,M,0.00,0.00,M,29.99,M,10.00,M,BKN,OVC,M,M,7000.00,8500.00,M,M,M,M,M,M,M,M,M,M,KIND 040755Z AUTO 00000KT 10SM BKN070 OVC085 14/05 A2998 RMK T01400050 MADISHF
IND,2020-04-04 08:00,M,M,M,0.00,0.00,M,29.99,M,10.00,M,BKN,OVC,M,M,7000.00,8500.00,M,M,M,M,M,M,M,M,M,M,KIND 040800Z AUTO 00000KT 10SM BKN070 OVC085 13/06 A2998 RMK T01300060 MADISHF
IND,2020-04-04 08:05,M,M,M,0.00,0.00,M,29.99,M,10.00,M,BKN,OVC,M,M,7000.00,8500.00,M,M,M,M,M,M,M,M,M,M,KIND 040805Z AUTO 00000KT 10SM BKN070 OVC085 13/05 A2998 RMK T01300050 MADISHF
IND,2020-04-04 08:10,M,M,M,160.00,2.00,M,29.99,M,10.00,M,BKN,OVC,M,M,7000.00,8500.00,M,M,M,M,M,M,M,M,M,M,KIND 040810Z AUTO 16002KT 10SM BKN070 OVC085 13/05 A2998 RMK T01300050 MADISHF
IND,2020-04-04 08:15,M,M,M,150.00,2.00,M,29.99,M,10.00,M,OVC,M,M,M,7000.00,M,M,M,M,M,M,M,M,M,M,M,KIND 040815Z AUTO 15002KT 10SM OVC070 13/05 A2998 RMK T01300050 MADISHF
IND,2020-04-04 08:20,M,M,M,150.00,2.00,M,29.99,M,10.00,M,OVC,M,M,M,7000.00,M,M,M,M,M,M,M,M,M,M,M,KIND 040820Z AUTO 15002KT 10SM OVC070 13/05 A2998 RMK T01300050 MADISHF
IND,2020-04-04 08:25,M,M,M,150.00,2.00,M,29.99,M,10.00,M,OVC,M,M,M,7000.00,M,M,M,M,M,M,M,M,M,M,M,KIND 040825Z AUTO 15002KT 10SM OVC070 13/06 A2998 RMK T01300060 MADISHF
IND,2020-04-04 08:30,M,M,M,150.00,2.00,M,29.99,M,10.00,M,OVC,M,M,M,7500.00,M,M,M,M,M,M,M,M,M,M,M,KIND 040830Z AUTO 15002KT 10SM OVC075 13/05 A2998 RMK T01300050 MADISHF
IND,2020-04-04 08:35,M,M,M,150.00,2.00,M,29.99,M,10.00,M,OVC,M,M,M,7500.00,M,M,M,M,M,M,M,M,M,M,M,KIND 040835Z AUTO 15002KT 10SM OVC075 13/05 A2998 RMK T01300050 MADISHF
IND,2020-04-04 08:40,M,M,M,150.00,2.00,M,29.99,M,10.00,M,BKN,OVC,M,M,7500.00,8500.00,M,M,M,M,M,M,M,M,M,M,KIND 040840Z AUTO 15002KT 10SM BKN075 OVC085 13/05 A2998 RMK T01300050 MADISHF
IND,2020-04-04 08:45,M,M,M,150.00,2.00,M,29.99,M,10.00,M,BKN,OVC,M,M,7500.00,8500.00,M,M,M,M,M,M,M,M,M,M,KIND 040845Z AUTO 15002KT 10SM BKN075 OVC085 13/05 A2998 RMK T01300050 MADISHF
IND,2020-04-04 08:50,M,M,M,160.00,2.00,M,29.99,M,10.00,M,SCT,OVC,M,M,7500.00,8500.00,M,M,M,M,M,M,M,M,M,M,KIND 040850Z AUTO 16002KT 10SM SCT075 OVC085 13/05 A2998 RMK T01300050 MADISHF
IND,2020-04-04 08:54,55.00,42.10,61.69,0.00,0.00,0.00,30.00,1015.50,10.00,M,OVC,M,M,M,8000.00,M,M,M,M,M,M,M,M,M,M,M,KIND 040854Z 00000KT 10SM OVC080 13/06 A3000 RMK AO2 SLP155 T01280056 55000
IND,2020-04-04 08:55,M,M,M,0.00,0.00,M,30.00,M,10.00,M,OVC,M,M,M,7999.00,M,M,M,M,M,M,M,M,M,M,M,KIND 040855Z AUTO 00000KT 10SM OVC079 13/06 A3000 RMK T01300060 MADISHF
IND,2020-04-04 09:00,M,M,M,0.00,0.00,M,30.00,M,10.00,M,BKN,BKN,M,M,8500.00,12000.00,M,M,M,M,M,M,M,M,M,M,KIND 040900Z AUTO 00000KT 10SM BKN085 BKN120 13/06 A3000 RMK T01300060 MADISHF
IND,2020-04-04 09:05,M,M,M,200.00,2.00,M,30.00,M,10.00,M,BKN,BKN,M,M,8500.00,12000.00,M,M,M,M,M,M,M,M,M,M,KIND 040905Z AUTO 20002KT 10SM BKN085 BKN120 13/05 A3000 RMK T01300050 MADISHF
IND,2020-04-04 09:10,M,M,M,200.00,2.00,M,30.00,M,10.00,M,FEW,BKN,BKN,M,7500.00,8500.00,12000.00,M,M,M,M,M,M,M,M,M,KIND 040910Z AUTO 20002KT 10SM FEW075 BKN085 BKN120 12/05 A3000 RMK T01200050 MADISHF
IND,2020-04-04 09:15,M,M,M,200.00,2.00,M,30.00,M,10.00,M,FEW,BKN,BKN,M,7500.00,8500.00,12000.00,M,M,M,M,M,M,M,M,M,KIND 040915Z AUTO 20002KT 10SM FEW075 BKN085 BKN120 13/05 A3000 RMK T01300050 MADISHF
IND,2020-04-04 09:20,M,M,M,0.00,0.00,M,30.00,M,10.00,M,FEW,BKN,BKN,M,7500.00,8500.00,12000.00,M,M,M,M,M,M,M,M,M,KIND 040920Z AUTO 00000KT 10SM FEW075 BKN085 BKN120 12/05 A3000 RMK T01200050 MADISHF
IND,2020-04-04 09:25,M,M,M,170.00,2.00,M,30.00,M,10.00,M,FEW,BKN,BKN,M,7500.00,8500.00,12000.00,M,M,M,M,M,M,M,M,M,KIND 040925Z AUTO 17002KT 10SM FEW075 BKN085 BKN120 12/05 A3000 RMK T01200050 MADISHF
IND,2020-04-04 09:30,M,M,M,140.00,2.00,M,30.00,M,10.00,M,FEW,BKN,BKN,M,7500.00,8500.00,11000.00,M,M,M,M,M,M,M,M,M,KIND 040930Z AUTO 14002KT 10SM FEW075 BKN085 BKN110 13/05 A3000 RMK T01300050 MADISHF
IND,2020-04-04 09:35,M,M,M,130.00,2.00,M,30.00,M,10.00,M,FEW,BKN,BKN,M,7500.00,8500.00,11000.00,M,M,M,M,M,M,M,M,M,KIND 040935Z AUTO 13002KT 10SM FEW075 BKN085 BKN110 13/04 A3000 RMK T01300040 MADISHF
IND,2020-04-04 09:40,M,M,M,0.00,0.00,M,30.00,M,10.00,M,SCT,BKN,M,M,8500.00,12000.00,M,M,M,M,M,M,M,M,M,M,KIND 040940Z AUTO 00000KT 10SM SCT085 BKN120 13/05 A3000 RMK T01300050 MADISHF
IND,2020-04-04 09:45,M,M,M,0.00,0.00,M,30.00,M,10.00,M,SCT,BKN,M,M,8500.00,12000.00,M,M,M,M,M,M,M,M,M,M,KIND 040945Z AUTO 00000KT 10SM SCT085 BKN120 13/05 A3000 RMK T01300050 MADISHF
IND,2020-04-04 09:50,M,M,M,0.00,0.00,M,30.00,M,10.00,M,SCT,BKN,M,M,8500.00,12000.00,M,M,M,M,M,M,M,M,M,M,KIND 040950Z AUTO 00000KT 10SM SCT085 BKN120 13/05 A3000 RMK T01300050 MADISHF
IND,2020-04-04 09:54,54.00,41.00,61.32,0.00,0.00,0.00,30.00,1015.60,10.00,M,SCT,BKN,M,M,8500.00,12000.00,M,M,M,M,M,M,M,M,M,M,KIND 040954Z 00000KT 10SM SCT085 BKN120 12/05 A3000 RMK AO2 SLP156 T01220050
IND,2020-04-04 09:55,M,M,M,0.00,0.00,M,30.00,M,10.00,M,FEW,M,M,M,12000.00,M,M,M,M,M,M,M,M,M,M,M,KIND 040955Z AUTO 00000KT 10SM FEW120 12/05 A3000 RMK T01200050 MADISHF
IND,2020-04-04 10:00,M,M,M,190.00,2.00,M,30.00,M,10.00,M,FEW,M,M,M,12000.00,M,M,M,M,M,M,M,M,M,M,M,KIND 041000Z AUTO 19002KT 10SM FEW120 12/05 A3000 RMK T01200050 MADISHF
IND,2020-04-04 10:05,M,M,M,180.00,2.00,M,30.00,M,10.00,M,FEW,M,M,M,12000.00,M,M,M,M,M,M,M,M,M,M,M,KIND 041005Z AUTO 18002KT 10SM FEW120 12/05 A3000 RMK T01200050 MADISHF
IND,2020-04-04 10:10,M,M,M,0.00,0.00,M,30.00,M,10.00,M,FEW,M,M,M,12000.00,M,M,M,M,M,M,M,M,M,M,M,KIND 041010Z AUTO 00000KT 10SM FEW120 12/06 A3000 RMK T01200060 MADISHF
IND,2020-04-04 10:15,M,M,M,0.00,0.00,M,30.00,M,10.00,M,FEW,M,M,M,12000.00,M,M,M,M,M,M,M,M,M,M,M,KIND 041015Z AUTO 00000KT 10SM FEW120 12/06 A3000 RMK T01200060 MADISHF
IND,2020-04-04 10:20,M,M,M,0.00,0.00,M,30.00,M,10.00,M,FEW,M,M,M,12000.00,M,M,M,M,M,M,M,M,M,M,M,KIND 041020Z AUTO 00000KT 10SM FEW120 13/05 A3000 RMK T01300050 MADISHF
IND,2020-04-04 10:25,M,M,M,0.00,0.00,M,30.00,M,10.00,M,CLR,M,M,M,M,M,M,M,M,M,M,M,M,M,M,M,KIND 041025Z AUTO 00000KT 10SM CLR 12/05 A3000 RMK T01200050 MADISHF
IND,2020-04-04 10:30,M,M,M,180.00,2.00,M,30.00,M,10.00,M,CLR,M,M,M,M,M,M,M,M,M,M,M,M,M,M,M,KIND 041030Z AUTO 18002KT 10SM CLR 13/05 A3000 RMK T01300050 MADISHF
IND,2020-04-04 10:35,M,M,M,190.00,2.00,M,30.00,M,10.00,M,CLR,M,M,M,M,M,M,M,M,M,M,M,M,M,M,M,KIND 041035Z AUTO 19002KT 10SM CLR 12/06 A3000 RMK T01200060 MADISHF
IND,2020-04-04 10:40,M,M,M,190.00,2.00,M,30.00,M,10.00,M,CLR,M,M,M,M,M,M,M,M,M,M,M,M,M,M,M,KIND 041040Z AUTO 19002KT 10SM CLR 12/06 A3000 RMK T01200060 MADISHF
IND,2020-04-04 10:45,M,M,M,190.00,2.00,M,30.00,M,10.00,M,CLR,M,M,M,M,M,M,M,M,M,M,M,M,M,M,M,KIND 041045Z AUTO 19002KT 10SM CLR 12/06 A3000 RMK T01200060 MADISHF
IND,2020-04-04 10:50,M,M,M,0.00,0.00,M,30.01,M,10.00,M,CLR,M,M,M,M,M,M,M,M,M,M,M,M,M,M,M,KIND 041050Z AUTO 00000KT 10SM CLR 12/06 A3001 RMK T01200060 MADISHF
IND,2020-04-04 10:54,53.10,41.00,63.38,0.00,0.00,0.00,30.01,1016.00,10.00,M,SCT,BKN,M,M,9000.00,13000.00,M,M,M,M,M,M,M,M,M,M,KIND 041054Z 00000KT 10SM SCT090 BKN130 12/05 A3001 RMK AO2 SLP160 T01170050
IND,2020-04-04 10:55,M,M,M,0.00,0.00,M,30.01,M,10.00,M,SCT,M,M,M,9500.00,M,M,M,M,M,M,M,M,M,M,M,KIND 041055Z AUTO 00000KT 10SM SCT095 12/05 A3001 RMK T01200050 MADISHF
IND,2020-04-04 11:00,M,M,M,0.00,0.00,M,30.01,M,10.00,M,BKN,M,M,M,9500.00,M,M,M,M,M,M,M,M,M,M,M,KIND 041100Z AUTO 00000KT 10SM BKN095 12/05 A3001 RMK T01200050 MADISHF
IND,2020-04-04 11:05,M,M,M,0.00,0.00,M,30.01,M,10.00,M,BKN,M,M,M,9000.00,M,M,M,M,M,M,M,M,M,M,M,KIND 041105Z AUTO 00000KT 10SM BKN090 12/05 A3001 RMK T01200050 MADISHF
IND,2020-04-04 11:10,M,M,M,170.00,2.00,M,30.01,M,10.00,M,BKN,M,M,M,9000.00,M,M,M,M,M,M,M,M,M,M,M,KIND 041110Z AUTO 17002KT 10SM BKN090 12/05 A3001 RMK T01200050 MADISHF
IND,2020-04-04 11:15,M,M,M,0.00,0.00,M,30.01,M,10.00,M,OVC,M,M,M,9000.00,M,M,M,M,M,M,M,M,M,M,M,KIND 041115Z AUTO 00000KT 10SM OVC090 12/06 A3001 RMK T01200060 MADISHF
IND,2020-04-04 11:20,M,M,M,0.00,0.00,M,30.01,M,10.00,M,OVC,M,M,M,9000.00,M,M,M,M,M,M,M,M,M,M,M,KIND 041120Z AUTO 00000KT 10SM OVC090 12/06 A3001 RMK T01200060 MADISHF
IND,2020-04-04 11:25,M,M,M,0.00,0.00,M,30.01,M,10.00,M,OVC,M,M,M,9000.00,M,M,M,M,M,M,M,M,M,M,M,KIND 041125Z AUTO 00000KT 10SM OVC090 12/06 A3001 RMK T01200060 MADISHF
IND,2020-04-04 11:30,M,M,M,130.00,2.00,M,30.01,M,10.00,M,OVC,M,M,M,9000.00,M,M,M,M,M,M,M,M,M,M,M,KIND 041130Z AUTO 13002KT 10SM OVC090 12/06 A3001 RMK T01200060 MADISHF
IND,2020-04-04 11:35,M,M,M,120.00,4.00,M,30.01,M,10.00,M,OVC,M,M,M,9000.00,M,M,M,M,M,M,M,M,M,M,M,KIND 041135Z AUTO 12004KT 10SM OVC090 12/06 A3001 RMK T01200060 MADISHF
IND,2020-04-04 11:40,M,M,M,120.00,4.00,M,30.01,M,10.00,M,OVC,M,M,M,9000.00,M,M,M,M,M,M,M,M,M,M,M,KIND 041140Z AUTO 12004KT 10SM OVC090 12/06 A3001 RMK T01200060 MADISHF
IND,2020-04-04 11:45,M,M,M,130.00,2.00,M,30.02,M,10.00,30.00,OVC,M,M,M,9000.00,M,M,M,M,M,M,M,M,M,M,M,KIND 041145Z AUTO 13002G30KT 10SM OVC090 12/06 A3002 RMK T01200060 MADISHF
IND,2020-04-04 11:50,M,M,M,130.00,2.00,M,30.02,M,10.00,30.00,OVC,M,M,M,9000.00,M,M,M,M,M,M,M,M,M,M,M,KIND 041150Z AUTO 13002G30KT 10SM OVC090 12/06 A3002 RMK T01200060 MADISHF
IND,2020-04-04 11:54,53.10,43.00,68.46,130.00,3.00,0.00,30.02,1016.40,10.00,M,OVC,M,M,M,9000.00,M,M,M,M,M,M,M,M,M,M,M,KIND 041154Z 13003KT 10SM OVC090 12/06 A3002 RMK AO2 SLP164 T01170061 10139 20111 53008
IND,2020-04-04 11:55,M,M,M,120.00,2.00,M,30.02,M,10.00,M,OVC,M,M,M,9000.00,M,M,M,M,M,M,M,M,M,M,M,KIND 041155Z AUTO 12002KT 10SM OVC090 12/06 A3002 RMK T01200060 MADISHF
IND,2020-04-04 12:00,M,M,M,0.00,0.00,M,30.03,M,10.00,M,OVC,M,M,M,9000.00,M,M,M,M,M,M,M,M,M,M,M,KIND 041200Z AUTO 00000KT 10SM OVC090 12/06 A3003 RMK T01200060 MADISHF
IND,2020-04-04 12:05,M,M,M,0.00,0.00,M,30.03,M,10.00,M,FEW,OVC,M,M,7500.00,9000.00,M,M,M,M,M,M,M,M,M,M,KIND 041205Z AUTO 00000KT 10SM FEW075 OVC090 12/07 A3003 RMK T01200070 MADISHF
IND,2020-04-04 12:10,M,M,M,240.00,2.00,M,30.03,M,10.00,M,SCT,OVC,M,M,7500.00,9000.00,M,M,M,M,M,M,M,M,M,M,KIND 041210Z AUTO 24002KT 10SM SCT075 OVC090 12/07 A3003 RMK T01200070 MADISHF
IND,2020-04-04 12:15,M,M,M,260.00,4.00,M,30.03,M,10.00,M,BKN,OVC,M,M,7500.00,9000.00,M,M,M,M,M,M,M,M,M,M,KIND 041215Z AUTO 26004KT 10SM BKN075 OVC090 12/07 A3003 RMK T01200070 MADISHF
IND,2020-04-04 12:20,M,M,M,280.00,4.00,M,30.03,M,10.00,M,BKN,OVC,M,M,7500.00,9500.00,M,M,M,M,M,M,M,M,M,M,KIND 041220Z AUTO 28004KT 10SM BKN075 OVC095 12/07 A3003 RMK T01200070 MADISHF
IND,2020-04-04 12:25,M,M,M,280.00,2.00,M,30.03,M,10.00,M,BKN,OVC,M,M,7500.00,9000.00,M,M,M,M,M,M,M,M,M,M,KIND 041225Z AUTO 28002KT 10SM BKN075 OVC090 12/07 A3003 RMK T01200070 MADISHF
IND,2020-04-04 12:30,M,M,M,290.00,4.00,M,30.03,M,10.00,M,OVC,M,M,M,7500.00,M,M,M,M,M,M,M,M,M,M,M,KIND 041230Z AUTO 29004KT 10SM OVC075 12/08 A3003 RMK T01200080 MADISHF
IND,2020-04-04 12:35,M,M,M,290.00,5.00,M,30.04,M,10.00,M,OVC,M,M,M,7500.00,M,M,M,M,M,M,M,M,M,M,M,KIND 041235Z AUTO 29005KT 10SM OVC075 12/07 A3004 RMK T01200070 MADISHF
IND,2020-04-04 12:40,M,M,M,300.00,7.00,M,30.04,M,10.00,M,BKN,OVC,M,M,7500.00,9000.00,M,M,M,M,M,M,M,M,M,M,KIND 041240Z AUTO 30007KT 10SM BKN075 OVC090 12/07 A3004 RMK T01200070 MADISHF
IND,2020-04-04 12:45,M,M,M,300.00,5.00,M,30.04,M,10.00,M,BKN,OVC,M,M,7999.00,9000.00,M,M,M,M,M,M,M,M,M,M,KIND 041245Z AUTO 30005KT 10SM BKN079 OVC090 12/07 A3004 RMK T01200070 MADISHF
IND,2020-04-04 12:50,M,M,M,300.00,7.00,M,30.04,M,10.00,M,BKN,OVC,M,M,7999.00,9000.00,M,M,M,M,M,M,M,M,M,M,KIND 041250Z AUTO 30007KT 10SM BKN079 OVC090 12/07 A3004 RMK T01200070 MADISHF
IND,2020-04-04 12:54,54.00,45.00,71.50,300.00,6.00,0.00,30.05,1017.30,10.00,M,BKN,OVC,M,M,8000.00,9000.00,M,M,M,M,M,M,M,M,M,M,KIND 041254Z 30006KT 10SM BKN080 OVC090 12/07 A3005 RMK AO2 SLP173 T01220072
IND,2020-04-04 12:55,M,M,M,290.00,7.00,M,30.05,M,10.00,M,BKN,OVC,M,M,7999.00,9000.00,M,M,M,M,M,M,M,M,M,M,KIND 041255Z AUTO 29007KT 10SM BKN079 OVC090 12/07 A3004 RMK T01200070 MADISHF
IND,2020-04-04 13:00,M,M,M,300.00,8.00,M,30.05,M,10.00,M,BKN,OVC,M,M,7999.00,9000.00,M,M,M,M,M,M,M,M,M,M,KIND 041300Z AUTO 30008KT 10SM BKN079 OVC090 12/08 A3004 RMK T01200080 MADISHF
IND,2020-04-04 13:05,M,M,M,300.00,7.00,M,30.05,M,10.00,M,OVC,M,M,M,8500.00,M,M,M,M,M,M,M,M,M,M,M,KIND 041305Z AUTO 30007KT 10SM OVC085 12/08 A3004 RMK T01200080 MADISHF
IND,2020-04-04 13:10,M,M,M,300.00,5.00,M,30.05,M,10.00,M,OVC,M,M,M,7999.00,M,M,M,M,M,M,M,M,M,M,M,KIND 041310Z AUTO 30005KT 10SM OVC079 12/08 A3004 RMK T01200080 MADISHF
IND,2020-04-04 13:15,M,M,M,300.00,9.00,M,30.05,M,10.00,M,OVC,M,M,M,7999.00,M,M,M,M,M,M,M,M,M,M,M,KIND 041315Z AUTO 30009KT 10SM OVC079 12/08 A3004 RMK T01200080 MADISHF
IND,2020-04-04 13:20,M,M,M,300.00,9.00,M,30.05,M,10.00,M,OVC,M,M,M,7999.00,M,M,M,M,M,M,M,M,M,M,M,KIND 041320Z AUTO 30009KT 10SM OVC079 12/08 A3004 RMK T01200080 MADISHF
IND,2020-04-04 13:25,M,M,M,290.00,9.00,M,30.06,M,10.00,M,OVC,M,M,M,7999.00,M,M,M,M,M,M,M,M,M,M,M,KIND 041325Z AUTO 29009KT 10SM OVC079 12/09 A3005 RMK T01200090 MADISHF
IND,2020-04-04 13:30,M,M,M,300.00,10.00,M,30.06,M,10.00,M,OVC,M,M,M,8500.00,M,M,M,M,M,M,M,M,M,M,M,KIND 041330Z AUTO 30010KT 10SM OVC085 11/08 A3005 RMK T01100080 MADISHF
IND,2020-04-04 13:35,M,M,M,290.00,9.00,M,30.06,M,10.00,M,OVC,M,M,M,7999.00,M,M,M,M,M,M,M,M,M,M,M,KIND 041335Z AUTO 29009KT 10SM OVC079 11/09 A3005 RMK T01100090 MADISHF
IND,2020-04-04 13:40,M,M,M,290.00,10.00,M,30.06,M,10.00,M,OVC,M,M,M,7999.00,M,M,M,M,M,M,M,M,M,M,M,KIND 041340Z AUTO 29010KT 10SM OVC079 11/08 A3005 RMK T01100080 MADISHF
IND,2020-04-04 13:45,M,M,M,300.00,10.00,M,30.06,M,10.00,M,OVC,M,M,M,7999.00,M,M,M,M,M,M,M,M,M,M,M,KIND 041345Z AUTO 30010KT 10SM OVC079 11/08 A3005 RMK T01100080 MADISHF
IND,2020-04-04 13:50,M,M,M,310.00,10.00,M,30.07,M,10.00,M,OVC,M,M,M,7999.00,M,M,M,M,M,M,M,M,M,M,M,KIND 041350Z AUTO 31010KT 10SM OVC079 11/07 A3006 RMK T01100070 MADISHF
IND,2020-04-04 13:54,51.10,46.00,82.62,320.00,9.00,0.00,30.07,1018.10,10.00,M,OVC,M,M,M,8000.00,M,M,M,M,M,M,M,M,M,M,M,KIND 041354Z 32009KT 10SM OVC080 11/08 A3007 RMK AO2 SLP181 T01060078
IND,2020-04-04 13:55,M,M,M,320.00,9.00,M,30.07,M,10.00,M,OVC,M,M,M,7999.00,M,M,M,M,M,M,M,M,M,M,M,KIND 041355Z AUTO 32009KT 10SM OVC079 11/08 A3006 RMK T01100080 MADISHF
IND,2020-04-04 14:00,M,M,M,310.00,9.00,M,30.07,M,10.00,M,OVC,M,M,M,7999.00,M,M,M,M,M,M,M,M,M,M,M,KIND 041400Z AUTO 31009KT 10SM OVC079 11/07 A3006 RMK T01100070 MADISHF
IND,2020-04-04 14:05,M,M,M,300.00,9.00,M,30.07,M,10.00,M,OVC,M,M,M,8500.00,M,M,M,M,M,M,M,M,M,M,M,KIND 041405Z AUTO 30009KT 10SM OVC085 11/07 A3006 RMK T01100070 MADISHF
IND,2020-04-04 14:10,M,M,M,320.00,9.00,M,30.07,M,10.00,M,OVC,M,M,M,8500.00,M,M,M,M,M,M,M,M,M,M,M,KIND 041410Z AUTO 32009KT 10SM OVC085 11/07 A3006 RMK T01100070 MADISHF
IND,2020-04-04 14:15,M,M,M,300.00,11.00,M,30.07,M,10.00,M,OVC,M,M,M,8500.00,M,M,M,M,M,M,M,M,M,M,M,KIND 041415Z AUTO 30011KT 10SM OVC085 11/07 A3006 RMK T01100070 MADISHF
IND,2020-04-04 14:20,M,M,M,310.00,10.00,M,30.07,M,10.00,M,OVC,M,M,M,8500.00,M,M,M,M,M,M,M,M,M,M,M,KIND 041420Z AUTO 31010KT 10SM OVC085 11/07 A3006 RMK T01100070 MADISHF
IND,2020-04-04 14:25,M,M,M,310.00,11.00,M,30.07,M,10.00,M,OVC,M,M,M,8500.00,M,M,M,M,M,M,M,M,M,M,M,KIND 041425Z AUTO 31011KT 10SM OVC085 11/07 A3006 RMK T01100070 MADISHF
IND,2020-04-04 14:30,M,M,M,310.00,9.00,M,30.07,M,10.00,M,OVC,M,M,M,8500.00,M,M,M,M,M,M,M,M,M,M,M,KIND 041430Z AUTO 31009KT 10SM OVC085 11/07 A3006 RMK T01100070 MADISHF
IND,2020-04-04 14:35,M,M,M,320.00,11.00,M,30.08,M,10.00,M,OVC,M,M,M,8500.00,M,M,M,M,M,M,M,M,M,M,M,KIND 041435Z AUTO 32011KT 10SM OVC085 11/07 A3007 RMK T01100070 MADISHF
IND,2020-04-04 14:40,M,M,M,330.00,10.00,M,30.08,M,10.00,M,OVC,M,M,M,8500.00,M,M,M,M,M,M,M,M,M,M,M,KIND 041440Z AUTO 33010KT 10SM OVC085 11/07 A3007 RMK T01100070 MADISHF
IND,2020-04-04 14:45,M,M,M,310.00,9.00,M,30.08,M,10.00,M,FEW,OVC,M,M,6000.00,9000.00,M,M,M,M,M,M,M,M,M,M,KIND 041445Z AUTO 31009KT 10SM FEW060 OVC090 11/07 A3007 RMK T01100070 MADISHF
IND,2020-04-04 14:50,M,M,M,320.00,9.00,M,30.08,M,10.00,M,SCT,OVC,M,M,6000.00,8500.00,M,M,M,M,M,M,M,M,M,M,KIND 041450Z AUTO 32009KT 10SM SCT060 OVC085 11/07 A3007 RMK T01100070 MADISHF
IND,2020-04-04 14:54,53.10,46.00,76.75,320.00,8.00,0.00,30.08,1018.60,10.00,M,BKN,OVC,M,M,6000.00,9000.00,M,M,M,M,M,M,M,M,M,M,KIND 041454Z 32008KT 10SM BKN060 OVC090 12/08 A3008 RMK AO2 SLP186 T01170078 51021
IND,2020-04-04 14:55,M,M,M,320.00,7.00,M,30.08,M,10.00,M,BKN,OVC,M,M,6000.00,9000.00,M,M,M,M,M,M,M,M,M,M,KIND 041455Z AUTO 32007KT 10SM BKN060 OVC090 12/08 A3007 RMK T01200080 MADISHF
IND,2020-04-04 15:00,M,M,M,320.00,7.00,M,30.08,M,10.00,M,BKN,BKN,M,M,6000.00,9000.00,M,M,M,M,M,M,M,M,M,M,KIND 041500Z AUTO 32007KT 10SM BKN060 BKN090 12/07 A3007 RMK T01200070 MADISHF
IND,2020-04-04 15:05,M,M,M,320.00,7.00,M,30.08,M,10.00,M,SCT,BKN,M,M,6000.00,9000.00,M,M,M,M,M,M,M,M,M,M,KIND 041505Z AUTO 32007KT 10SM SCT060 BKN090 12/08 A3007 RMK T01200080 MADISHF
IND,2020-04-04 15:10,M,M,M,310.00,8.00,M,30.08,M,10.00,M,SCT,OVC,M,M,6000.00,8500.00,M,M,M,M,M,M,M,M,M,M,KIND 041510Z AUTO 31008KT 10SM SCT060 OVC085 12/08 A3007 RMK T01200080 MADISHF
IND,2020-04-04 15:15,M,M,M,290.00,5.00,M,30.08,M,10.00,M,SCT,OVC,M,M,6000.00,8500.00,M,M,M,M,M,M,M,M,M,M,KIND 041515Z AUTO 29005KT 10SM SCT060 OVC085 12/07 A3007 RMK T01200070 MADISHF
IND,2020-04-04 15:20,M,M,M,300.00,8.00,M,30.08,M,10.00,M,FEW,OVC,M,M,6000.00,8500.00,M,M,M,M,M,M,M,M,M,M,KIND 041520Z AUTO 30008KT 10SM FEW060 OVC085 12/07 A3007 RMK T01200070 MADISHF
IND,2020-04-04 15:25,M,M,M,300.00,8.00,M,30.08,M,10.00,M,OVC,M,M,M,8500.00,M,M,M,M,M,M,M,M,M,M,M,KIND 041525Z AUTO 30008KT 10SM OVC085 12/08 A3007 RMK T01200080 MADISHF
IND,2020-04-04 15:30,M,M,M,320.00,7.00,M,30.08,M,10.00,M,OVC,M,M,M,8500.00,M,M,M,M,M,M,M,M,M,M,M,KIND 041530Z AUTO 32007KT 10SM OVC085 12/08 A3007 RMK T01200080 MADISHF
IND,2020-04-04 15:35,M,M,M,320.00,7.00,M,30.08,M,10.00,M,OVC,M,M,M,8500.00,M,M,M,M,M,M,M,M,M,M,M,KIND 041535Z AUTO 32007KT 10SM OVC085 12/08 A3007 RMK T01200080 MADISHF
IND,2020-04-04 15:40,M,M,M,300.00,7.00,M,30.08,M,10.00,M,BKN,OVC,M,M,7500.00,8500.00,M,M,M,M,M,M,M,M,M,M,KIND 041540Z AUTO 30007KT 10SM BKN075 OVC085 12/08 A3007 RMK T01200080 MADISHF
IND,2020-04-04 15:45,M,M,M,300.00,8.00,M,30.08,M,10.00,M,BKN,BKN,OVC,M,7500.00,8500.00,11000.00,M,M,M,M,M,M,M,M,M,KIND 041545Z AUTO 30008KT 10SM BKN075 BKN085 OVC110 13/08 A3007 RMK T01300080 MADISHF
IND,2020-04-04 15:50,M,M,M,300.00,7.00,M,30.08,M,10.00,M,SCT,BKN,BKN,M,7500.00,9000.00,11000.00,M,M,M,M,M,M,M,M,M,KIND 041550Z AUTO 30007KT 10SM SCT075 BKN090 BKN110 12/07 A3007 RMK T01200070 MADISHF
IND,2020-04-04 15:54,54.00,45.00,71.50,300.00,7.00,0.00,30.08,1018.50,10.00,M,SCT,SCT,OVC,M,7500.00,9000.00,20000.00,M,M,M,M,M,M,M,M,M,KIND 041554Z 30007KT 10SM SCT075 SCT090 OVC200 12/07 A3008 RMK AO2 SLP185 T01220072
IND,2020-04-04 15:55,M,M,M,300.00,7.00,M,30.08,M,10.00,M,SCT,M,M,M,7500.00,M,M,M,M,M,M,M,M,M,M,M,KIND 041555Z AUTO 30007KT 10SM SCT075 12/07 A3007 RMK T01200070 MADISHF
IND,2020-04-04 16:00,M,M,M,290.00,5.00,M,30.08,M,10.00,M,SCT,BKN,M,M,7500.00,9000.00,M,M,M,M,M,M,M,M,M,M,KIND 041600Z AUTO 29005KT 10SM SCT075 BKN090 12/07 A3007 RMK T01200070 MADISHF
IND,2020-04-04 16:05,M,M,M,300.00,8.00,M,30.08,M,9.00,M,BKN,M,M,M,7999.00,M,M,M,-RA,M,M,M,M,M,M,M,KIND 041605Z AUTO 30008KT 9SM -RA BKN079 11/08 A3007 RMK T01100080 MADISHF
IND,2020-04-04 16:10,M,M,M,310.00,9.00,M,30.08,M,9.00,M,BKN,M,M,M,8500.00,M,M,M,-RA,M,M,M,M,M,M,M,KIND 041610Z AUTO 31009KT 9SM -RA BKN085 11/08 A3007 RMK T01100080 MADISHF
IND,2020-04-04 16:15,M,M,M,290.00,8.00,M,30.08,M,10.00,M,FEW,BKN,M,M,5000.00,9000.00,M,M,-RA,M,M,M,M,M,M,M,KIND 041615Z AUTO 29008KT 10SM -RA FEW050 BKN090 11/08 A3007 RMK T01100080 MADISHF
IND,2020-04-04 16:20,M,M,M,290.00,8.00,M,30.08,M,10.00,M,FEW,BKN,BKN,M,4300.00,9000.00,11000.00,M,-RA,M,M,M,M,M,M,M,KIND 041620Z AUTO 29008KT 10SM -RA FEW043 BKN090 BKN110 11/08 A3007 RMK T01100080 MADISHF
IND,2020-04-04 16:25,M,M,M,300.00,10.00,M,30.08,M,10.00,M,FEW,BKN,OVC,M,3999.00,9000.00,11000.00,M,-RA,M,M,M,M,M,M,M,KIND 041625Z AUTO 30010KT 10SM -RA FEW039 BKN090 OVC110 11/08 A3007 RMK T01100080 MADISHF
IND,2020-04-04 16:30,M,M,M,300.00,8.00,M,30.07,M,9.00,M,FEW,BKN,OVC,M,3900.00,9000.00,11000.00,M,-RA,M,M,M,M,M,M,M,KIND 041630Z AUTO 30008KT 9SM -RA FEW039 BKN090 OVC110 11/08 A3006 RMK T01100080 MADISHF
IND,2020-04-04 16:35,M,M,M,300.00,9.00,M,30.07,M,9.00,M,SCT,BKN,OVC,M,4300.00,9000.00,11000.00,M,-RA,M,M,M,M,M,M,M,KIND 041635Z AUTO 30009KT 9SM -RA SCT043 BKN090 OVC110 11/08 A3006 RMK T01100080 MADISHF
IND,2020-04-04 16:40,M,M,M,290.00,8.00,M,30.07,M,10.00,M,SCT,BKN,OVC,M,1200.00,6000.00,9000.00,M,-RA,M,M,M,M,M,M,M,KIND 041640Z AUTO 29008KT 10SM -RA SCT012 BKN060 OVC090 11/08 A3006 RMK T01100080 MADISHF
IND,2020-04-04 16:45,M,M,M,310.00,10.00,M,30.07,M,10.00,M,BKN,BKN,OVC,M,999.00,3600.00,9000.00,M,-RA,M,M,M,M,M,M,M,KIND 041645Z AUTO 31010KT 10SM -RA BKN009 BKN036 OVC090 11/08 A3006 RMK T01100080 MADISHF
IND,2020-04-04 16:50,M,M,M,330.00,11.00,M,30.07,M,10.00,M,BKN,BKN,OVC,M,999.00,3600.00,9000.00,M,M,M,M,M,M,M,M,M,KIND 041650Z AUTO 33011KT 10SM BKN009 BKN036 OVC090 11/08 A3006 RMK T01100080 MADISHF
IND,2020-04-04 16:54,50.00,46.00,86.06,320.00,9.00,T,30.08,1018.40,10.00,M,BKN,BKN,OVC,M,1000.00,3600.00,9000.00,M,M,M,M,M,M,M,M,M,KIND 041654Z 32009KT 10SM BKN010 BKN036 OVC090 10/08 A3008 RMK AO2 RAB03E46 SLP184 P0000 T01000078
IND,2020-04-04 16:55,M,M,M,310.00,9.00,M,30.08,M,10.00,M,BKN,BKN,OVC,M,999.00,3600.00,9000.00,M,M,M,M,M,M,M,M,M,KIND 041655Z AUTO 31009KT 10SM BKN009 BKN036 OVC090 10/08 A3007 RMK T01000080 MADISHF
IND,2020-04-04 17:00,M,M,M,310.00,8.00,M,30.07,M,10.00,M,OVC,M,M,M,999.00,M,M,M,M,M,M,M,M,M,M,M,KIND 041700Z AUTO 31008KT 10SM OVC009 10/08 A3006 RMK T01000080 MADISHF
IND,2020-04-04 17:05,M,M,M,320.00,8.00,M,30.07,M,10.00,M,OVC,M,M,M,999.00,M,M,M,M,M,M,M,M,M,M,M,KIND 041705Z AUTO 32008KT 10SM OVC009 11/08 A3006 RMK T01100080 MADISHF
IND,2020-04-04 17:10,M,M,M,310.00,7.00,M,30.07,M,10.00,M,OVC,M,M,M,999.00,M,M,M,M,M,M,M,M,M,M,M,KIND 041710Z AUTO 31007KT 10SM OVC009 11/08 A3006 RMK T01100080 MADISHF
IND,2020-04-04 17:15,M,M,M,330.00,8.00,M,30.07,M,10.00,M,OVC,M,M,M,999.00,M,M,M,M,M,M,M,M,M,M,M,KIND 041715Z AUTO 33008KT 10SM OVC009 10/08 A3006 RMK T01000080 MADISHF
IND,2020-04-04 17:20,M,M,M,330.00,5.00,M,30.07,M,10.00,M,OVC,M,M,M,999.00,M,M,M,M,M,M,M,M,M,M,M,KIND 041720Z AUTO 33005KT 10SM OVC009 11/08 A3006 RMK T01100080 MADISHF
IND,2020-04-04 17:25,M,M,M,320.00,8.00,M,30.07,M,10.00,M,OVC,M,M,M,1100.00,M,M,M,M,M,M,M,M,M,M,M,KIND 041725Z AUTO 32008KT 10SM OVC011 10/08 A3006 RMK T01000080 MADISHF
IND,2020-04-04 17:30,M,M,M,310.00,7.00,M,30.07,M,10.00,M,OVC,M,M,M,1100.00,M,M,M,M,M,M,M,M,M,M,M,KIND 041730Z AUTO 31007KT 10SM OVC011 10/08 A3006 RMK T01000080 MADISHF
IND,2020-04-04 17:35,M,M,M,320.00,9.00,M,30.06,M,10.00,M,OVC,M,M,M,1100.00,M,M,M,M,M,M,M,M,M,M,M,KIND 041735Z AUTO 32009KT 10SM OVC011 10/08 A3005 RMK T01000080 MADISHF
IND,2020-04-04 17:40,M,M,M,330.00,9.00,M,30.06,M,10.00,M,OVC,M,M,M,900.00,M,M,M,M,M,M,M,M,M,M,M,KIND 041740Z AUTO 33009KT 10SM OVC009 10/08 A3005 RMK T01000080 MADISHF
IND,2020-04-04 17:42,50.00,45.00,82.86,310.00,10.00,0.00,30.06,M,10.00,M,OVC,M,M,M,900.00,M,M,M,M,M,M,M,M,M,M,M,KIND 041742Z 31010KT 10SM OVC009 10/07 A3006 RMK AO2 T01000072
IND,2020-04-04 17:45,M,M,M,310.00,10.00,M,30.06,M,10.00,M,OVC,M,M,M,900.00,M,M,M,M,M,M,M,M,M,M,M,KIND 041745Z AUTO 31010KT 10SM OVC009 10/07 A3005 RMK T01000070 MADISHF
IND,2020-04-04 17:50,M,M,M,310.00,9.00,M,30.06,M,10.00,M,OVC,M,M,M,900.00,M,M,M,M,M,M,M,M,M,M,M,KIND 041750Z AUTO 31009KT 10SM OVC009 10/08 A3005 RMK T01000080 MADISHF
IND,2020-04-04 17:54,50.00,46.00,86.06,310.00,9.00,0.00,30.06,1017.90,10.00,M,OVC,M,M,M,900.00,M,M,M,M,M,M,M,M,M,M,M,KIND 041754Z 31009KT 10SM OVC009 10/08 A3006 RMK AO2 SLP179 60000 T01000078 10128 20100 58006
IND,2020-04-04 17:55,M,M,M,310.00,9.00,M,30.06,M,10.00,M,OVC,M,M,M,900.00,M,M,M,M,M,M,M,M,M,M,M,KIND 041755Z AUTO 31009KT 10SM OVC009 10/07 A3005 RMK T01000070 MADISHF
IND,2020-04-04 18:00,M,M,M,310.00,10.00,M,30.06,M,10.00,M,OVC,M,M,M,900.00,M,M,M,M,M,M,M,M,M,M,M,KIND 041800Z AUTO 31010KT 10SM OVC009 11/08 A3005 RMK T01100080 MADISHF
IND,2020-04-04 18:05,M,M,M,320.00,10.00,M,30.06,M,10.00,M,OVC,M,M,M,900.00,M,M,M,M,M,M,M,M,M,M,M,KIND 041805Z AUTO 32010KT 10SM OVC009 11/08 A3005 RMK T01100080 MADISHF
IND,2020-04-04 18:10,M,M,M,320.00,8.00,M,30.06,M,10.00,M,OVC,M,M,M,900.00,M,M,M,M,M,M,M,M,M,M,M,KIND 041810Z AUTO 32008KT 10SM OVC009 11/08 A3005 RMK T01100080 MADISHF
IND,2020-04-04 18:15,M,M,M,330.00,7.00,M,30.06,M,10.00,M,OVC,M,M,M,900.00,M,M,M,M,M,M,M,M,M,M,M,KIND 041815Z AUTO 33007KT 10SM OVC009 11/08 A3005 RMK T01100080 MADISHF
IND,2020-04-04 18:20,M,M,M,340.00,9.00,M,30.06,M,10.00,M,OVC,M,M,M,900.00,M,M,M,M,M,M,M,M,M,M,M,KIND 041820Z AUTO 34009KT 10SM OVC009 11/08 A3005 RMK T01100080 MADISHF
IND,2020-04-04 18:25,M,M,M,340.00,7.00,M,30.06,M,10.00,M,OVC,M,M,M,900.00,M,M,M,M,M,M,M,M,M,M,M,KIND 041825Z AUTO 34007KT 10SM OVC009 11/08 A3005 RMK T01100080 MADISHF
IND,2020-04-04 18:30,M,M,M,330.00,8.00,M,30.06,M,10.00,M,OVC,M,M,M,900.00,M,M,M,M,M,M,M,M,M,M,M,KIND 041830Z AUTO 33008KT 10SM OVC009 11/08 A3005 RMK T01100080 MADISHF
IND,2020-04-04 18:35,M,M,M,330.00,8.00,M,30.05,M,10.00,M,OVC,M,M,M,999.00,M,M,M,M,M,M,M,M,M,M,M,KIND 041835Z AUTO 33008KT 10SM OVC009 11/08 A3004 RMK T01100080 MADISHF
IND,2020-04-04 18:39,52.00,46.00,79.92,310.00,9.00,0.00,30.05,M,10.00,M,OVC,M,M,M,1000.00,M,M,M,M,M,M,M,M,M,M,M,KIND 041839Z 31009KT 10SM OVC010 11/08 A3005 RMK AO2 T01110078
IND,2020-04-04 18:40,M,M,M,300.00,8.00,M,30.05,M,10.00,M,OVC,M,M,M,999.00,M,M,M,M,M,M,M,M,M,M,M,KIND 041840Z AUTO 30008KT 10SM OVC009 11/08 A3004 RMK T01100080 MADISHF
IND,2020-04-04 18:45,M,M,M,310.00,5.00,M,30.05,M,10.00,M,OVC,M,M,M,999.00,M,M,M,M,M,M,M,M,M,M,M,KIND 041845Z AUTO 31005KT 10SM OVC009 11/08 A3004 RMK T01100080 MADISHF
IND,2020-04-04 18:50,M,M,M,300.00,9.00,M,30.05,M,10.00,M,OVC,M,M,M,1100.00,M,M,M,M,M,M,M,M,M,M,M,KIND 041850Z AUTO 30009KT 10SM OVC011 11/08 A3004 RMK T01100080 MADISHF
IND,2020-04-04 18:54,52.00,46.00,79.92,320.00,9.00,0.00,30.05,1017.60,10.00,M,OVC,M,M,M,1100.00,M,M,M,M,M,M,M,M,M,M,M,KIND 041854Z 32009KT 10SM OVC011 11/08 A3005 RMK AO2 SLP176 T01110078
IND,2020-04-04 18:55,M,M,M,320.00,9.00,M,30.05,M,10.00,M,OVC,M,M,M,1100.00,M,M,M,M,M,M,M,M,M,M,M,KIND 041855Z AUTO 32009KT 10SM OVC011 11/08 A3004 RMK T01100080 MADISHF
IND,2020-04-04 19:00,M,M,M,310.00,8.00,M,30.05,M,10.00,M,OVC,M,M,M,1100.00,M,M,M,M,M,M,M,M,M,M,M,KIND 041900Z AUTO 31008KT 10SM OVC011 11/08 A3004 RMK T01100080 MADISHF
IND,2020-04-04 19:05,M,M,M,310.00,8.00,M,30.05,M,10.00,M,OVC,M,M,M,1100.00,M,M,M,M,M,M,M,M,M,M,M,KIND 041905Z AUTO 31008KT 10SM OVC011 11/08 A3004 RMK T01100080 MADISHF
IND,2020-04-04 19:10,M,M,M,310.00,8.00,M,30.05,M,10.00,M,OVC,M,M,M,1100.00,M,M,M,M,M,M,M,M,M,M,M,KIND 041910Z AUTO 31008KT 10SM OVC011 11/08 A3004 RMK T01100080 MADISHF
IND,2020-04-04 19:15,M,M,M,310.00,5.00,M,30.05,M,10.00,M,OVC,M,M,M,1100.00,M,M,M,M,M,M,M,M,M,M,M,KIND 041915Z AUTO 31005KT 10SM OVC011 11/08 A3004 RMK T01100080 MADISHF
IND,2020-04-04 19:20,M,M,M,300.00,9.00,M,30.05,M,10.00,M,OVC,M,M,M,1200.00,M,M,M,M,M,M,M,M,M,M,M,KIND 041920Z AUTO 30009KT 10SM OVC012 12/08 A3004 RMK T01200080 MADISHF
IND,2020-04-04 19:25,M,M,M,300.00,8.00,M,30.05,M,10.00,M,OVC,M,M,M,1200.00,M,M,M,M,M,M,M,M,M,M,M,KIND 041925Z AUTO 30008KT 10SM OVC012 12/08 A3004 RMK T01200080 MADISHF
IND,2020-04-04 19:30,M,M,M,320.00,7.00,M,30.05,M,10.00,M,OVC,M,M,M,1200.00,M,M,M,M,M,M,M,M,M,M,M,KIND 041930Z AUTO 32007KT 10SM OVC012 12/08 A3004 RMK T01200080 MADISHF
IND,2020-04-04 19:35,M,M,M,290.00,9.00,M,30.04,M,10.00,M,OVC,M,M,M,1200.00,M,M,M,M,M,M,M,M,M,M,M,KIND 041935Z AUTO 29009KT 10SM OVC012 12/08 A3004 RMK T01200080 MADISHF
IND,2020-04-04 19:40,M,M,M,310.00,10.00,M,30.04,M,10.00,M,OVC,M,M,M,1200.00,M,M,M,M,M,M,M,M,M,M,M,KIND 041940Z AUTO 31010KT 10SM OVC012 12/08 A3004 RMK T01200080 MADISHF
IND,2020-04-04 19:45,M,M,M,310.00,9.00,M,30.04,M,10.00,M,OVC,M,M,M,1200.00,M,M,M,M,M,M,M,M,M,M,M,KIND 041945Z AUTO 31009KT 10SM OVC012 11/08 A3004 RMK T01100080 MADISHF
IND,2020-04-04 19:50,M,M,M,320.00,8.00,M,30.04,M,10.00,M,OVC,M,M,M,1200.00,M,M,M,M,M,M,M,M,M,M,M,KIND 041950Z AUTO 32008KT 10SM OVC012 12/08 A3004 RMK T01200080 MADISHF
IND,2020-04-04 19:54,53.10,46.90,79.40,330.00,10.00,0.00,30.04,1017.30,10.00,M,OVC,M,M,M,1300.00,M,M,M,M,M,M,M,M,M,M,M,KIND 041954Z 33010KT 10SM OVC013 12/08 A3004 RMK AO2 SLP173 T01170083
IND,2020-04-04 19:55,M,M,M,330.00,10.00,M,30.05,M,10.00,M,OVC,M,M,M,1300.00,M,M,M,M,M,M,M,M,M,M,M,KIND 041955Z AUTO 33010KT 10SM OVC013 12/08 A3004 RMK T01200080 MADISHF
IND,2020-04-04 20:00,M,M,M,320.00,8.00,M,30.04,M,10.00,M,OVC,M,M,M,1300.00,M,M,M,M,M,M,M,M,M,M,M,KIND 042000Z AUTO 32008KT 10SM OVC013 12/08 A3004 RMK T01200080 MADISHF
IND,2020-04-04 20:05,M,M,M,320.00,9.00,M,30.04,M,10.00,M,OVC,M,M,M,1300.00,M,M,M,M,M,M,M,M,M,M,M,KIND 042005Z AUTO 32009KT 10SM OVC013 11/08 A3004 RMK T01100080 MADISHF
IND,2020-04-04 20:10,M,M,M,330.00,9.00,M,30.04,M,10.00,M,OVC,M,M,M,1300.00,M,M,M,M,M,M,M,M,M,M,M,KIND 042010Z AUTO 33009KT 10SM OVC013 11/08 A3004 RMK T01100080 MADISHF
IND,2020-04-04 20:15,M,M,M,320.00,8.00,M,30.04,M,10.00,M,OVC,M,M,M,1300.00,M,M,M,M,M,M,M,M,M,M,M,KIND 042015Z AUTO 32008KT 10SM OVC013 12/08 A3004 RMK T01200080 MADISHF
IND,2020-04-04 20:20,M,M,M,320.00,8.00,M,30.04,M,10.00,M,OVC,M,M,M,1300.00,M,M,M,M,M,M,M,M,M,M,M,KIND 042020Z AUTO 32008KT 10SM OVC013 12/08 A3004 RMK T01200080 MADISHF
IND,2020-04-04 20:25,M,M,M,310.00,9.00,M,30.04,M,10.00,M,OVC,M,M,M,1300.00,M,M,M,M,M,M,M,M,M,M,M,KIND 042025Z AUTO 31009KT 10SM OVC013 12/08 A3004 RMK T01200080 MADISHF
IND,2020-04-04 20:30,M,M,M,310.00,7.00,M,30.04,M,10.00,M,OVC,M,M,M,1300.00,M,M,M,M,M,M,M,M,M,M,M,KIND 042030Z AUTO 31007KT 10SM OVC013 12/08 A3004 RMK T01200080 MADISHF
IND,2020-04-04 20:35,M,M,M,310.00,10.00,M,30.05,M,10.00,M,OVC,M,M,M,1300.00,M,M,M,M,M,M,M,M,M,M,M,KIND 042035Z AUTO 31010KT 10SM OVC013 12/08 A3004 RMK T01200080 MADISHF
IND,2020-04-04 20:40,M,M,M,310.00,10.00,M,30.05,M,10.00,M,OVC,M,M,M,1300.00,M,M,M,M,M,M,M,M,M,M,M,KIND 042040Z AUTO 31010KT 10SM OVC013 11/08 A3004 RMK T01100080 MADISHF
IND,2020-04-04 20:45,M,M,M,320.00,9.00,M,30.04,M,10.00,M,OVC,M,M,M,1300.00,M,M,M,M,M,M,M,M,M,M,M,KIND 042045Z AUTO 32009KT 10SM OVC013 11/08 A3004 RMK T01100080 MADISHF
IND,2020-04-04 20:50,M,M,M,330.00,10.00,M,30.04,M,10.00,M,OVC,M,M,M,1300.00,M,M,M,M,M,M,M,M,M,M,M,KIND 042050Z AUTO 33010KT 10SM OVC013 11/08 A3004 RMK T01100080 MADISHF
IND,2020-04-04 20:54,51.10,46.00,82.62,330.00,11.00,0.00,30.04,1017.40,10.00,M,OVC,M,M,M,1300.00,M,M,M,M,M,M,M,M,M,M,M,KIND 042054Z 33011KT 10SM OVC013 11/08 A3004 RMK AO2 SLP174 T01060078 56006
IND,2020-04-04 20:55,M,M,M,330.00,11.00,M,30.04,M,10.00,M,OVC,M,M,M,1300.00,M,M,M,M,M,M,M,M,M,M,M,KIND 042055Z AUTO 33011KT 10SM OVC013 11/08 A3004 RMK T01100080 MADISHF
IND,2020-04-04 21:00,M,M,M,300.00,10.00,M,30.05,M,10.00,M,OVC,M,M,M,1300.00,M,M,M,M,M,M,M,M,M,M,M,KIND 042100Z AUTO 30010KT 10SM OVC013 11/08 A3004 RMK T01100080 MADISHF
IND,2020-04-04 21:05,M,M,M,320.00,11.00,M,30.05,M,10.00,M,OVC,M,M,M,1300.00,M,M,M,M,M,M,M,M,M,M,M,KIND 042105Z AUTO 32011KT 10SM OVC013 11/08 A3004 RMK T01100080 MADISHF
IND,2020-04-04 21:10,M,M,M,320.00,11.00,M,30.05,M,10.00,M,OVC,M,M,M,1300.00,M,M,M,M,M,M,M,M,M,M,M,KIND 042110Z AUTO 32011KT 10SM OVC013 11/07 A3004 RMK T01100070 MADISHF
IND,2020-04-04 21:15,M,M,M,310.00,10.00,M,30.05,M,10.00,M,OVC,M,M,M,1300.00,M,M,M,M,M,M,M,M,M,M,M,KIND 042115Z AUTO 31010KT 10SM OVC013 11/07 A3004 RMK T01100070 MADISHF
IND,2020-04-04 21:20,M,M,M,310.00,10.00,M,30.05,M,10.00,M,OVC,M,M,M,1200.00,M,M,M,M,M,M,M,M,M,M,M,KIND 042120Z AUTO 31010KT 10SM OVC012 11/07 A3004 RMK T01100070 MADISHF
IND,2020-04-04 21:25,M,M,M,300.00,11.00,M,30.05,M,10.00,M,OVC,M,M,M,1200.00,M,M,M,M,M,M,M,M,M,M,M,KIND 042125Z AUTO 30011KT 10SM OVC012 10/07 A3004 RMK T01000070 MADISHF
IND,2020-04-04 21:30,M,M,M,310.00,11.00,M,30.05,M,10.00,M,OVC,M,M,M,1200.00,M,M,M,M,M,M,M,M,M,M,M,KIND 042130Z AUTO 31011KT 10SM OVC012 10/07 A3004 RMK T01000070 MADISHF
IND,2020-04-04 21:35,M,M,M,310.00,11.00,M,30.05,M,10.00,M,OVC,M,M,M,1200.00,M,M,M,M,M,M,M,M,M,M,M,KIND 042135Z AUTO 31011KT 10SM OVC012 10/07 A3004 RMK T01000070 MADISHF
IND,2020-04-04 21:40,M,M,M,330.00,10.00,M,30.05,M,10.00,M,OVC,M,M,M,1200.00,M,M,M,M,M,M,M,M,M,M,M,KIND 042140Z AUTO 33010KT 10SM OVC012 10/07 A3004 RMK T01000070 MADISHF
IND,2020-04-04 21:45,M,M,M,320.00,10.00,M,30.05,M,10.00,M,OVC,M,M,M,1200.00,M,M,M,M,M,M,M,M,M,M,M,KIND 042145Z AUTO 32010KT 10SM OVC012 10/07 A3004 RMK T01000070 MADISHF
IND,2020-04-04 21:50,M,M,M,320.00,8.00,M,30.06,M,10.00,M,OVC,M,M,M,999.00,M,M,M,M,M,M,M,M,M,M,M,KIND 042150Z AUTO 32008KT 10SM OVC009 09/07 A3005 RMK T00900070 MADISHF
IND,2020-04-04 21:54,48.90,45.00,86.33,310.00,11.00,0.00,30.06,1017.90,10.00,M,OVC,M,M,M,1000.00,M,M,M,M,M,M,M,M,M,M,43.82,KIND 042154Z 31011KT 10SM OVC010 09/07 A3006 RMK AO2 SLP179 T00940072
IND,2020-04-04 21:55,M,M,M,310.00,11.00,M,30.06,M,10.00,M,OVC,M,M,M,999.00,M,M,M,M,M,M,M,M,M,M,M,KIND 042155Z AUTO 31011KT 10SM OVC009 09/07 A3005 RMK T00900070 MADISHF
IND,2020-04-04 22:00,M,M,M,310.00,10.00,M,30.06,M,10.00,M,OVC,M,M,M,999.00,M,M,M,M,M,M,M,M,M,M,M,KIND 042200Z AUTO 31010KT 10SM OVC009 09/07 A3005 RMK T00900070 MADISHF
IND,2020-04-04 22:05,M,M,M,320.00,10.00,M,30.06,M,10.00,M,OVC,M,M,M,999.00,M,M,M,M,M,M,M,M,M,M,M,KIND 042205Z AUTO 32010KT 10SM OVC009 09/07 A3005 RMK T00900070 MADISHF
IND,2020-04-04 22:10,M,M,M,320.00,9.00,M,30.06,M,10.00,M,OVC,M,M,M,999.00,M,M,M,M,M,M,M,M,M,M,M,KIND 042210Z AUTO 32009KT 10SM OVC009 09/07 A3005 RMK T00900070 MADISHF
IND,2020-04-04 22:15,M,M,M,310.00,11.00,M,30.06,M,8.00,M,OVC,M,M,M,999.00,M,M,M,-RA,M,M,M,M,M,M,M,KIND 042215Z AUTO 31011KT 8SM -RA OVC009 09/07 A3005 RMK T00900070 MADISHF
IND,2020-04-04 22:20,M,M,M,310.00,10.00,M,30.06,M,8.00,M,OVC,M,M,M,999.00,M,M,M,-RA,M,M,M,M,M,M,M,KIND 042220Z AUTO 31010KT 8SM -RA OVC009 09/08 A3005 RMK T00900080 MADISHF
IND,2020-04-04 22:25,M,M,M,310.00,9.00,M,30.06,M,9.00,M,OVC,M,M,M,999.00,M,M,M,-RA,M,M,M,M,M,M,M,KIND 042225Z AUTO 31009KT 9SM -RA OVC009 09/08 A3005 RMK T00900080 MADISHF
IND,2020-04-04 22:30,M,M,M,320.00,10.00,M,30.06,M,10.00,M,OVC,M,M,M,999.00,M,M,M,M,M,M,M,M,M,M,M,KIND 042230Z AUTO 32010KT 10SM OVC009 09/08 A3005 RMK T00900080 MADISHF
IND,2020-04-04 22:35,M,M,M,330.00,10.00,M,30.06,M,10.00,M,OVC,M,M,M,999.00,M,M,M,M,M,M,M,M,M,M,M,KIND 042235Z AUTO 33010KT 10SM OVC009 09/08 A3005 RMK T00900080 MADISHF
IND,2020-04-04 22:40,M,M,M,320.00,10.00,M,30.06,M,10.00,M,OVC,M,M,M,900.00,M,M,M,M,M,M,M,M,M,M,M,KIND 042240Z AUTO 32010KT 10SM OVC009 09/07 A3005 RMK T00900070 MADISHF
IND,2020-04-04 22:42,48.00,45.00,89.29,330.00,11.00,T,30.06,M,10.00,M,OVC,M,M,M,900.00,M,M,M,M,M,M,M,M,M,M,42.69,KIND 042242Z 33011KT 10SM OVC009 09/07 A3006 RMK AO2 RAB14E28 P0000 T00890072
IND,2020-04-04 22:45,M,M,M,330.00,11.00,M,30.06,M,10.00,M,OVC,M,M,M,900.00,M,M,M,M,M,M,M,M,M,M,M,KIND 042245Z AUTO 33011KT 10SM OVC009 09/07 A3005 RMK T00900070 MADISHF
IND,2020-04-04 22:50,M,M,M,330.00,10.00,M,30.06,M,10.00,M,OVC,M,M,M,700.00,M,M,M,M,M,M,M,M,M,M,M,KIND 042250Z AUTO 33010KT 10SM OVC007 09/07 A3005 RMK T00900070 MADISHF
IND,2020-04-04 22:54,48.00,45.00,89.29,330.00,11.00,T,30.06,1018.10,10.00,M,OVC,M,M,M,700.00,M,M,M,M,M,M,M,M,M,M,42.69,KIND 042254Z 33011KT 10SM OVC007 09/07 A3006 RMK AO2 RAB14E28 SLP181 P0000 T00890072
IND,2020-04-04 22:55,M,M,M,320.00,11.00,M,30.06,M,10.00,M,OVC,M,M,M,700.00,M,M,M,M,M,M,M,M,M,M,M,KIND 042255Z AUTO 32011KT 10SM OVC007 09/07 A3005 RMK T00900070 MADISHF
IND,2020-04-04 23:00,M,M,M,330.00,11.00,M,30.06,M,10.00,M,OVC,M,M,M,800.00,M,M,M,M,M,M,M,M,M,M,M,KIND 042300Z AUTO 33011KT 10SM OVC008 09/07 A3005 RMK T00900070 MADISHF
IND,2020-04-04 23:05,M,M,M,340.00,10.00,M,30.07,M,10.00,M,OVC,M,M,M,800.00,M,M,M,M,M,M,M,M,M,M,M,KIND 042305Z AUTO 34010KT 10SM OVC008 09/07 A3006 RMK T00900070 MADISHF
IND,2020-04-04 23:10,M,M,M,340.00,10.00,M,30.07,M,10.00,M,OVC,M,M,M,800.00,M,M,M,M,M,M,M,M,M,M,M,KIND 042310Z AUTO 34010KT 10SM OVC008 09/07 A3006 RMK T00900070 MADISHF
IND,2020-04-04 23:15,M,M,M,330.00,11.00,M,30.07,M,10.00,M,OVC,M,M,M,900.00,M,M,M,M,M,M,M,M,M,M,M,KIND 042315Z AUTO 33011KT 10SM OVC009 08/07 A3006 RMK T00800070 MADISHF
IND,2020-04-04 23:20,M,M,M,340.00,11.00,M,30.07,M,10.00,M,BKN,OVC,M,M,900.00,1300.00,M,M,M,M,M,M,M,M,M,M,KIND 042320Z AUTO 34011KT 10SM BKN009 OVC013 08/07 A3006 RMK T00800070 MADISHF
IND,2020-04-04 23:25,M,M,M,330.00,10.00,M,30.07,M,10.00,M,BKN,OVC,M,M,1100.00,3600.00,M,M,M,M,M,M,M,M,M,M,KIND 042325Z AUTO 33010KT 10SM BKN011 OVC036 08/07 A3006 RMK T00800070 MADISHF
IND,2020-04-04 23:30,M,M,M,340.00,11.00,M,30.07,M,10.00,M,BKN,OVC,M,M,1100.00,3600.00,M,M,M,M,M,M,M,M,M,M,KIND 042330Z AUTO 34011KT 10SM BKN011 OVC036 08/07 A3006 RMK T00800070 MADISHF
IND,2020-04-04 23:31,46.90,44.10,89.92,340.00,11.00,0.00,30.07,M,10.00,M,BKN,OVC,M,M,1100.00,3600.00,M,M,M,M,M,M,M,M,M,41.30,KIND 042331Z 34011KT 10SM BKN011 OVC036 08/07 A3007 RMK AO2 T00830067
IND,2020-04-04 23:35,M,M,M,340.00,11.00,M,30.07,M,10.00,M,BKN,OVC,M,M,1100.00,3600.00,M,M,M,M,M,M,M,M,M,M,KIND 042335Z AUTO 34011KT 10SM BKN011 OVC036 08/06 A3006 RMK T00800060 MADISHF
IND,2020-04-04 23:40,M,M,M,350.00,10.00,M,30.07,M,10.00,M,BKN,OVC,M,M,1100.00,3600.00,M,M,M,M,M,M,M,M,M,M,KIND 042340Z AUTO 35010KT 10SM BKN011 OVC036 08/06 A3006 RMK T00800060 MADISHF
IND,2020-04-04 23:45,M,M,M,350.00,11.00,M,30.07,M,10.00,M,BKN,OVC,M,M,1100.00,3600.00,M,M,M,M,M,M,M,M,M,M,KIND 042345Z AUTO 35011KT 10SM BKN011 OVC036 08/07 A3006 RMK T00800070 MADISHF
IND,2020-04-04 23:50,M,M,M,350.00,11.00,M,30.07,M,10.00,M,OVC,M,M,M,1100.00,M,M,M,M,M,M,M,M,M,M,M,KIND 042350Z AUTO 35011KT 10SM OVC011 08/06 A3006 RMK T00800060 MADISHF
IND,2020-04-04 23:54,46.90,43.00,86.21,340.00,9.00,0.00,30.08,1018.60,10.00,M,BKN,OVC,M,M,1100.00,3600.00,M,M,M,M,M,M,M,M,M,42.04,KIND 042354Z 34009KT 10SM BKN011 OVC036 08/06 A3008 RMK AO2 SLP186 60000 T00830061 10122 20083 51010
IND,2020-04-04 23:55,M,M,M,340.00,10.00,M,30.08,M,10.00,M,BKN,OVC,M,M,1100.00,3600.00,M,M,M,M,M,M,M,M,M,M,KIND 042355Z AUTO 34010KT 10SM BKN011 OVC036 08/07 A3007 RMK T00800070 MADISHF
